spot_name,gallery_images,introduction,address,traffic_jam,parking_area,best_season,average_budget,best_num,crowd,facility,lat,lng,predicted_label_id,predicted_label
ポートタワー（神戸市）,"https://www.smartmagazine.jp/kansai/wp-content/uploads/2016/09/kobeporttower11.jpg",神戸市のランドマークタワーです。鼓型の美しい外観は、独特の構造、形状から「鉄塔の美女」とも称され高層建築物のモデルの一つとなっているほどです。神戸港のシンボルとして広く知られ、観光客が港町神戸を訪問する際に、その多くが立ち寄る拠点ともなっています。,650-0042 兵庫県神戸市中央区波止場町５−５,1時間,駐車場あり,春,3000円,何人でも,普通,屋内,34.682266,135.1868683,0,子連れ家族
明石海峡大橋,"https://www.feel-kobe.jp/app/wp-content/uploads/2022/10/%E6%98%8E%E7%9F%B3%E6%B5%B7%E5%B3%A1%E5%A4%A7%E6%A9%8B.jpg",淡路島を一望できる舞子公園がおすすめです。橋のスケールを体験したい人には有料ですが橋を登ることができます。近くにはアウトレットモール、マリンピア神戸もあるのでショッピングや食事も楽しむ事ができます。一日中遊べます。,655-0047 兵庫県神戸市垂水区東舞子町４,0.25時間,駐車場あり,通年,2000円,何人でも,少し空いている,屋外,34.6302848,135.0360367,0,子連れ家族
メタセコイヤ並木道,"https://travel.rakuten.co.jp/mytrip/sites/mytrip/files/styles/1cal_image/public/2023-05/shiga-takashima-guide-98712603.jpg?itok=tDfxf0tW",まっすぐな一本道の両端にメタセコイヤの木がズラッと並んでおり木々の間を走り抜くことができる場所です。木々の間から見える景色も住宅地ではないため、開放的であり春から夏は瑞々しい緑、秋には鮮やかな紅葉で季節によって彩りを変え、いつ行っても楽しませてくれます。,520-1835 滋賀県高島市マキノ町石庭,0.5時間,駐車場なし,夏,無料,何人でも,普通,屋外,35.4827557,136.0134234,1,恋人
美山 かやぶきの里・北村,"https://miyamanavi.com/files/topics/95_ext_24_5.jpg",美山かやぶきの里・北村は、京都府南丹市美山町北にある、現存する数多くの茅葺き屋根の家屋が特徴的な山村集落です。この地区は、伝統的な日本の農村風景を色濃く残しており、特に「北」集落では50戸のうち39棟がかやぶき屋根で覆われています。のどかな田園風景と歴史的な建築を楽しむことができる貴重な場所で、日常を離れた癒しを与えてくれます。また、かやぶきの里は京都府の重要伝統的建造物群保存地区に指定されており、その保存状態の良さから多くの観光客が訪れる人気スポットです。四季折々の自然美と共に、日本の伝統的な生活文化を感じることができます。,601-0712 京都府南丹市美山町北丁田,2時間,駐車場あり,秋,2000円,何人でも,少し混んでいる,屋外,35.312901,135.6238165,1,恋人
衝原湖,"https://kobe-rokko.jp/wp-content/uploads/2022/11/748e865d56db366b038a5f0c29e30413-5-scaled.jpg",神戸市北区にある自然に囲まれた絶景スポットです。休日には車や自転車、バイク乗りが多く集まります。とても広い無料駐車場で、トイレはありませんが自動販売機4台とベンチがあります。ここから少し走れば吞吐(どんど)ダムや「BE　KOBE」のモニュメントもあります。,651-1264 兵庫県神戸市北区山田町三津田,0.5時間,駐車場あり,秋,無料,何人でも,少し混んでいる,屋外,34.7211122,135.2334368,0,子連れ家族
谷瀬の吊り橋,"https://tabiiro.jp/lpimg/leisure/201581/main/img1.jpg",日本有数の長さを誇る鉄線の吊り橋です。 橋を渡っていると、ゆらゆらと揺れて恐怖が倍増！ 高いところが怖い方には渡り切るのは難しいかも知れません。 ただ、上から川を見下ろした景色は絶景です！ 吊り橋の下にはキャンプ場もあるので、家族でバーベキューやテントを張ってゆっくりとした時間を大自然の中で楽しめる場所となっています。,637-1106 奈良県吉野郡十津川村上野地６５−２,1時間,駐車場あり,通年,無料,何人でも,空いている,屋外,34.1006217,135.7628789,0,子連れ家族
青山高原,"https://tsukanko.jp/manage/wp-content/uploads/2023/12/DSC7817.jpg",青山高原は風力発電が何基も立ち並ぶCMに出てくるような絶景の中を走れる場所です。目的地はバイクの免許を取り立ての初心者ライダーでも行ける広くてきれいな道が続きます。道中には駐車場があり風力発電とバイクを撮れたりバイクを止めて展望台に行けます。展望台には飲食店があり高台で食べるソフトクリームは絶品です。,〒518-0203 三重県伊賀市勝地1852-63,1時間,駐車場あり,夏,無料,何人でも,普通,屋外,34.688611,136.275581,0,子連れ家族
シャーレ水ヶ浜,"https://shigatoco.com/photos/2024/04/9845463b5903c7eda072e86e884084b6-1.jpg",シャーレ水ヶ浜は琵琶湖のさざなみ街道の途中にある飲食店です。琵琶湖の湖畔に突き出したテラス席は景色がよりご飯がおいしく感じます。食事は軽食やデザートなどラインアップも豊富にあります。休日は混んでいることが多いため待たなければいけないこともあります。,523-0808 滋賀県近江八幡市長命寺町,1時間,駐車場あり,通年,1000円,何人でも,少し混んでいる,屋内,35.1624225,136.063084,1,恋人
下赤阪の棚田,"https://cdn.jalan.jp/jalan/img/2/kuchikomi/5172/KL/14583_0005172877_1.jpeg",大阪にある唯一の村「千早赤阪村」。その場所から見える棚田が「下赤坂の棚田」です。本当にここは大阪か！？と思うような田園風景が見渡せます。自然とバイクが一緒に撮れるおすすめのスポットです！ぜひ一度訪れてみてください！,585-0055 大阪府南河内郡千早赤阪村東阪２５,0.5時間,駐車場あり,春,無料,何人でも,空いている,屋外,34.4594832,135.6194971,0,子連れ家族
余呉湖,"https://kitabiwako.jp/wp_sys/wp-content/uploads/2019/01/ebef38d40d903794c9bc943437220607-1024x684.jpg",余呉湖は、おでかけ情報雑誌にもよく載っている絶景スポットです。鏡面度が高く、特に冬の風のない日は湖が空を映し出す鏡のようになります。湖の周りの道は狭いですが、バイクなら問題ありません。湖の付近から、バイクの写真を撮ると映えます。,529-0523 滋賀県長浜市余呉町川並,1時間,駐車場あり,通年,無料,何人でも,空いている,屋外,35.5297908,136.1878479,0,子連れ家族
淀川河川公園,"https://lohas-park.jp/wp-content/uploads/246218_17-07Ibaraki.jpg",大阪府を流れる淀川沿いの河川敷です。大阪では貴重な夏に花火ができる場所があります。秋は河川沿いにススキが見られ、四季折々の楽しみ方ができます。近所の人の散歩コースとなっており、多くのサイクリストが訪れる自然豊かな観光スポットです。,618-0081 京都府乙訓郡大山崎町下植野中島,1時間,駐車場あり,秋,無料,何人でも,少し空いている,屋外,34.9001703,135.7017795,0,子連れ家族
六甲山,"https://www.feel-photo.info/wp/wp-content/uploads/e27_web.jpg",六甲山の山頂付近に位置する夜景が綺麗に見えるスポットです。付近に六甲山牧場もあるので、昼間も楽しめます。ロープウェイでも行けます。三宮からも車で30分ほどなので、昼と夜に訪れて2度楽しむことができます。【鉢巻展望台】兵庫県の六甲山にある展望台です。神戸市も街並みを一望できます。昼はドライビングスポット、夜は夜景スポットになります。車、バイクともに通行可能ですが道幅は狭いため注意が必要です。また、展望台までの道のりが、大きなカーブが多く少し運転が大変と感じることがあるかもしれません。,657-0101 兵庫県神戸市灘区六甲山町五介山１８７７,1時間,駐車場あり,通年,160円,何人でも,少し空いている,屋外,34.7634469,135.2464853,0,子連れ家族
おじいさんの古時計,"https://tblg.k-img.com/restaurant/images/Rvw/182292/640x640_rect_f73c188a0feff1255bd97f5f5d4e7786.jpg",大阪府交野市にある隠れ家カフェです。付近には紅葉で有名な星のブランコがあります。登山が趣味のオーナーが気さくに話しかけてくれます。ログハウス風の見た目で雰囲気、味、接客すべて満足させてくれる穴場カフェです。,576-0033 大阪府交野市私市９丁目１８−１０,0.5時間,駐車場あり,通年,1000円,何人でも,空いている,屋内,34.7484219,135.6923645,0,子連れ家族
柳谷観音,"https://mobila-carlife.jp/article_objects/drive/_wp_admin_/wp-content/uploads/2023/06/yanagidani_ajisai_l.jpg.webp",柳谷観音は、平安時代から眼病に悩む人々に信仰されている眼病平癒の祈願所です。境内には天皇家ゆかりの歴史ある品も多く、季節ごとに五感を満たすイベントも開催されており、「花手水」なども人気です。「あじさいのみち」と呼ばれる参道も整備され、紫陽花や紅葉が見事な名所でもあります。また、毎月17日には十一面千手眼観音がご開帳され、多くの人で賑わいます。この祈願所は独鈷水という眼病平癒のご利益がある霊水によっても知られています。,617-0855 京都府長岡京市浄土谷堂ノ谷２,1時間,駐車場あり,秋,700円,何人でも,普通,屋内,34.9144689,135.6530513,0,子連れ家族
花屋倉展望台,"https://tabiiro.jp/lpimg/leisure/211241/main/img2.jpg",花屋倉展望台は、千本桜で有名な吉野の景色を一望できる展望台です。春の桜、秋の紅葉、朝焼け、夜景と様々な絶景が眺められます。観光客が多い通りを抜けるので、注意が必要です。道幅が狭く、対向車とのすれ違いもあるので速度を落として走行するようにしてください。,639-3115 奈良県吉野郡吉野町吉野山１７１１,0.5時間,駐車場あり,春,無料,何人でも,空いている,屋外,34.3555168,135.8720829,1,恋人
六十尋滝,"https://web-odai.info/fc/images/mustgo/01_bc95dd150dd41008ffac43c29c7c7e41ac44f97b.jpeg",三重県南部の山奥にある穴場の絶景スポットです。道中の路面状況は最悪で、小枝・落石・落ち葉と酷道がひたすら続きます。運転に自信のない方や免許取りたての初心者ライダーにはオススメできません。しかし、行った先には素晴らしい景色が待っているので、運転に慣れている人は行く価値がある場所です。,519-2634 三重県多気郡大台町大杉,0.5時間,駐車場あり,夏,無料,複数人,空いている,屋外,34.2096109,136.1517858,0,子連れ家族
かめおか霧のテラス,"https://kyotoside.jp/images/20191106085558.jpg",亀岡盆地には「丹波霧」と呼ばれる霧(雲海)が発生することがあり、これは亀岡を象徴する風景として知られています。「かめおか霧のテラス」は、亀岡盆地を覆う雲海を一望できる場所で、2018年に開設されました。朝方の晴れた早朝に望む風景は特に素晴らしいです。公式サイトも作られており、霧がかった絶景を見やすいタイミングなども掲載されています。亀岡ICから約10分で到着します。少し幅の狭い山道を登る必要がありますが、周辺にはゴルフ場もあったり、配達業の方も利用する道なので、比較的安心して絶景を楽しめます。,621-0854 京都府亀岡市下矢田町医王谷,0.5時間,駐車場なし,冬,無料,何人でも,少し空いている,屋外,35.0001444,135.5652993,1,恋人
鵜倉園地,https://ise-pit.com/blog/wp-content/uploads/2021/12/MG_0656.jpg",伊勢志摩国立公園にある景色の良いスポットです。4つの展望台「あけぼの展望台」「見江島展望台」「かさらぎ展望台」「橘展望台」があり、各展望台からは異なる風景が望めます。「あけぼの展望台」からは親子大橋、「見江島展望台」からは2015年4月に恋人の聖地に認定されたハート型の湾が見られます。また、リアス式海岸の美しい眺めを見ることができます。「見江島展望台」には観光望遠鏡やトイレもあります。バイクで展望台の近くまで行くことができるのでアクセスも良く、設備がきれいなのもポイントが高いです。昼間でも綺麗な入り江や山の景色で楽しめますが、夜になると、最高の星空を見ることができるので、より楽しめます。周辺はほとんど光がないため、夜空いっぱいの星を楽しむことができます。入り江はハートの形に見えるのでハートの入り江という名前ついています。,516-1303 三重県度会郡南伊勢町道行竈,1時間,駐車場あり,冬,無料,複数人,空いている,屋外,34.2645745,136.5499681,0,子連れ家族
中之島バラ園,https://osaka-burari.toniemon.com/wp-content/uploads/2021/05/PXL_20210514_213059232th_.jpg",約300種類以上のバラが植えられていて満開の時は感動するほど見応えがあります。バラ園の中にはカフェもあって休憩できるところもあります。大阪市の中心部に位置しているのでバラ園の後は梅田や難波方面にも簡単にアクセス可能です。,530-0005 大阪府大阪市北区中之島１丁目１,1.5時間,駐車場なし,春,無料,何人でも,少し混んでいる,屋外,34.6930796,135.5054551,0,子連れ家族
コスモスクエア周辺,https://trvimg.r10s.jp/share/image_up/172159/origin/1583fd5851e7c4f5da5531df78fba51286e90b3f.47.9.26.3.jpg?fit=inside|786:450&interpolation=lanczos-none",コスモタワーやATC等、近未来的な建物が多く、海に面した臨海都市で、近くに舞洲や咲州もあり、レジャー施設も豊富にあります。付近に橋がいくつかあり、海やコスモスクエアの近未来的な建物や、遠くに大阪の摩天楼を橋から眺めることができます。,559-0034 大阪府大阪市住之江区南港北２丁目１−１０,1時間,駐車場あり,通年,無料,何人でも,少し空いている,屋内,34.637107,135.4128187,0,子連れ家族
君ケ野ダム,https://motospot.jp/img/spot/img-2306-0-medium.jpg",三重県津市美杉町にあるダムとダム湖です。普段はひっそりと山間にたたずむダムですが、周辺には多くの桜の木があり、春には花見の人で賑わいます。1日だけの開催ですが、毎年桜祭りも行われています。天気が良い日に桜が咲くダム湖周辺をバイクで走るのは爽快です。桜の咲く時期に訪れるのがオススメです。,515-3202 三重県津市美杉町八手俣,1時間,駐車場あり,春,無料,一人,空いている,屋外,34.5898493,136.3288901,0,子連れ家族
丹生川上神社,https://yamatoji.nara-kankou.or.jp/contents/images/0000000311/455cb22dee703dbad81a77e2a913c508.jpg",丹生川上神社は、奈良県吉野郡川上村にある古社で、約1300年以上の歴史を持つ神社です。大和川の源流である丹生川のほとりに位置し、古来から水の神を祀る神社として信仰を集めています。主祭神は高龗神（たかおかみのかみ）で、雨乞いや水運、農業などに関連するご利益があるとされています。この神社は、上社・中社・下社の三つから構成され、いずれも深い自然に囲まれた静寂な環境にあります。上社は特に雨乞いの儀式が行われたことで有名で、古代から農耕の発展に重要な役割を果たしてきました。また、境内は自然豊かで、四季折々の美しい風景を楽しむことができ、特に秋の紅葉が見事です。丹生川上神社は、水にまつわる神聖な空間として、今も多くの参拝者が訪れる場所となっています。,633-2431 奈良県吉野郡東吉野村小９６８,0.5時間,駐車場あり,通年,無料,何人でも,普通,屋外,34.3901647,135.9863925,1,恋人
湖畔の里 つきがせ,"https://lp.p.pia.jp/shared/materials/062bc80a-c8be-4cd5-8496-19ffe85510f9/origin.jpg",月ヶ瀬梅渓の八幡橋南詰にあり、豊かな自然環境に恵まれた道の駅です。月ヶ瀬湖畔の絶景も望め、春には桜、秋には紅葉など四季折々の景色が楽しめます。直売所では地域の特産物の野菜やお土産も購入でき、軽食をとることができる食堂もあります。,630-2306 奈良県奈良市月ヶ瀬桃香野４２６７−５,0.5時間,駐車場あり,秋,無料,何人でも,少し空いている,屋内,34.7067854,136.015833,2,道の駅
書写山圓教寺,"https://tripeditor.com/wp-content/uploads/2021/08/26160658/shutterstock_1965367624-1.jpg",「書写山圓教寺」は康保3年(966)に性空上人が開創。閑静な山内に数多くの堂塔が立ち並ぶ様は“西の比叡山”とも呼ばれ、数多くの映画やドラマのロケ地となっています。ロープウェイで全長781m、高低差211mを進み、山頂へ近付くたびに明石海峡大橋、淡路島、小豆島、四国、と眼前の景色が広がります。,671-2201 兵庫県姫路市書写２９６８,1時間,駐車場あり,通年,無料,何人でも,少し空いている,屋外,34.8895745,134.6593203,1,恋人
琵琶湖,"https://japan-heritage.bunka.go.jp/ja/datas/images/2022/09/08/6fe7499bce8c62eec9da61cda94508a70a475f2d.jpg",琵琶湖沿いの道がきれいで走りやすいです。 ただし車線が少ない箇所があり混雑していることもあるので夏場はつらい時があります。 冬は気温が下がり寒いので春か秋がオススメです。 周辺にカフェなどもあるため休憩場所にも困りません。,琵琶湖,1時間,不明,秋,無料,複数人,少し混んでいる,屋外,35.3456394,136.1709012,1,恋人
灘黒岩水仙郷,https://www.hyogo-tourism.jp/images/files/20231218_%E5%8D%97%E3%81%82%E3%82%8F%E3%81%98%E5%B8%82_%E7%81%98%E9%BB%92%E5%B2%A9%E6%B0%B4%E4%BB%99%E9%83%B7/%E7%81%98%E9%BB%92%E5%B2%A9%E6%B0%B4%E4%BB%99%E9%83%B7_002.jpg",淡路島の東南部の海岸沿いにある「灘黒岩水仙郷」は、海岸沿いの急斜面の山並み一面に500万本もの野生の水仙が咲き乱れる絶景スポットです。12月から3月ごろまでの時期は、水仙の花のホワイトとイエローの色合いと海岸からみえる海のコバルトブルーとのコントラストがとても美しく、普段の日常を忘れる、癒しのひとときを過ごせます。,656-0551 兵庫県南あわじ市灘黒岩２,1時間,駐車場あり,春,1000円,何人でも,普通,屋外,34.2256535,134.8354534,1,恋人
片男波海水浴場,"https://motospot.jp/img/spot/img-2564-1-medium.jpg",和歌山市内にある海水浴場で大阪からのアクセスにも便利です。砂浜は人工砂で1200mの長さがあり、和歌山県でも最大級の規模です。2009年に水質や清潔さ、水難対策などが評価され「快水浴場百選 海の部特選」に選ばれています。万葉集に詠まれた景勝地である和歌の浦にあり、施設も充実しています。駐車場は17時までで有料です。,641-0022 和歌山県和歌山市和歌浦南３丁目１７４０,0.5時間,駐車場あり,夏,無料,何人でも,空いている,屋外,34.1784419,135.1740161,0,子連れ家族
元興寺,"https://yamatoji.nara-kankou.or.jp/contents/images/0000000125/17d3f89fc0762e616a47c5ceeb5ac0aa.jpg",元興寺（がんこうじ）は、奈良県奈良市にある歴史的な寺院で、飛鳥時代に創建された日本最古の仏教寺院の一つです。元々は飛鳥にあった法興寺を奈良の地に移転したもので、奈良時代には東大寺や興福寺と並ぶ大寺として栄えました。元興寺の見どころは、国宝に指定されている「極楽坊本堂」や「禅室」です。本堂の屋根には、飛鳥時代の瓦が現存しており、約1400年の歴史を感じさせます。また、極楽坊の周辺には四季折々の花が咲き誇り、静かで落ち着いた雰囲気の中で仏教の歴史に触れることができます。毎年8月には「地蔵会万灯供養」が行われ、境内が無数の灯籠で照らされる幻想的な光景が広がります。歴史好きや仏教文化に興味がある方にとって、訪れる価値のある場所です。駐車場はありませんが、観光地なので、青空パーキングが周辺にあります。,630-8392 奈良県奈良市中院町１１,1時間,駐車場なし,通年,500円,何人でも,少し空いている,屋外,34.6777903,135.831716,0,子連れ家族
依水園,"https://isuien.or.jp/images/bg1.jpg",奈良市の中心地にある日本庭園です。周りとは隔絶された自然の景色が広がっています。江戸と明治に作られた二つの日本庭園があり、それぞれ時代が違うので異なる美しさがあります。美術館が併設されており、東アジアの美術品などを展示しています。季節ごとに美しい景観を楽しむことができます。近くに東大寺や奈良公園も隣接しているため、周囲の観光スポットと合わせて回ることができます。周辺道路は鹿が歩き回っているので、速度に気をつけて走行するようにしてください。,630-8208 奈良県奈良市水門町７４,1時間,駐車場なし,秋,1200円,一人,少し空いている,屋外,34.6854908,135.8376847,0,子連れ家族
大和神社,"https://yamatoji.nara-kankou.or.jp/contents/images/0000000304/0d592ac804e1b77d8f472c53153b4fbe.jpg",大和神社（おおやまとじんじゃ）は、奈良県天理市にある歴史深い神社で、古くは「日本最古の神社」の一つとして知られています。祭神は、日本の軍神とされる大物主大神で、古代から国の安泰や武運長久、農業の繁栄などを祈る場として信仰を集めてきました。大和神社の境内は広大で、静寂な雰囲気が漂い、四季折々の自然が楽しめる美しい場所です。特に春には桜が咲き誇り、多くの参拝者が訪れます。また、重要文化財に指定されている本殿や拝殿は、古代の建築様式を今に伝える貴重な建造物です。毎年10月には「大和神社例大祭」が行われ、神輿渡御や伝統的な舞楽が奉納されるなど、地域の重要な行事として賑わいます。神社は、歴史的な背景と自然の美しさを楽しめる奈良県の代表的な神社の一つです。戦争つい没者の慰霊碑があり、小さい資料館もあります。そこには戦艦大和の模型がおいており、貴重な写真なども見ることができます。,632-0057 奈良県天理市新泉町３０６,0.5時間,駐車場あり,通年,無料,何人でも,少し空いている,屋外,34.5709278,135.8374199,0,子連れ家族
出雲大神宮,"https://cdn.4travel.jp/img/thumbnails/imk/tips_pict/17/52/84/650x450_17528445.jpg?updated_at=1600937304",出雲大神宮は、京都府亀岡市にある神社で、古代から縁結びの神として信仰を集めてきた場所です。大国主命（おおくにぬしのみこと）を主祭神として祀っており、出雲大社と同様に縁結びや福徳の神社として親しまれています。「古来、日本一の縁結びの神」と称され、恋愛成就や夫婦円満を願う多くの参拝者が訪れます。神社の境内は、豊かな自然に囲まれ、静かな雰囲気が漂っています。特に「磐座（いわくら）」と呼ばれる巨石群は神聖な場所とされ、古代からの信仰の対象です。さらに、境内には「玉の泉」という湧水があり、この水を飲むと長寿になると言われています。出雲大神宮は、自然の美しさと神秘的な雰囲気が魅力のスポットで、年間を通じて多くの人々が訪れます。,621-0002 京都府亀岡市千歳町出雲後田無番地,1時間,バイク駐車場あり,通年,無料,何人でも,普通,屋外,35.05961,135.577,1,恋人
和束の茶畑,"https://d20aeo683mqd6t.cloudfront.net/wowjapan/images/wp-content/uploads/2018/04/01895_001.jpg",京都を代表する、茶畑が所狭しと広がる自然豊かな土地。抹茶を用いたスイーツやお蕎麦など、グルメも楽しめる。和束の茶畑を楽しんだ先に、狸の置物で有名な信楽へもアクセスができ、奈良や伊賀などへも足を運べるため、ツーリングやドライブの道選びにも困らない。,619-1222 京都府相楽郡和束町白栖大狭間３５番地,0.5時間,不明,夏,無料,何人でも,少し空いている,屋内,34.7960899,135.8982223,1,恋人
月ヶ瀬梅林,https://sioru-design.com/wp-content/uploads/umematsuri.png",関西屈指の梅林公園です。山からの景色や多くの梅を見ることができます。道中、舗装された山道で片道一車線ずつあり、ワイディングも程よく角度があるのでとても走っていて楽しい道です。見頃シーズンになると、駐車場に停められなくなるほど観光客が集まるので、なるべく朝早く到着するようにした方がいいです。駐車場も500〜1000円程の価格幅がありますので、安い駐車場に停められるかどうかは運次第となります。,630-2302 奈良県奈良市月ヶ瀬尾山,2時間,駐車場あり,春,500円,何人でも,混んでいる,屋外,34.7085759,136.0491689,0,子連れ家族
ヴィソン,"https://vison.mie-vison.org/sightseeing/common/assets/img/external/b0d358df1ab44ca4d9c43a7faab76571d5264b8c.jpg",日本最大級の商業リゾートVISON（ヴィソン）。伊勢自動車道と紀勢自動車道をつなぐ勢和多気JCTを降りてすぐの位置にある敷地面積54ha（東京ドーム24個分 ）を誇る巨大商業施設です。日本最大級の産直市場「マルシェ ヴィソン」や、パティシエ・ショコラティエの辻口 博啓氏が手がけるパティスリー、石窯パン屋を展開する「スイーツヴィレッジ」などをはじめとする９エリアで約70店舗が楽しめます。また、VISON独自の「本草七十二候」という考えに基づき調合された72種類の薬草湯があります。施設内には宿泊施設もあり、ゆったりと過ごすことができます。,519-2170 三重県多気郡多気町ヴィソン,2時間,駐車場あり,通年,無料,何人でも,少し混んでいる,屋内,34.4583742,136.5138553,0,子連れ家族
城崎温泉,"https://kinosaki-spa.gr.jp/core/wp-content/uploads/2020/04/49565415806_d82108b6d4_k-1200x801.jpg",志賀直哉の小説「城崎にて」で有名な、兵庫県にある温泉地です。街の中心に川が流れており、両側を総湯や旅館、お土産処などが立ち並んでいます。宿泊客は。各旅館の駐車場に車やバイクを停めて散策出来ます。7つほどの公衆浴場の他、旅館のお風呂があります。全体的に温泉は熱めです。昔ながらの温泉地の風情かありつつ、モダンでお洒落なカフェなどもあります。,669-6101 兵庫県豊岡市城崎町湯島,18時間,不明,通年,12000円,何人でも,少し混んでいる,屋内,35.6291643,134.7931026,0,子連れ家族
伊丹空港 千里川土手,"https://maido-storage.oss-cn-hongkong.aliyuncs.com/maido/uploads/2022/09/senri-riverbank-main.jpg",伊丹空港の滑走路前にある千里川の土手です。着陸寸前の場所で、飛行機の真下が見られる場所です。バイクは手押しで入れることができます。バイクと飛行機を一緒に迫力ある写真が撮れるので、多くのライダーが写真を撮りにきています。,561-0805 大阪府豊中市原田中２丁目,0.5時間,駐車場なし,通年,無料,一人,普通,屋外,34.7707299,135.4539264,0,子連れ家族
八幡山,"https://www.biwako-visitors.jp/uploads/images/spots/resized/640/93445047ae42ff16dc5e80ac83555aeb58fa4d241d4565b7296079b8e2b26635.jpg?key=9710cd1d55395dafee1fa8ff7084a5e928d323fe",八幡山は、かつて豊臣秀吉の甥である秀次の居城が築かれた場所としても有名で、頂上からは近江八幡の街並みや琵琶湖を望むこともできる絶景のスポットです。山頂に続くロープウェイがあり、15分間隔で運行されており、一台に10～20人程度は乗れるくらいの大きさです。4分ほどで山頂駅に着きます。往復料金は大人890円です。山頂に城跡や寺院もありますが、観光客の姿はまばらでした。ゆっくり過ごすのには最適な場所です。ただし、出発の駅付近には無料の駐車場がありますが、近くにはクラブハリエの関連施設や観光スポットも多いので、かなり混雑しています。,523-0828 滋賀県近江八幡市宮内町,1時間,不明,通年,890円,何人でも,空いている,屋外,35.1417373,136.0855373,0,子連れ家族
玉置山,"https://motospot.jp/img/spot/img-2570-0-medium.jpg",奈良県吉野郡十津川村にある世界遺産に登録されている山です。標高1076mにある玉置神社は熊野三山の奥之院だったといわれ、修験道の聖地としても知られています。樹齢3000年といわれる御神木があり、異世界かのような雰囲気が漂っています。各地点への所要時間は以下の通りです。・玉置山駐車場 ~ 山頂：上り約30分、下り約20分・玉置山駐車場 ~ 玉置神社：上り約20分、下り約15分・山頂 ~ 玉置神社：上り約20分、下り約10分駐車場 - 山頂 - 神社 - 駐車場のように上りと下りで経由地を変えることも可能です。,647-1582 奈良県吉野郡十津川村玉置川,1.5時間,駐車場あり,秋,無料,何人でも,空いている,屋外,33.9044366,135.8422134,1,恋人
ビーナスブリッジ,"https://cdn.clipkit.co/tenants/568/item_images/images/000/103/995/large/9ca63698-fced-44d2-94a6-adb8e7dcb8f6.jpg?1623202722",複雑に湾曲した鉄橋が特徴的な観光スポットで、鉄橋の上からは神戸のビル群、港、海を見渡すことができます。夜に来ると、煌びやかな夜景を見ることが出来て、デートスポットとしても有名な場所です。近くにレストランもあったので、景色を眺めがら食事をとるのもよさそうです。,650-0007 兵庫県神戸市中央区神戸港地方口一里山,1時間,駐車場あり,通年,無料,何人でも,普通,屋外,34.7114576,135.1786967,1,恋人
休暇村加太キャンプ場,"https://www.qkamura.or.jp/sp/kada/camp/images/img_intro.jpg",和歌山の加太にあるオートキャンプ場です。休暇村の系列なので、本館は普通の宿泊施設で、その麓にキャンプ場があります。本館にある温泉を利用できます。キャンプ場内にはシャワーがあります。AC電源が利用でき、サイト内に車を停めれます。夜にはキャンプ場内にある芝生の広場で星を眺めることができます。テニスコートもあり、海水浴場にも車で約4分です。,640-0102 和歌山県和歌山市深山４８３,12時間,駐車場あり,夏,4600円,何人でも,混んでいる,屋外,34.2928351,135.0723686,0,子連れ家族
法隆寺,"https://s3-ap-northeast-1.amazonaws.com/production-switch/uploads/article_eyecatch/file/62986/1709165480-19174-0119-1280.jpeg",法隆寺は、数多く存在するお寺の中でも特に有名な場所です。聖徳太子によって西暦607年に建立され、現在は世界文化遺産にも登録されています。飛鳥時代以来の多くの仏像や建造物、美術工芸品を見ることができます。最近では「世界遺産法隆寺―1400年の歴史遺産を未来へ―プロジェクト」と称してクラウドファンディングを実施し、1億5000万円を上まわる支援を得ました。,636-0115 奈良県生駒郡斑鳩町法隆寺山内１−１−１,1時間,駐車場あり,通年,1500円,何人でも,普通,屋外,34.6132161,135.7337691,0,子連れ家族
霊鑑寺,"https://cdn-ak.f.st-hatena.com/images/fotolife/Y/Yukonosuke/20240404/20240404164026.jpg",霊鑑寺は、承応3年に後水尾天皇の皇女・多利宮によって創建された尼門跡寺院であり、歴代皇女が住職を務めたことから「椿の寺」や「谷の御所」とも呼ばれます。本堂には徳川家斉が寄進した如意輪観音像が安置されており、庭園には100種以上の椿が植えられています。日光椿（京都市天然記念物）や白牡丹椿などが咲き誇ります。また、愛らしい御所人形や絵カルタなど皇室ゆかりのものも多く保存されています。臨済宗南禅寺派の門跡寺院であり、格調高い池泉観賞式庭園には春にツツジや椿、秋には紅葉が楽しめます。通常非公開ですが、春と秋に特別公開されます。少し足元の悪い石段を上り下りする必要があるので、足の悪い方はご注意ください。,606-8422 京都府京都市左京区鹿ケ谷御所ノ段町１２,0.5時間,駐車場なし,秋,800円,何人でも,空いている,屋外,35.0206907,135.7962825,1,恋人
車塚公園,"https://parkful.net/wp-content/uploads/2016/06/kurumaduka-park6.jpg",車塚公園は、関西外国語大学が移転した際に枚方市に寄贈された約5ヘクタールの敷地に造られた公園です。公園は東西に分かれており、東側には枚方市立中央図書館、西側には輝きプラザきららがあります。夏の間楽しめる大小様々な噴水や壁泉などもあります。さらに、カフェや健康づくりの遊具、ウォーキングコースなどが備えられており、公園内には「牧野車塚古墳」という国の史跡も存在します。また、防災施設としても利用されているため、最新の設備が整っています。バイクも置きやすいです。防災施設なのでベンチやトイレも充実しており、カフェなどもあるので休憩としても丁度良い場所です。,573-1159 大阪府枚方市車塚１丁目１,0.5時間,駐車場あり,通年,無料,何人でも,空いている,屋内,34.8335643,135.6709091,0,子連れ家族
エビとカニの水族館,"https://www.ikoi-w.com/datas/cache/images/2024/06/14/1240x800_ea1e9d427fb5664c32c517a73e421e58_807480560cd0171a335846d88d0485070237ef4e.jpg",和歌山県すさみ町にあるエビとカニの水族館は、エビとカニだけに特化したユニークな水族館です。廃校となった旧江住中学校の体育館を再利用して設立され、約150種類もの甲殻類が展示されています。ここでは、エビやカニの様々な種類を間近で観察することができ、甲殻類の不思議な世界に触れることができます。また、ウミガメや珍しい魚類も展示されており、海の生き物について学ぶことができます。タカアシガニにさわれる水槽もあり、別棟にはペンギンもいます。ミュージアムショップではハズレなしのカニぬいぐるみくじが楽しめます。水族館は道の駅すさみと併設されており、休憩にも観光にもちょうど良い場所です。,649-3142 和歌山県西牟婁郡すさみ町江住８０８−１,1時間,駐車場あり,通年,800円,何人でも,空いている,屋内,33.505491,135.5997407,0,子連れ家族
豊受大神宮 (伊勢神宮 外宮）,"https://www.iseshima-kanko.jp/storage/tourism_attractions/1229/responsive_images/OSPnEj00Ucy5ewOCaIMotHjdVl1PmkDuPPm5Xmt7__1024_787.jpeg",日本に数ある神社の中でも有名な伊勢神宮の外宮である豊受大神宮です。伊勢市の中心部にあり、アクセスも良く、多くの観光客が訪れています。豊受大御神を祀っており、衣食住・産業の守り神として崇敬されています。,516-0042 三重県伊勢市豊川町２７９,1時間,駐車場あり,通年,無料,何人でも,普通,屋外,34.4847493,136.707964,0,子連れ家族
パールロード,"https://www.bikejin.jp/wp-content/uploads/2019/02/58-scaled.jpg",きれいな海沿いを走る道で、厳しすぎない優しいコーナーが続き、海を見ながらゆっくりツーリングできます。道路自体もしっかり整備されており、非常に走りやすいです。また、海が近いこともあり、海鮮が堪能できるお店も多くあります。冬には牡蠣がオススメです。,517-0034 三重県鳥羽市千賀町,1時間,駐車場あり,夏,無料,何人でも,少し空いている,屋外,34.3935025,136.8773771,0,子連れ家族
なばなの里,"https://img01.jalannews.jp/img/2019/10/191024_nabana-main.jpg",広々とした場所で、ゆったり散歩を楽しむことができます。3月～5月上旬にかけてはチューリップや春の花々、9月下旬～11月中旬まではダリアやコスモスを楽しむことができます。季節ごとの様々な花が一面に咲き乱れている様は圧巻です。春のチューリップまつりや花木と春の花々まつり、秋のダリア・コスモスまつり、イルミネーションなど、人気のイベントも盛りだくさんです。また、アイランド富士というものがあり、地上45メートルの高さから、雄大な風景を360度のパノラマで花々や夜景を見ることができます。展望台のベンチに座り乗車すると、45m上空まで展望台が上がり、頂上では360度展望台が回転します。その他にも足湯やお食事処など、いろいろ詰まったスポットとなっています。,511-1144 三重県桑名市長島町駒江,2時間,駐車場あり,通年,1600円,何人でも,少し空いている,屋外,35.0805296,136.7031368,1,恋人
初音の滝,"https://motospot.jp/img/spot/img-2318-0-medium.jpg",滋賀県甲賀市の信楽町にある滝です。山中にある滝で、いくつかの滝があり鶏鳴八滝と言われています。初音の滝は、鶏鳴八滝の中でも最も手前にあり、アクセスしやすい場所にあります。高さこそそれほどありませんが、水量はしっかりとありゴツゴツとした岩肌を流れる様はしっかりと見応えがあります。,529-1812 滋賀県甲賀市信楽町神山,1時間,駐車場あり,通年,無料,一人,空いている,屋外,34.8521064,136.0849408,1,恋人
比叡山ドライブウェイ,"https://tourism-road.or.jp/wp-content/uploads/2020/08/top-slide20.jpg",比叡山ドライブウェイは、京都市から滋賀県を抜ける道です。秋には紅葉が綺麗で、ツーリングでは整備された道路が大変走りやすいです。また、琵琶湖を見渡せる展望台もあり、かなり奥まで綺麗な景色が見渡せます。写真撮影するスポットもたくさんあり、オススメです。バイクツーリングの際には、比叡山ドライブウェイを走って素晴らしい景色を楽しんでみてはいかがでしょうか。,520-0038 滋賀県大津市山上町７７６−３０,1時間,駐車場あり,秋,1000円,一人,少し空いている,屋内,35.0337019,135.8368516,0,子連れ家族
志磨の橋,"https://www.iseshima-kanko.jp/storage/tourism_attractions/1224/responsive_images/K8haE7Node80MJ4XWt5UNX9vUlpDFU9MUoznX19W__1200_799.jpeg",三重県にあるリアス式海岸を見ながら走れる道の先にある大きな橋です。ここから見る海岸線はとてもきれいで、夕陽の時の景色は絶景が見られます。近くには魚が食べれるお店もたくさんあり、ツーリングにオススメです。,517-0703 三重県志摩市志摩町和具,1時間,駐車場なし,秋,無料,何人でも,少し空いている,屋外,34.2671597,136.8083348,1,恋人
生野銀山,"https://img-cdn.guide.travel.co.jp/article/95/41496/6551D2F1446A4D9D8761B957F20D65F7_L.jpg",戦国時代から昭和48年まで稼働していた銀山です。明治時代の日本の鉱業（鉱山・製鉱所）の近代化を確立するために最初に官営（直轄）鉱山とした模範鉱山で、周辺の鉱山町が重要文化景観として選定されています。閉山後は三菱鉱業が周辺で事業を行っています。,679-3324 兵庫県朝来市生野町小野３３−５,1.5時間,バイク駐車場あり,春,2000円,何人でも,普通,屋外,35.1711332,134.8246858,0,子連れ家族
高源寺,"https://www.tambacity-kankou.jp/images/2021/04/dc734d4bad591b36a5ab926673031d2d-1280x853.jpg",高源寺に植えてある木の殆どがカエデで、紅葉狩りに訪れる観光客で賑わうスポットになっています。 境内は比較的広く、全体的に綺麗な紅葉を見ることができるのが魅力的です。秋の紅葉狩りだけでなく、春夏に見られる新緑のカエデも非常に良く、癒しのスポットとなっています。また、高源寺の入口前では屋台も出ており、丹波の黒豆を買うことができたり、団子や焼鳥などを食べることができたりと紅葉狩り以外にも楽しむ事ができるため、ゆっくり観光のできる場所となっています。,669-3821 兵庫県丹波市青垣町桧倉５１４,1時間,駐車場あり,秋,無料,何人でも,普通,屋外,35.2450543,134.971933,1,恋人
横山展望台,"https://www.iseshima-kanko.jp/storage/tourism_attractions/1249/responsive_images/1DlUL6OssZlOA0iWwDP5XtqI1ueQVRmXekRYVDcz__990_660.jpeg",志摩の美しいリアス式海岸を一望できるスポットです。入り組んだ入江を遠くまで見る事ができ、夕日の時には言葉を失うぐらいの美しさになります。カフェも併設されており、のんびりと過ごすことができます。すぐ裏には山を登ったりできる道もあり、アクティビティも楽しめるスポットとなっています。,517-0501 三重県志摩市阿児町鵜方８７５−２０,1時間,駐車場あり,秋,無料,何人でも,少し混んでいる,屋外,34.3318669,136.799084,0,子連れ家族
手柄山植物園,"https://himeji-machishin.jp/lib/images/greenhouse_sisetu01.jpg",大小2つの温室を含むこの植物園では、サボテン、洋ラン、ベゴニア、食虫植物など、熱帯・亜熱帯植物を中心に約1500種25000株が展示されています。昭和55年5月2日に開園したこの植物園は、季節ごとに様々な展示会を開催し、年間を通じて花や緑を楽しむことができます。また、レストハウス「花の家」では買い物や休憩が可能で、ゆっくりと植物園の美しさを堪能できます。観葉植物や果樹類、さらには姫路市の花「さぎ草」もこの植物園の魅力の一つです。植物園は温室で室内になります。建屋がドーム型でとても珍しいです。山頂なので見晴らしもよく、オススメです。温室植物園の向かいに植物の販売施設もあり、種類や数は少しですがパンや飲み物を調達できます。,670-0972 兵庫県姫路市手柄９３,1時間,駐車場あり,通年,250円,何人でも,少し空いている,屋内,34.8163463,134.6777295,0,子連れ家族
龍神スカイライン,"https://www.wakayama-kanko.or.jp/lsc/upfile/spot/0000/0510/510_6_l.jpg",バイク乗りには有名な龍神スカイラインは、信号がない道路で走りやすいです。カーブが多いので、反対車線に飛び出さないよう注意してください。山の上になるので、夏は涼しく、冬は寒いです。,645-0525 和歌山県田辺市龍神村龍神１０２０−６,0.5時間,駐車場あり,春,無料,一人,少し空いている,屋外,34.061278,135.5644111,0,子連れ家族
若松公園,"https://motospot.jp/img/spot/img-1555-0-medium.jpg",長田商店街のそばにある若松公園には、神戸市出身の漫画家、横山光煇の代表作「鉄人28号」の巨大モニュメントのある公園として有名です。神戸に来られるなら、三宮からちょっと西へ足を伸ばしていってみてはいかがでしょうか。公園そばの長田商店街では、長田名物のそばメシや牛すじをトロトロに煮込んだぼっかけが食べれるお店がありますので、十分楽しめますよ。,653-0038 兵庫県神戸市長田区若松町６丁目３,1時間,駐車場なし,通年,無料,何人でも,普通,屋外,34.6553169,135.144042,0,子連れ家族
潮芦屋ビーチ,"https://funkobe.com/wp-content/uploads/2019/06/ashiya-sogo-park-9.jpg",芦屋市にある人工砂のビーチです。阪神高速からもすぐで、六甲アイランドを眺めることができます。時期によっては六甲アイランドに沈む夕日を見ることができます。芦屋市総合公園が近くにあり、遊泳は禁止となっていますが波打ち際で水遊びはできます。一番近い潮芦屋緑地西駐車場、東駐車場共に7時～19時の間で空いていおり、最初の30分は無料。その後料金がかかります。出庫は20時までで、夜間は閉鎖されるので注意が必要です。,659-0037 兵庫県芦屋市南浜町,0.5時間,駐車場あり,通年,無料,何人でも,空いている,屋外,34.7095232,135.3120199,1,恋人
篠山城跡三の丸広場広場,"https://www.city.tambasasayama.lg.jp/material/images/group/5/DSCF0759-thumb-600x450-60843.jpg",徳川家の天下普請に見合う武骨な野面積の石垣は見事です。大書院は入館料400円で展示品あり。書院は復元ですが当時の間取りを再現しています。篠山城は、慶長14年（1609）に天下普請の城として、徳川家康が、十五ヶ国、二十の大名に夫役を命じ、縄張奉行に藤堂高虎、普請奉行に池田輝政らが指揮を執り、大坂城を包囲し、豊臣家ゆかりの諸大名を抑えるために築城されました。 財団法人日本城郭協会が選定した「日本100名城」にも選ばれています。,669-2332 兵庫県丹波篠山市北新町５,1時間,駐車場あり,通年,400円,何人でも,空いている,屋外,35.0739716,135.2185236,0,子連れ家族
二色の浜海水浴場,"https://otent-nankai.jp/file/img/basic/2023/0602/kasa-beach101.jpg",大阪の貝塚市にある時期によっては潮干狩りや遊泳のできる場所です。夏場は海水浴場として賑わいます。大阪市内から一番近い海水浴場です。二色の浜の後ろには阪神高速湾岸線が走っています。１kmの白い砂浜と緑の松林が印象的な浜で、大阪湾に沈む夕日の場所でも知られています。二色の浜公園が近くにあり、帆船マストが公園と浜との境目になっています。周辺にはスーパーやスーパー銭湯などもあります。,597-0062 大阪府貝塚市澤,0.5時間,駐車場あり,夏,無料,何人でも,空いている,屋外,34.4355625,135.3404687,1,恋人
久米寺,"https://www.city.kashihara.nara.jp/material/images/group/22/k165_01.jpg",久米寺は奈良県橿原市にある真言宗御室派の寺院で、畝傍山の南側にあります。聖徳太子の弟、来目皇子によって眼病全快の感謝として創建されたと伝えられています。本尊は薬師如来で、西国四十九薬師霊場の一つとしても知られています。久米寺は美しい自然に囲まれ、特に春には境内が色とりどりの花々で彩られます。また、久米寺には飛行中に娘に見とれて墜落した伝説の久米仙人に関する話も残っており、歴史や伝説に興味がある人にとって魅力的なスポットです。,634-0063 奈良県橿原市久米町５０２,未設定,駐車場あり,通年,無料,何人でも,空いている,屋外,34.4829532,135.7898706,1,恋人
しらさぎの宿　丸福,"https://www.brand-awajishima.com/store/main_80.jpg",「しらさぎの宿　丸福」は宿泊もできる地元で人気の焼肉レストランです。目の前が海なので、夏の時期は海水浴に来られた観光客で賑わっています。普段の時期は、美味しい焼肉とともにハンバーグなどのランチメニューが人気で、地元の淡路牛を使用した牛丼などもあります。海岸沿いのポツンとありますので、知る人ぞ知る名店です。,656-2543 兵庫県洲本市由良町由良２３７９−９,2時間,駐車場あり,通年,3000円,何人でも,少し混んでいる,屋内,34.2853695,134.9472146,0,子連れ家族
多度大社,"https://tadotaisya2.sakura.ne.jp/hp/wp-content/uploads/2013/03/%E6%9C%AC%E7%A5%9E%E6%A5%BD%E6%AE%BF.jpg",上げ馬神事で有名な神社です。駐車場が完備されており、神社内には白い馬がいます。御朱印受付と、お守りを販売している所が別ですので、混雑しません。神社内に川があり、そこにおみくじを浮かすと、文字が出てくるという楽しみがあります。本宮までに、階段がありますので、少し体力が必要です。とても静かで、自然が豊かな神社です。,511-0106 三重県桑名市多度町多度１６８１,1時間,駐車場あり,通年,無料,一人,少し空いている,屋外,35.1354433,136.6229227,0,子連れ家族
三上山（近江富士）,"https://cdn.jalan.jp/jalan/img/6/kuchikomi/2486/KL/0fa06_0002486820_2.JPG",三上山は滋賀県野洲市にあり、その美しい円錐形の山容から「近江富士」とも称されます。標高432mのこの山は、名神高速道路や東海道新幹線からも望むことができ、滋賀県内外から多くの観光客やハイキング客が訪れます。山頂からは琵琶湖や周囲の山々を一望できる絶景が広がり、四季折々の自然美を楽しむことができます。山麓には三上山を神体とする古社が鎮座し、長い歴史と文化を感じさせます。登山ルートは、御上神社側からの表登山道と裏登山道の2ルート、近江富士花緑公園側からの1ルートの計3つの道が整備されており、どのルートも登山口から山頂まで約40分で到達できます。途中の急な斜面には丸太階段や手すりが設置されていて、登山は運動靴でも可能ですが、雨や雪の際は滑りやすくなるため注意が必要です。ただし、山頂にトイレはないため、御上神社側から登る場合は駐車場のトイレを利用しましょう。9月23日から11月3日の間は御上神社所有地で松茸山となり、表・裏登山道を利用する際には初穂料（大人500円）が必要ですが、近江富士花緑公園側からは通年無料で利用可能です。,520-2321 滋賀県野洲市三上,1時間,駐車場あり,通年,無料,何人でも,空いている,屋外,35.0509666,136.0284722,1,恋人
大仙公園 日本庭園,"https://www.city.sakai.lg.jp/kurashi/koen/shokai/daisenkouennihonteien.images/nihonteien.JPG",大阪府堺市の大仙公園の中にある日本庭園です。庭園内には手入れの行き届いた木々が美しくそびえたっており、中央には水面が広がります。庭園は一面が見渡せ、程よく落ち着く広さになっています。紅葉の時期の訪問をオススメで、ライトアップされた紅葉が水面に映り、非常に綺麗で神秘的な光景が楽しめます。,590-0801 大阪府堺市堺区大仙中町１７,0.5時間,駐車場あり,秋,200円,何人でも,少し空いている,屋外,34.5602089,135.4801506,0,子連れ家族
須磨浦山上公園,"https://www.feel-kobe.jp/app/wp-content/uploads/1-18.png",山陽電車須磨浦公園駅周辺一帯の神戸市が管理・運営する面積約103.8haの公園。 歴史的には源平・一の谷の古戦場としても知られ、神戸市指定有形文化財の「敦盛塚」などの史跡があります。また、桜の名所としても知られ、神戸市の「花の名所50選」にも選ばれています。,654-0076 兵庫県神戸市須磨区一ノ谷町５丁目３−２,1時間,駐車場あり,春,無料,何人でも,普通,屋外,34.6380411,135.1003129,0,子連れ家族
賣太神社,"https://nihonkasen.com/wp-content/uploads/2023/05/1683868121454-scaled.jpg",奈良県にある神社です。古事記の編纂に携わった稗田阿礼が、学問の神様として祀られています。また、土地の神様として猿田彦命、芸能の神様として天細女命が夫婦神として祀られている神社でもあります。周辺は田んぼや住宅があり、開けた道路に面しています。道を挟んで反対側に、数台分の駐車場があります。,639-1108 奈良県大和郡山市稗田町３１９,0.5時間,駐車場あり,通年,無料,何人でも,空いている,屋外,34.639307,135.7963485,0,子連れ家族
暗峠,"https://www.sbaa-bicycle.com/sbaa_sp/wordpress/wp-content/uploads/2023/03/kuragari.jpg",大阪と奈良を結ぶ道路で、日本の峠100選に選ばれている有名な場所です。国道308号線ですが、国道とは思えないような荒れた路面で道幅が狭くて傾斜もきつくて「酷道308号線」とも呼ばれています。しかし、そういった急勾配や荒れた道が面白くて、あえて挑戦すると面白いです。関西でも人気のツーリングスポットです。,630-0236 大阪府東大阪市東豊浦町,1時間,駐車場なし,春,無料,一人,少し空いている,屋外,34.6694501,135.665701,0,子連れ家族
松江海岸休憩施設,"https://motospot.jp/img/spot/img-1559-0-medium.jpg",海水も砂浜も綺麗で、とても人気のスポットです。撮影した日はとても良いお天気だったので、向かいの淡路島がすごく近くて明石海峡大橋もはっきりと見えました。 綺麗に整備されたトイレもあります。この海岸は海水浴場にもなっているので、シーズンになるとたくさんの人で賑わいます。また、シーズン中は駐車料金も変更になるのでご注意ください。,673-0044 兵庫県明石市藤江２１８,1時間,駐車場あり,通年,無料,何人でも,少し空いている,屋外,34.6556138,134.9540722,0,子連れ家族
雑賀崎,"https://www.city.wakayama.wakayama.jp/_res/projects/default_project/_page_/001/044/909/saikazaki.JPG",独特の美しい景観の港町で、古くからの景勝地であり、日本遺産「絶景の宝庫 和歌の浦」の一つとなっています。イタリアのアマルフィ海岸とも呼ばれています。雑賀崎の発展は、独自の漁業「一本釣り」をあみ出したことから始まりました。雑賀崎の町並みは、ノスタルジックな風情が感じられます。斜面に密集する家々の独特な景観は、船の様子を家から見守るためという説もあります。複雑な路地や階段、洗い場や井戸などを見ていると、懐かしい漁村の生活文化を感じることができます。この付近は急カーブや急登、狭路などがありますので、ツーリングはなるべく速度を落として安全運転を心がけてください。景色は抜群です。,641-0062 和歌山県和歌山市雑賀崎,1時間,不明,通年,無料,何人でも,少し混んでいる,屋外,34.1895602,135.144372,1,恋人
橿原神宮,"https://kashiharajingu.or.jp/wp/wp-content/uploads/2021/04/wedding_slide_01_01-2000x1120.jpg",奈良県橿原市にある、神武天皇を祀った神宮です。宝物殿が併設されており、縁のあるものが展示されています。敷地は広く、池や木々などの自然があり、参道も整備されているので、四季折々の景色を楽しめます。駐車場も広いです。,634-8550 奈良県橿原市久米町９３４,1時間,駐車場あり,通年,無料,何人でも,普通,屋外,34.4862165,135.7881792,0,子連れ家族
ラーメン天天,"https://motospot.jp/img/spot/img-1560-0-medium.jpg",南あわじ市の中央地から離れた長閑な畑が広がる道沿いにポツンとある地元の人向けのラーメン屋さんです。基本的なメニューは豚骨醤油の「白玉」、熟成醤油に唐辛子を散りばめた「赤玉」、熟成醤油にこんがり揚げたネギを加えた「黒玉」、そして定番の味噌ラーメンとなっています。どれもなかなかの美味しさですが、オススメは味噌ラーメンです。白飯のついた定食にしても値段は800円ほどで、とてもお得です。,656-0331 兵庫県南あわじ市湊里１６３−２,0.6時間,駐車場あり,通年,1000円,何人でも,普通,屋内,34.3210584,134.7368263,0,子連れ家族
幸せのパンケーキ　淡路島,"https://magia.tokyo/awaji/wp-content/themes/pc/awaji_index/images/terrace02.png",オシャレなパンケーキで話題の「幸せのパンケーキ」淡路島店です。淡路島西海岸エリアにあり綺麗な海を一望出来ます。メニューは大体1000〜1500円程度で、パンケーキの他にピザやパスタなどの食事メニューもあります。屋外テラスは海が目の前にあるため、潮風も感じられとても気持ちが良いです。夏がオススメで、もし天候が悪くても屋内にも席があるので安心です。屋内席からもしっかり海が見られます。,656-1501 兵庫県淡路市尾崎４２−１,1時間,駐車場あり,夏,1000円,何人でも,少し混んでいる,屋内,34.513143,134.869589,1,恋人
不老橋,"https://www.wakayama-kanko.or.jp/lsc/upfile/spot/0000/1062/1062_2_l.jpg",不老橋は和歌山市の重要文化財として認定されたアーチ状の石橋で、紀州徳川家10代藩主であった徳川治宝（13代藩主徳川慶福の治世中）の命により、嘉永3年（1850年）に着工し、翌4年（1851年）に完成しました。この橋は、徳川家康を祀る東照宮の祭礼である和歌祭の時に、徳川家や東照宮関係者が御旅所に向かう「お成り道」に架けられたものです。橋台のアーチ部分は肥後熊本の石工集団による施工、勾欄部分は湯浅の石工石屋忠兵衛の製作であると推定されています。勾欄部分には雲を文様化したレリーフが見られ、江戸時代のアーチ型石橋は九州地方以外では珍しく、特に勾欄部分の彫刻が優れています。保存のため補修工事はなされていますが、現役です。すごく短い橋です。なお、すぐ隣には「新 不老橋」が架かっています。そちらは車バイク通行できます。,641-0025 和歌山県和歌山市和歌浦南３丁目４,0.2時間,駐車場なし,通年,無料,何人でも,空いている,屋外,34.1850599,135.1684585,1,恋人
近江神宮,"https://cocoshiga.jp/official/wp-content/uploads/2023/02/03A6558.jpg",近江神宮は滋賀県大津市に鎮座し、第38代天智天皇を祀る神社です。この神社は天智天皇の古都、近江大津宮の跡地にあり、豊かな自然に囲まれています。天智天皇が百人一首かるたの祖とされることから、「かるたの殿堂」とも呼ばれ、毎年ここでかるたの大会が行われています。漫画や映画の「ちはやふる」での舞台となったところです。神社の色鮮やかな楼門や近江造り・昭和造りの社殿など、見どころが多数あります。また、毎年4月20日の例祭には天皇陛下の御名代として宮中より御勅使が差遣われる、全国でも特別な神社の一つです。自然豊かな境内では心の落ち着きを得ることができ、歴史や文化に興味のある人にとって魅力的なスポットです。,520-0015 滋賀県大津市神宮町１−１,1時間,駐車場あり,通年,無料,何人でも,少し混んでいる,屋外,35.0336284,135.8528018,0,子連れ家族
ラーメン大学　都,"https://motospot.jp/img/spot/img-1561-0-medium.jpg",長浜市の黒壁スクエアから歩いてすぐの場所にある「ラーメン大学　都」は、地元民が愛する創業50年ほどのラーメン屋さんです。鶏ガラスープのラーメンは優しい味わい、そしてほとんどの方がラーメン定食を頼まれますが、ご飯と卵焼きなどがセットされており、値段も千円ほどととってもリーズナブルです。,526-0058 滋賀県長浜市南呉服町９−１１,0.6時間,駐車場なし,通年,1000円,何人でも,少し混んでいる,屋内,35.3802139,136.2656315,0,子連れ家族
天滝,"https://www.yabu-kankou.jp/wp-content/uploads/tentaki1.jpg",日本の滝100選にも選ばれており、落差98メートルにもなる滝は目の前で見ると圧巻の光景です。とても涼しいです。登山道が1.2kmあるので、普段運動をしない方には少々疲れる登山になります。登り切って滝を見た時には達成感があり、癒されます。駐車場と近くにはレストハウスがあり、地元丹波の食材を使ったお料理が楽しめます。,667-0322 兵庫県養父市大屋町筏９３０,2時間,駐車場あり,通年,無料,何人でも,空いている,屋外,35.3326247,134.6178434,1,恋人
国営飛鳥歴史公園 甘樫丘地区,"https://yamatotakadakashihara.goguynet.jp/wp-content/uploads/sites/31/2020/03/20200314_223744.jpg",飛鳥の中心にある標高148mの丘です。初春には、菜の花が綺麗に見られます。丘の頂上にある展望台からは、周辺の山々や町が一望できます。無料の駐車場があるので、車やバイクを停めてゆっくりと自然を楽しめます。ここから高松塚古墳の方向に走っていくと、程よく角度がついたワイディングロードがあります。少し短いですが、ツーリングにはもってこいの場所です。,634-0107 奈良県高市郡明日香村豊浦,1時間,駐車場あり,春,無料,何人でも,普通,屋外,34.4796686,135.8125516,0,子連れ家族
渡月橋,"https://upload.wikimedia.org/wikipedia/commons/thumb/d/df/Togetsukyo_in_Kyoto_Arashiyama.jpg/1200px-Togetsukyo_in_Kyoto_Arashiyama.jpg",嵐山の人気観光地で、季節を問わず土日は賑わいます。バイクで訪れた方は、近くのタイムズパーキングで駐車することができます。特に秋は美しい紅葉スポットが満載で、1日では満足できないほどに楽しめます。渡月橋の近隣には、天龍寺や宝厳院などの観光地もありますので、周辺のスポットも楽しんでいただけます。,616-8385 京都府京都市右京区嵯峨天龍寺芒ノ馬場町１−５,0.5時間,駐車場あり,通年,無料,何人でも,混んでいる,屋外,35.0137433,135.6775363,0,子連れ家族
伏見桃山陵,"https://tabiiro.jp/lpimg/leisure/211362/main/img2.jpg",伏見桃山陵は、京都にある明治天皇の陵です。陵の手前には230段の大階段があります。階段を登り切ったあと、後ろを向くと伏見桃山から南方面の景色が見えます。大階段を登らずにアプローチできるルートもあります。,612-0831 京都府京都市伏見区桃山町古城山,1時間,駐車場あり,通年,無料,何人でも,空いている,屋外,34.9384014,135.7817228,1,恋人
新世界国際劇場,"https://motospot.jp/img/spot/img-1565-0-medium.jpg",昭和レトロを感じられる映画館です。建物もさることながら、館内も昭和のノスタルジーが漂っており、館内に一歩入れば時代が昭和に戻った感じがします。上映されている作品は様々でリバイバルの作品なんかも上映されています。劇場は新世界にありますので、映画を観た後は、地元名物の串カツなども楽しめます。,556-0002 大阪府大阪市浪速区恵美須東２丁目１−３２,2.5時間,駐車場なし,通年,1700円,何人でも,普通,屋内,34.6520362,135.5072596,0,子連れ家族
不動窟鍾乳洞,"https://www.komei.or.jp/km/kashihara-morishita-miyako/files/2014/09/DSCN1444.jpg",奈良県の奥地、川上村にある鍾乳洞です。こんなところにこんなものがあるのかという感じで、鍾乳洞の奥には小さな滝と銅像があり、そこに流れる水はそのまま飲むことができます。この水は、奈良県の美味しい水3選に選ばれているほどです。夏に行くと涼しさも感じられて良いです。,639-3612 奈良県吉野郡川上村柏木,2時間,駐車場あり,秋,500円,何人でも,少し空いている,屋外,34.2838565,136.0015141,0,子連れ家族
下津ピアーランド,"https://kawasemi.club/umituri/photo/umituri/hato_simotupia/001.jpg",和歌山県海南市下津町にある海釣り公園です。桟橋釣り、いかだ釣りが楽しめます。あまり広くはないので、収容人数は最大30人程度です。利用料金は桟橋1100円です。希望すれば簡単な釣り道具の貸し出しもあります。駐車場はありませんが、入口事務所へ下る道路の路肩駐車となります。（地元警察承認）お弁当、パン、ジュース類の販売もあります。,649-0121 和歌山県海南市下津町丸田１２０４−２０,4時間,駐車場なし,夏,1100円,複数人,少し混んでいる,屋外,34.1383188,135.1439602,0,子連れ家族
鴨川,"https://www.vmg.co.jp/restaurants/magazine/wp/wp-content/uploads/2021/04/J7C2138re-1024x633.jpg",広くて眺めが良く、風が気持ちいいところです。川には鴨やサギなどが泳いでおり、ジョギング、ウォーキングする人たち、ピクニックするファミリー、犬の散歩を楽しむ人など、いろんな方々が行き交います。春は桜が楽しめ、秋は遠くの山々が綺麗に見えます。,612-8484 京都府京都市伏見区羽束師鴨川町,2時間,不明,春,無料,何人でも,少し空いている,屋外,34.9361787,135.735517,0,子連れ家族
伏見稲荷大社,"https://www.keihan.co.jp/k-press/assets/img/outing/202505-okoshibus/img1.jpg",伏見稲荷大社は、京都にある神社です。境内には約1万基の鳥居が並んでおり、千本鳥居と呼ばれています。敷地は約87万㎡あり、頂上まで高さ233ｍ、一周約4ｋｍあります。頂上まではそこそこ歩きますが、京都の南西部を全て見渡すことができるので絶景です。,612-0882 京都府京都市伏見区深草藪之内町６８,1.5時間,駐車場あり,通年,無料,何人でも,少し空いている,屋外,34.9671601,135.7731958,0,子連れ家族
カワサキワールド,"https://www.kawasaki-cp.khi.co.jp/img/MUSEUM_GALLERY_IMAGE_01.jpg",神戸メリケンパークにある神戸海洋博物館の中にあり、川崎重工の歴史や技術を学ぶことができるミュージアムです。バイクや飛行機などのシュミレーターが体験できたり、カワサキのバイクがたくさん展示されているので、カワサキ好きには必見のスポットです。,650-0042 兵庫県神戸市中央区波止場町２−２,1.5時間,駐車場あり,通年,2000円,何人でも,少し空いている,屋内,34.68291019999999,135.1882378,0,子連れ家族
京都タワー,"https://trvimg.r10s.jp/share/HOTEL/1551/1551.jpg",京都タワーは1964年に開業され、白くほっそりとした姿は、灯台がモチーフとなっています。かつての家々の瓦屋根を波に見立て、海のない京都の街並みを静かに照らし続けています。京都市街で一番高く、地上100メートルの展望室からは 京都三山に囲まれた古都京都の市街地が360度見渡せます。季節や時間によって様変わりする京都の絶景を楽しむことができます。,600-8216 京都府京都市下京区烏丸通七条下る東塩小路町721-1,0.5時間,駐車場なし,通年,800円,何人でも,空いている,屋内,34.9875514,135.7592807,0,子連れ家族
生石岬展望台,"https://motospot.jp/img/spot/img-287-medium.jpg",兵庫県洲本市由良町にある生石公園内に位置する展望台です。ここからは紀淡海峡や友ヶ島を眺めることができます。生石公園には合計3か所の展望台があり、紀淡海峡全体が望める紀望台もあります。梅園に260本の梅が植栽されており、春先になると香り高い梅が辺り一面に漂います。向かいは和歌山で、晴れた日には和歌山と和歌山までのいくつかの島が見えます。さらに、歴史的な遺構も観察できる場所としても有名です。旧日本陸軍が防衛拠点として築いた「由良要塞」に残る砲台跡などが観察できます。生石公園は自然観察・歴史学習の拠点としても人気です。駐車場、トイレもあり、整備されています。,656-2543 兵庫県洲本市由良町由良,30時間,駐車場あり,通年,無料,何人でも,空いている,屋外,34.27826,134.9346751,1,恋人
椿大神社,"https://jbpress.ismcdn.jp/mwimgs/2/e/-/img_2e2ca2d6853da8f3d95fc4c2d502b7ae791261.jpg",伊勢国一宮で、この地域では伊勢神宮に次ぐ大規模な神社です。森に囲まれた中にあり、正月のような繁盛期でなければ静かで厳かな雰囲気が漂っています。新名神鈴鹿スマートインターから近く、大規模な無料駐車場もあるのでバイクでのアクセスは良好です。,519-0315 三重県鈴鹿市山本町１８７１,1時間,駐車場あり,通年,無料,一人,少し空いている,屋外,34.964365,136.4524956,0,子連れ家族
白井大町公園,"https://www.asabura.jp/wp-content/uploads/2015/11/1309-39.jpg",藤の苗木を近くの山々から採取して育てている公園です。白・紫・ピンクなどの花が、谷風に揺らぐ藤波は圧巻です。地元民が作り上げた水車と水車小屋があります。町から離れた山中にあるので、落ち着いた雰囲気が感じられます。「ドライブインやくも」の近くにあり、ツーリングで立ち寄るのに便利です。,669-5220 兵庫県朝来市和田山町白井１００８,2時間,駐車場あり,春,500円,何人でも,少し空いている,屋外,35.35052270000001,134.9153976,0,子連れ家族
伊和都比売神社,"https://www.hyogo-tourism.jp/content/pkX92G/930",伊和都比売神社（いわつひめじんじゃ）は、兵庫県赤穂市御崎に位置する古社で、平安時代の延喜式神名帳にその名を記載されています。主祭神は伊和都比売大神（いわつひめおおかみ）で、航海安全や縁結び、大漁祈願などのご利益があるとされています。この神社は海に向かって建つ鳥居が特徴的で、特に瀬戸内海の美しい景色と調和した風景がとても幻想的です。また、周囲には赤穂御崎温泉街があり、観光のついでに立ち寄るのにも最適です。限定の御朱印も可愛いです。,678-0215 兵庫県赤穂市御崎2,0.5時間,駐車場あり,通年,無料,何人でも,空いている,屋外,34.7274543,134.4082059,1,恋人
空見の丘公園,"https://motospot.jp/img/spot/img-546-medium.jpg",雰囲気がよく、園内の至る所から夜景が眺められます。車やバイクで最高地点まで上がることができるので、体力に自信がない方でも行きやすい場所です。枚方市の夜景が一望できるとても良いスポットです。,573-0128 大阪府枚方市津田山手２丁目３−８９５ー１他,0.5時間,駐車場なし,通年,無料,何人でも,少し空いている,屋外,34.804046,135.7113952,0,子連れ家族
大蔵海岸,"https://motospot.jp/img/spot/img-2082-0-medium.jpg",大蔵海岸は明石海峡大橋が見渡せる海岸です。夜になるとライトアップされ、とても綺麗です。主要道路沿いにあるので車やバイクでも気軽に寄ることができます。近隣にはカフェや飲食店があり休憩にもオススメです。前の道は時間帯に寄っては混み合うこともあります。,673-0879 兵庫県明石市大蔵海岸通１丁目,0.5時間,駐車場なし,通年,無料,何人でも,少し混んでいる,屋外,34.6421204,135.0145734,0,子連れ家族
和み庵 空と海,"https://motospot.jp/img/spot/img-2594-0-medium.jpg",京丹後にある旅館です。海の近くにあるため景色もよく、食事は新鮮な海鮮が食べられます。京都市内から車で2時間ほどで行くことができるため旅行に最適です。途中海を横目にドライブすることができ、宿には各部屋にバルコニーがついているため絶景を楽しめます。冬場は蟹を堪能することができ様々な調理方法で提供されます。蟹の他にもお刺身やその時々の食材を使った料理が楽しめます。,627-0233 京都府京丹後市丹後町平２２０,17時間,駐車場あり,冬,20000円,何人でも,空いている,屋内,35.7523184,135.1558884,0,子連れ家族
ドラゴンクエスト記念碑,"https://motospot.jp/img/spot/img-803-medium.jpg",ドラゴンクエスト誕生30周年記念として建立された場所です。銅像にはドラクエには欠かせないモンスター「スライム」に、ロトシリーズの伝説の武具「ロトの剣」と「ロトの盾」などがあります。銅像には「スライムに幸福、盾に厄よけ、剣に悪縁を切る願い」という思いが込められているそうなので、パワースポットとしても有名のようです。ドラクエファンはぜひとも銅像、裏には堀井雄二さんの言葉と手形があるので一度は訪れたい場所です。,656-0021 兵庫県洲本市塩屋１丁目１,0.15時間,駐車場あり,夏,無料,何人でも,少し空いている,屋外,34.3455175,134.8952367,0,子連れ家族
下鴨神社,"https://motospot.jp/img/spot/img-1571-0-medium.jpg",下鴨神社は、川が流れるとても涼しい環境です。特に見どころは、水みくじと呼ばれるおみくじです。近くの川に浸かると、結果が浮かび上がって分かります。夏は特におすすめです。また、川には入ることもできるので、足だけを涼めるのも良いです。,606-0807 京都府京都市左京区下鴨泉川町５９,1時間,駐車場あり,夏,4000円,何人でも,普通,屋外,35.0348119,135.771904,0,子連れ家族
長浜城（豊公園）,"https://motospot.jp/img/spot/img-2083-1-medium.jpg",バイク専用の駐車場があるため、時間に関係なくゆっくり過ごすことができます。歩いてすぐの大きなグラウンドを外周することができ、その先には琵琶湖があります。自然を満喫することができます。また、敷地内に長浜城があります。自動販売機もあるため、ツーリングの一息に立ち寄ることができます。豊公園は琵琶湖を楽しむとともに、バイクでの休憩スポットとしてもおすすめです。【長浜城】滋賀県長浜駅の琵琶湖の側にある長浜の資料館です。かつて存在した長浜城を模した博物館で長浜の歴史を知ることができます。豊臣秀吉や石田三成の掛け軸や長浜地域についつの書、火縄銃や鎧のレプリカが展示されています。とても狭いですが天守閣から外を一望することができます。,526-0065 滋賀県長浜市公園町１３２５,0.75時間,バイク駐車場あり,春,無料,何人でも,普通,屋外,35.3785704,136.2621473,0,子連れ家族
四日市コンビナート（夜景クルーズ）,"https://motospot.jp/img/spot/img-2851-0-medium.jpg",四日市コンビナートは、三重県四日市市にある、夜景遺産としても認定されている工場夜景の名所です。三重県では有名なスポットでバイク乗りからも人気が高い場所です。かなりの確率で人はあまりいないので穴場スポットです。三重県の方はもちろん県外からもたくさんの観光客が訪れる場所です。しっかりと観光地化されており、四日市コンビナート夜景クルーズもあります。週末の金曜・土曜、特定の日曜に運行され、60分クルーズと90分クルーズの2種類があります。クルーズでは、四日市の工業地帯の幻想的な夜景を海上から眺めることができます。クルーズ単品や宿泊がセットになったプランもあり、工場夜景を満喫することができます。,510-0012 三重県四日市市羽津甲５１６９,0.5時間,駐車場あり,通年,無料,何人でも,空いている,屋外,34.9829261,136.6475544,0,子連れ家族
彩華ラーメン本店,"https://motospot.jp/img/spot/img-1572-0-medium.jpg",奈良県の地元B級グルメといえば、天理ラーメン。その本家本元が「彩華ラーメン本店」です。ここのラーメンはスタミナラーメンの元祖的なラーメンで、コクのある醤油風味のスープに大量の白菜、ニラ、豚肉などが載っており、一度食べるとまた食べたくなるくせになる味わいです。テーブルにはラージャン、ニンニクが常備されており、お好みに合わせて味を調整出来ます。,632-0076 奈良県天理市岩室町９１,0.6時間,駐車場あり,通年,1000円,何人でも,少し混んでいる,屋内,34.5955737,135.8115508,0,子連れ家族
麺屋NOROMA,"https://motospot.jp/img/spot/img-1573-0-medium.jpg",麺屋NOROMAは、奈良県で有名なラーメン屋さんです。鶏そばや鶏つけ麺が名物で、開店からずっと混雑しています。私が食べに行った時も、30分以上並びました。味は、めちゃくちゃ美味しいです！！今まで食べてきた中で1番美味しく、衝撃を受けました。駐車場も広いので、ぜひ行ってみてください！,630-8141 奈良県奈良市南京終町３丁目１５３１,1時間,駐車場あり,通年,1000円,何人でも,混んでいる,屋内,34.6661004,135.8191464,0,子連れ家族
紀三井寺,"https://motospot.jp/img/spot/img-1829-0-medium.jpg",紀三井寺は、奈良朝時代に唐僧・為光上人によって開基された歴史ある寺院です。為光上人は、諸国を巡り仏法を弘め、この辺りで霊光を観じたところに千手観音様の像を見いだし、十一面観世音菩薩像を刻んでこの地に建てられたという伝説があります。春には早咲き桜が美しいことで知られ、観光地としても有名です。また、境内からは和歌の浦や淡路島などを見渡せ、古来の文人墨客にも憧れられ、多くの詩歌や俳諧、絵画にも描かれています。,641-0012 和歌山県和歌山市紀三井寺１２０１,0.5時間,駐車場あり,通年,無料,何人でも,空いている,屋外,34.1852779,135.1899086,1,恋人
滝畑湖畔バーベキュー場,"https://motospot.jp/img/spot/img-294-medium.jpg",大阪の山々の中にあるダム近くのバーベキュー場です。きれいな川の水で、夏場には子供たちが水着で遊んだりしています。日避けテントや道具も借りることができ、手軽に行きやすいです。ファミリーやカップル、友達仲間で賑わうスポットです。,586-0072 大阪府河内長野市滝畑１５８８,4時間,駐車場あり,夏,3000円,複数人,少し混んでいる,屋外,34.3765043,135.5214766,0,子連れ家族
舞洲スポーツアイランド,"https://motospot.jp/img/spot/img-1318-medium.jpg",大阪市にある埋立地の一つ、プロ野球、オリックスの2軍施設や、キャンプ場、BBQ場、障害者施設など多くの施設があり、1人でも楽しめる場所です。近年では大きな会社の倉庫なども建設されて、バイクでは少し走行しにくくはなっていますが、休日など大型車両がない日は道も広いのでゆったりと走行できます。,554-0042 大阪府大阪市此花区北港緑地２丁目１−１２８,2時間,駐車場あり,夏,未設定,何人でも,少し空いている,屋内,34.6669267,135.3950592,0,子連れ家族
又兵衛桜,"https://motospot.jp/img/spot/img-1574-0-medium.jpg",又兵衛桜(本郷の瀧桜)とは、戦国武将•後藤又兵衛の屋敷跡に咲いている大きな枝垂れ桜の名称です。比較的勾配のきついワイディングロードを走っていきますので、ツーリングにはうってつけです。春になると、多くの観光客が訪れます。繁忙期には臨時駐車場も解放されて駐車スペースを確保していますが、時間帯によっては待ち時間も発生することがあります。春の心地よさを感じながらツーリングをしたい方にはオススメです。,633-2156 奈良県宇陀市大宇陀本郷３４８,1.5時間,駐車場あり,春,無料,何人でも,混んでいる,屋外,34.4744314,135.916857,0,子連れ家族
石清水八幡宮,"https://motospot.jp/img/spot/img-1830-0-medium.jpg",石清水八幡宮は、京都府八幡市に位置する神社です。元々は「男山八幡宮」と呼ばれていたこの場所は、二十二社の一つであり、伊勢神宮とともに二所宗廟の一つとなっています。旧社格は官幣大社で、現在は神社本庁の別表神社となっています。また、宇佐神宮・筥崎宮または鶴岡八幡宮とともに、日本三大八幡宮の一つとされています。宮中の四方拝で遥拝されるこの神社は、ツーリングやバイクで訪れた旅行者にも人気の場所です。,614-8588 京都府八幡市八幡高坊３０,1時間,バイク駐車場あり,秋,無料,一人,空いている,屋外,34.8796813,135.7000577,0,子連れ家族
円月島 サンセットベイ,"https://motospot.jp/img/spot/img-552-medium.jpg",円月島サンセットベイは、和歌山県の白浜町にあり、白浜観光協会が管理をする施設です。白浜は有名観光地として知られており、円月島は海蝕洞が開いている絶景スポットとして有名です。ここから円月島が見えます。周辺には温泉施設も多くあり、他県からの観光客やライダーも多く集まります。,649-2211 和歌山県西牟婁郡白浜町３５９３−２,3時間,駐車場あり,通年,無料,何人でも,普通,屋外,33.6731118,135.3510386,0,子連れ家族
御堂筋,"https://motospot.jp/img/spot/img-810-medium.jpg",大阪の御堂筋です。毎年１１月３日から１２月３１日まで、北は梅田から南は難波にかけてイルミネーションで華やかに彩りを駆使しています。それぞれの区間には６色の各エリアを象徴する演出が美しいです。年内の記念に写真映えをしてSNS発信をしたり子供参加型ギャラリーもあって近隣の小学校にもご協力を頂いています。,541-0053 大阪府大阪市中央区本町４丁目５−１２,2時間,駐車場なし,冬,無料,何人でも,少し空いている,屋外,34.6837498,135.4985657,0,子連れ家族
薩摩っ子ラーメン 八尾外環店,"https://motospot.jp/img/spot/img-1834-0-medium.jpg",「薩摩っ子ラーメン」は、大阪の老舗ラーメンチェーンです。本店は大阪市北区天満の空心町にあり、昔からとっても有名なラーメン屋さんで、この支店が八尾外環店です。ここのラーメンは、豚骨スープに中太のちぢれ麺、そしてトロトロの豚バラチャーシューが特徴で、一度食べると癖になる味です。お値段は少しお高めですが、値段だけのボリュームと味だと思います。駐車場はそんなに広くありませんが、車が7〜8台ぐらいは停めれます。また、バイク専用の駐車スペースはありませんが、周囲には他の店舗等もありませんので、それなりに停めやすいと思います。,581-0866 大阪府八尾市東山本新町８丁目１４−１６,0.5時間,駐車場あり,通年,1000円,何人でも,少し混んでいる,屋内,34.6247393,135.6315437,0,子連れ家族
ミホミュージアム,"https://www.keihanhotels-resorts.co.jp/biwakohotel/wps/wp-content/uploads/2022/09/miho2.png",滋賀県の山の中にある美術館で、世界的な建築家I.M.ペイによって設計されました。「桃源郷」をコンセプトにした建物は自然との調和が特徴で、美しい景観の中に溶け込んでいます。収蔵品は古代エジプト、ギリシャ、ローマをはじめとする世界各地の美術品が中心で、日本美術も含まれています。期間によって展示物が変わります。施設内にはカフェやレストランもあり、アート鑑賞の合間にリフレッシュできます。小さなパン屋さんもあります。建物が二つに分かれていて、歩いても良いですし乗り物(トローリー)に乗って移動しても良い。景色がとてもきれい見晴らしが良いです。もちろん屋内の美術館も広く綺麗です。お土産も充実しています。入場料が1300円かかりますが、駐車場は無料です。,529-1814 滋賀県甲賀市信楽町田代桃谷３００,2時間,駐車場あり,通年,1300円,何人でも,普通,屋内,34.9088987,136.022953,0,子連れ家族
砥峰高原,"https://motospot.jp/img/spot/img-299-medium.jpg",田舎町の山にある、一面ススキの高原です。広々としていて遠くの方まで景色が楽しめます。季節により様々な色を見せてくれます。山頂にあり、人も少ないので一人でのんびりしたい、ゆっくりしたい時にはオススメです。映画やドラマの撮影にも使われることがあるようです。,679-3104 兵庫県神崎郡神河町川上８０１−１２,2時間,駐車場あり,通年,無料,何人でも,空いている,屋外,35.1530991,134.6904954,0,子連れ家族
農業公園サバーファーム,"https://motospot.jp/img/spot/img-1324-medium.jpg",富田林市農業公園サバーファームは、大阪府の富田林市にある屋外農業体験スポットです。いちご狩りやさつまいもや玉ねぎなどのたくさんの野菜の収穫体験ができるスポットです。料理教室や工作教室も開かれており、走るだけでなく、何か訪れたところの思い出を作りたいと言う方にオススメの場所です。,584-0054 大阪府富田林市甘南備２３００,2時間,駐車場あり,春,1000円,何人でも,少し空いている,屋外,34.4578388,135.608719,0,子連れ家族
島らーめん食堂 太陽亭,"https://motospot.jp/img/spot/img-1836-0-medium.jpg",淡路島の西岸にある地元のラーメン屋さんです。国道28号線沿で津名港のそばに店舗があり、駐車場も広いので車でもバイクでも行きやすいです。ラーメンはとても美味しく、みそ、塩、醤油など一通りあります。それなりにボリュームもあり、しかもラーメンを頼むとご飯と手作り高菜が食べ放題です。,656-2131 兵庫県淡路市志筑91-3,0.5時間,駐車場あり,通年,1000円,何人でも,普通,屋内,34.4352372,134.9065591,0,子連れ家族
神峰山寺,"https://motospot.jp/img/spot/img-2604-0-medium.jpg",大阪高槻市にある神峯山寺は、中興時から皇族と深い繋がりを持った古刹です。その証として、境内には天皇直系の所縁であることを表す『十六八重菊』が刻印された建造物が点在しています。日本最初の毘沙門天安置の霊場としても知られ、1300年以上の歴史を持つ古刹です。厄除け毘沙門不動護摩行、山岳修験者、紅葉や新緑、初詣の名所としても有名です。また、魔除けのお札、元三大師の手刷りがあります。,569-1051 大阪府高槻市原３３０１−１,1時間,駐車場あり,通年,2500円,何人でも,空いている,屋内,34.898295,135.6088291,1,恋人
はなとね,"https://motospot.jp/img/spot/img-2605-2-medium.jpg",神戸市内とは思えないほど自然豊かなでのんびりと過ごせる神戸市北区淡河町。ここに古民家「前田家」を改修したかわいいスチームベーグルのカフェがあります。山田錦を作っている米農家が周囲にあり、このお家も古民家そのままの暖かくて懐かしい雰囲気がいっぱいです。,651-1622 兵庫県神戸市北区淡河町神田１４３−２,1時間,駐車場あり,通年,1000円,何人でも,混んでいる,屋内,34.8265226,135.1639616,1,恋人
アクアイグニス,"https://motospot.jp/img/spot/img-2861-0-medium.jpg",アクアイグニスは三重県にある総合リゾート施設で、湯の山温泉にあります。この施設は「食」と「癒し」をコンセプトにしており、100%源泉かけ流しの天然温泉「片岡温泉」や、辻口博啓・奥田政行の料理を楽しむことができます。自然豊かな環境の中で、温泉だけでなく、高級レストランでの食事やスイーツ、パンの工房なども楽しめる場所です。中でも竹林の茂る露天風呂は絶景です。レストランは種類が多く、事前に予約も可能です。また、御在所岳の麓に位置しており、四季折々の自然美を堪能しながら、日常から離れた特別な時間を過ごすことができます。バイクでの観光にも最適で、心身のリフレッシュにオススメのスポットです。新名神高速道路「菰野IC」より約5分とアクセスも良く、駐車場も充実しています。,510-1233 三重県三重郡菰野町菰野４８００−１,3時間,駐車場あり,通年,3000円,複数人,少し混んでいる,屋内,35.0134379,136.4825036,0,子連れ家族
神戸市立森林植物園,"https://motospot.jp/img/spot/img-1582-0-medium.jpg",世界各地の樹木約1200種を集めた、総面積142.6haにおよぶ国内最大級の植物園です。レクリエーションや森林浴、自然観察と楽しい一日が過ごせます。 摩耶山と森林、 神戸の裏山的存在で、登山、ハイキング、バードウォッチングなど多くの人が訪れます。,651-1102 兵庫県神戸市北区山田町上谷上,2時間,駐車場あり,秋,300円,何人でも,普通,屋外,34.7655951,135.1775216,0,子連れ家族
ひまわりの丘公園,"https://motospot.jp/img/spot/img-2606-1-medium.jpg",国道175号線沿いにあり、夏はひまわり、秋はコスモスが一面じゅうたんのように咲くお花畑のある公園です。イングリッシュガーデンの薔薇、ハーブも美しく手入れされ、流れる小川、池もあります。市民の憩いの場所になっています。最近遊具がリニューアルされて県外から遊びにこられる人もいます。近所には小野市自慢のおいしい牛乳・共進牧場もあります。ひまわりの丘公園は市民の公園なので駐車場も公園への入場料も無料です。,675-1317 兵庫県小野市浄谷町１５４５−３２１,1時間,駐車場あり,夏,無料,何人でも,空いている,屋外,34.8701884,134.9534491,0,子連れ家族
狭井神社,"https://motospot.jp/img/spot/img-2862-0-medium.jpg",狭井神社は奈良県桜井市にある大神神社の摂社で、古くから「狭井の御神水」として知られる薬井戸の水が諸病に効くとされ、多くの参拝者が訪れます。薬師如来を祀り、健康や病気平癒を願う人々にとって重要な祈願所です。毎年4月18日には鎮花祭が催され、2000年以上の歴史を持つ伝統ある祭りとして注目されています。拝殿の左後ろにある井戸は、「狭井」の名前の由来になっており、太古から薬水と称して、この霊泉は万病に効くと古くから伝えられ、多くの人が訪れています。この狭井神社の境内より社務所で許可をいただいて、三輪山に登拝することもできます。,633-0001 奈良県桜井市三輪１４２２,0.5時間,駐車場あり,通年,無料,何人でも,空いている,屋外,34.5287975,135.8528182,1,恋人
あべのハルカス,"https://image.hldy-cdn.com/c/w=1336,h=826,a=0,r=auto,f=webp:auto/holiday_article_images/2052/2052.jpg?1533192438",高さ300メートルという日本最高層の複合ビルです。近鉄大阪阿部野橋駅や天王寺駅と直結することができます。広がりのある百貨店や展望台、美術館、ホテルなど様々な施設が出店しており、１日中楽しむことができます。さらに、大阪随一の絶景とともに絶品グルメも楽しめます。,545-6016 大阪府大阪市阿倍野区阿倍野筋１丁目１−４３,1.5時間,駐車場あり,通年,1500円,何人でも,普通,屋内,34.6458039,135.5140769,0,子連れ家族
木梨神社,"https://motospot.jp/img/spot/img-2863-0-medium.jpg",旧社庁舎から北へ下ったところに、大きな山田錦を育てている田んぼがあります。その中に大きな鳥居があります。そばに神社は見当たりません。鳥居の先に中国道が横に連なっており、その下に小さな高架トンネルが見える、その高架をくぐると、木梨（こなし）神社があります。木梨神社は、古くから穢れと祓いの神様として信仰されています。この神社は、播磨国賀茂郡の式内社で、第10代崇神天皇の時代に物部八十手によって八十枉津日神が祀られたと伝えられています。後に、将軍彦坐命が丹波の賊を征伐した際に神託を受けて創建されました。加東市を含む北播磨には蛇にまつわる逸話が多くあります。三草山に近い木梨神社もその蛇にまつわる逸話（伝説）が残る神社の一つです。木梨神社の境内は、植木が美しく剪定され、地面も掃き清められた清々しい雰囲気を持っています。,673-1462 兵庫県加東市藤田４７３,0.5時間,駐車場あり,夏,無料,一人,空いている,屋外,34.9237282,134.9906236,0,子連れ家族
江井島海岸,"https://motospot.jp/img/spot/img-1585-0-medium.jpg",山陽電鉄江井ヶ島駅近くにある海岸です。ヤシの木が立ち並ぶトロピカルムード満点の海岸は、明石海峡や淡路島を一望することができます。近くには休憩所などもあります。 江井ヶ島海岸は、南国の雰囲気溢れるビーチで、明石海峡大橋や淡路島、瀬戸内を行き交う船舶を眺めながら、海水浴とバーベキューを同時に楽しむことが出来る関西では数少ない海水浴場です。江井ヶ島海岸（海水浴場）より東側で、同じ兵庫県明石市にある「林崎松江海岸（海水浴場）」より人が少なく静かなので、穴場的BBQ＆海水浴場スポットです。,674-0064 兵庫県明石市大久保町江井島,2時間,駐車場あり,夏,無料,複数人,空いている,屋外,34.6762552,134.9230002,1,恋人
凡ライス店,"https://motospot.jp/img/spot/img-1841-0-medium.jpg",地元の拠点病院である八鹿病院に併設された食事処です。地元名産の八鹿豚を使ったボルガライスがおいしいですが、他にもコロッケ定食や八鹿豚のトンカツ定食、うどんやそばもあり、美味しいです。しかも、お値段がリーズナブルですので、オススメの穴場お食事スポットです。,667-0021 兵庫県養父市八鹿町八鹿１８７８−１,0.5時間,駐車場あり,通年,1000円,何人でも,普通,屋内,35.4048483,134.7732676,0,子連れ家族
ラーメン三宅吉祥 松原本店,"https://motospot.jp/img/spot/img-1842-0-medium.jpg",阪神高速大和川線の下を走る国道179号線沿いの一面畑と田んぼが広がる場所にポツンとあります。このお店の名物はスタミナ系の河内ニラそばですが、こく旨みそラーメンも美味しいです。卓上に置いてあるニラみそとキムチをラーメンに入れて食べるのが絶品の味です。中太のちぢれ麺、コクとニンニク風味が効いた濃いめのスープがやみつきになります。,580-0045 大阪府松原市三宅西７丁目９５２−１,0.5時間,駐車場あり,通年,1000円,何人でも,普通,屋内,34.593292,135.5454748,0,子連れ家族
弘誓寺,"https://motospot.jp/img/spot/img-2610-0-medium.jpg",「清瀧山弘誓寺（せいりゅうざん・ぐぜいじ）」は、地元では「宇土の観音さん」「宇土観音」として親しまれています。この寺は約1400年前、法道仙人によって「天地山極楽寺」として創建されました。当初は多くの僧坊があり、栄えていましたが、1184年（寿永３年）に源氏による火災で全山が焼失しました。それでも、ご本尊の聖観世音菩薩は滝に隠されて難を逃れ、後に再建されました。1473年（文明5年）に曹洞宗に改宗し、清瀧山弘誓寺と名を改められました。寺内には多くの仏像が祀られており、庭には美しい大銀杏があります。寺の近くには展望所があり、山巡りも楽しめます。年間を通じて様々な祭りや行事が行われています。特に、毎月17日には病気封じのご利益で知られる例祭があり、多くの参拝者が訪れます。場所としては、国の史跡にも指定されている「篠山城跡」や伝統的な町並みが残る丹波篠山の中心部から車で10分程度の距離に位置しています。舞鶴若狭自動車道の丹南篠山口から10分ほどです。銀杏の季節は近隣の農地を駐車場として開放してくれています。行くまでの道は少しわかりにくいかもしれません。,669-2455 兵庫県丹波篠山市宇土６１１,1時間,駐車場あり,秋,無料,何人でも,空いている,屋外,35.0573613,135.1936722,0,子連れ家族
三多気の桜,"https://motospot.jp/img/spot/img-2866-0-medium.jpg",春には約1.5kmの参道沿いに400本余りのヤマザクラが咲き誇ります。この桜並木は国の名勝に指定されており、「日本さくら名所100選」にも選ばれています。特に有名なのは、馬子唄にも歌われた美しさで、桜の見頃はソメイヨシノよりも10日ほど遅く、長い期間花を楽しむことができます。バイクは中腹にある駐車場に停められます。そこから真福院までは、登り坂が続きます。上から眺める桜の景色も圧巻です。棚田に映る桜の姿に、多くの写真家たちもカメラを向けるほど、絵になる景色が広がっています。,515-3535 三重県津市美杉町三多気２５２,0.5時間,駐車場あり,春,無料,何人でも,少し混んでいる,屋外,34.5236325,136.2259,1,恋人
多賀の浜海水浴場,"https://motospot.jp/img/spot/img-1587-1-medium.jpg",淡路島で2番目に大きなビーチで、約1.5kmに及ぶ広大な砂浜があります。遠浅の海と美しい砂浜が人気で、海水浴だけでなく、播磨灘に沈む夕日を眺めながらの散策にも最適です。多賀の浜海水浴場は「音と光」がテーマの海水浴場で、県内トップレベルの水質です。沖合にはタイル張りのT字型の防波堤があり、釣り場としても最適です。,656-1521 兵庫県淡路市多賀２４７６−３,1時間,駐車場あり,夏,無料,複数人,空いている,屋外,34.4702489,134.8400063,1,恋人
カレーヤ,"https://motospot.jp/img/spot/img-1843-0-medium.jpg",南海電車の和歌山市駅にほど近い地元で人気の老舗食堂が「カレーヤ」です。名前の通りカレーもメニューにありますが、ここは名物はなんといっても「バラホル定食」です。超濃いめのニンニク醤油ダレでしっかりと炒めた豚バラは、お腹にガツンとくるパンチのある味で白飯とベストマッチです。もちろん、昔ながらのカレーライスも美味しいです。,640-8221 和歌山県和歌山市湊紺屋町１丁目１１,0.5時間,駐車場あり,通年,1000円,何人でも,少し混んでいる,屋内,34.2340094,135.1667675,0,子連れ家族
神戸市立須磨離宮公園,"https://motospot.jp/img/spot/img-1588-1-medium.jpg","旧離宮の由緒ある歴史にちなみ、欧風噴水庭園には王侯貴族のバラ園があります。 レストハウスからはシンメトリーにデザインされた庭園が一望に見渡せます。眼下に広がる大阪湾と青い大空の眺望と景観にプリンセス＆プリンス気分を味わえます。 春と秋には約180種、4,000株のバラが開花し、色鮮やかな花色と豊かな香りを楽しめます。",654-0018 兵庫県神戸市須磨区東須磨１−１,2時間,駐車場あり,春,400円,何人でも,普通,屋外,34.6552069,135.1142993,1,恋人
てんしば,"https://motospot.jp/img/spot/img-1844-0-medium.jpg",大阪南部の拠点駅である天王寺駅のほど近くにはある「てんしば」は、芝生の広場を中心にカフェヤレストラン、フラワーショップ、子どもの遊び場などがある憩いのスペースです。「てんしば」からは天王寺動物園にもほど近く、親子連れやカップルにも大人気です。また、「あべのハルカス」や串カツで有名な新世界界隈にも歩いていける距離にありますので、遊んで、観て、食べての三拍子揃った休日を楽しむにはベストな場所です。,543-0063 大阪府大阪市天王寺区茶臼山町５−５５,2時間,駐車場なし,通年,無料,何人でも,普通,屋内,34.6486022,135.5092873,0,子連れ家族
壺阪寺,"https://motospot.jp/img/spot/img-2612-0-medium.jpg",奈良県にある寺院で、山の斜面では高さ20mの大観音石像を見ることが出来る人気スポットです！特に春の桜や秋の紅葉の時期に訪れるのがお勧めで参拝客で賑わいます。「壺阪寺」は目の病や眼病封じのお寺として知られています。 眼病封じの祈願を行うときには木札に名前を書き、観音様に結んで眼病封じの御朱印を持ち帰ると観音様が願いを聞き届けてくださると言われています。 また、眼病にご利益があることから、「壺阪寺」では「めがね供養」も行っています。開門閉門時間は午前8時半〜午後5時まで年中無休駐車場もあるのでご安心ください♪ちなみにバイクも駐車可能です。春や秋は参拝客で混雑が予想されますので時間に余裕を持って行くことをオススメします。,635-0102 奈良県高市郡高取町壷阪3,1時間,駐車場あり,春,600円,何人でも,普通,屋外,34.4264652,135.8099277,1,恋人
奥琵琶湖パークウェイ,"https://motospot.jp/img/spot/img-53-medium.jpg",奥琵琶湖パークウェイは、つづら尾崎展望台に続くドライブコースです。ここには置物の動物園もあり、恋人の聖地としても写真スポットとしても人気です。展望台からは琵琶湖が一望できます。特に春はパークウェイ両サイドが桜一色になり、魅力的な景色が楽しめます。原付バイクでも走行することができます。,奥琵琶湖パークウェイ,0.5時間,バイク駐車場あり,春,無料,何人でも,少し混んでいる,屋外,35.4848817,136.1486097,0,子連れ家族
海鮮料理きとら,"https://motospot.jp/img/spot/img-1589-0-medium.jpg",淡路島近海で獲れた新鮮な魚介類を使ったお料理が食べられる食事処です。昼の時間帯は1500円ほどの料金でボリュームのあるランチ定食があり、とても美味しくいただけます。一品料理から各種定食、会席料金まで幅広く対応してくれますので、淡路島の食を堪能できます。,656-0121 兵庫県南あわじ市山添３０８−３,0.8時間,駐車場あり,通年,1500円,何人でも,普通,屋内,34.3331729,134.8394015,0,子連れ家族
伊勢神宮内宮,"https://motospot.jp/img/spot/img-566-medium.jpg",長い歴史を持つ日本を代表する神社であり、「お伊勢さん」の名前で親しまれています。豊かな自然の中にあり、パワースポットとしても有名です。門前町の「おかげ横丁」には多くの飲食店や土産物屋が並び賑わっています。,516-0023 三重県伊勢市宇治館町１,2時間,駐車場あり,通年,無料,何人でも,少し混んでいる,屋外,34.457233,136.7237887,0,子連れ家族
お好み焼き・たこ焼き　ゆき,"https://motospot.jp/img/spot/img-1590-0-medium.jpg",ＪＲ新長田駅を海側に向かって徒歩１０分程度の場所にある「お好み焼き・たこ焼き　ゆき」は、地元で人気のお好み焼きの専門店です。一般のお好み焼き、焼きそば以外に、長田名物の牛すじ、こんにゃくの煮込みが入った「にくてん焼き」、「そばめし」が美味しくいただけます。,653-0041 兵庫県神戸市長田区久保町４丁目２−５,0.6時間,駐車場なし,通年,1000円,何人でも,少し混んでいる,屋内,34.6538059,135.1482902,0,子連れ家族
中華そば　せんよし（泉善）,"https://motospot.jp/img/spot/img-1591-0-medium.jpg",「中華そば　せんよし」は、大阪南部、和歌山県との県境にほど近い泉南市にあるお店です。ラーメンの種類としては完全に和歌山ラーメンです。麺は中細ストレート、スープは豚骨醤油でとっても美味しいです。テーブルには和歌山ラーメン定番のセルフのゆで卵、早やずし置いてあり、これを一緒に食べるのがとってもいい感じです。,599-0212 大阪府阪南市自然田８３４−7,0.6時間,駐車場あり,通年,1000円,何人でも,普通,屋内,34.3416437,135.2598394,0,子連れ家族
彦根城周辺,"https://motospot.jp/img/spot/img-312-medium.jpg",彦根城周辺は、国宝の彦根城をはじめとする様々な文化財にあふれたエリアです。春には桜、秋には紅葉など、自然の観光も魅力的です。彦根城は保存状態が非常に良く、江戸時代の政治体制を表す代表例とされています。また、日本の世界遺産暫定一覧表にも記載されており、世界遺産登録を目指しています。,522-0061 滋賀県彦根市金亀町１−１,2時間,駐車場あり,秋,800円,一人,普通,屋内,35.27589680000001,136.2519475,0,子連れ家族
りんくうプレミアムアウトレット,"https://motospot.jp/img/spot/img-824-1-medium.jpg",泉佐野市にある大型商業施設です。駐車場が多くて便利。食事、買い物ができる。店舗数が多いので、長い時間ショッピングを楽しめる。すぐ隣が海なので景色がよく、ペットの散歩もできる。インスタ映えスポット,598-0047 大阪府泉佐野市りんくう往来南３−２８,3時間,駐車場あり,通年,無料,何人でも,少し混んでいる,屋内,34.406295,135.2958849,0,子連れ家族
金熊寺（きんゆうじ）梅林,"https://motospot.jp/img/spot/img-1592-1-medium.jpg",泉南市の山間にある金熊寺の梅林は、毎年2月下旬から3月上旬の時期に白とピンクの梅の花が咲き乱れ、幻想的な風景と香りにあたり一面が包まれます。また、梅の花を観ながらすき焼きが食べられるお食事処もあります。,590-0514 大阪府泉南市信達金熊寺７９８,1時間,駐車場あり,春,無料,何人でも,少し混んでいる,屋外,34.3377639,135.2889712,1,恋人
ガーデンレストラン風舎,"https://www5e.biglobe.ne.jp/~donqui/fb03214.jpg",425線（有馬街道）を六甲山の方へ向かって北へ。途中で「菊水ゴルフクラブ」と看板があります。道なりに行くと可愛いガーデンレストランが見えてきます。高台にあるので景色がとてもいいです！馬もいます！,652-0001 兵庫県神戸市兵庫区烏原町清水谷１,1時間,駐車場あり,通年,1000円,何人でも,普通,屋内,34.6986544,135.1523743,0,子連れ家族
平城京跡歴史公園,"https://motospot.jp/img/spot/img-313-medium.jpg",特別史跡平城京跡に作られた国営公園です、世界遺産「古都奈良の文化財」の一つで、大極殿や朱雀門が復元され、展示されています。発掘された遺物は、遺物展示館で展示されています。古代の都の雰囲気を味わう事が出来、歴史好きにはたまらないスポットです。,630-8012 奈良県奈良市二条大路南３丁目５−番１号,1.5時間,駐車場あり,通年,無料,一人,少し空いている,屋外,34.6859241,135.7958911,0,子連れ家族
ちゃんぽん亭総本家　長浜バイパス店,"https://motospot.jp/img/spot/img-1594-0-medium.jpg",「ちゃんぽん亭総本家」は、滋賀県名物の近江ちゃんぽん発祥のお店です。全国的にも有名な長崎ちゃんぽんとは異なり、鶏ガラ、醤油ベースのあっさりとした黄金スープが癖になる味わいです。ストレートの平麺にキャベツ、もやし、豚肉などがたっぷりと乗ったこのちゃんぽんは、誰からも好まれる味だと思います。,526-0033 滋賀県長浜市平方町１１３５−６,0.6時間,駐車場あり,通年,1000円,何人でも,少し混んでいる,屋内,35.3772407,136.2865377,0,子連れ家族
神戸市立六甲山牧場,"https://motospot.jp/img/spot/img-2106-0-medium.jpg",羊やヤギなどたくさんの動物たちがのびのびと過ごす姿を見ることができる場所です。斜面をそのまま利用した牧場になっており、動物たちが自然の中で悠々と過ごす姿が見ることができます。餌やりスポットや写真映えする所もあり子供から大人、各世代で楽しめます。軽食出来る所もあり、特にソフトクリームが絶品です。目的地まではかなり山道で、バイクでのツーリングをする人が多くいます。途中電波が繋がりにくいところがあるので注意してください。,657-0101 兵庫県神戸市灘区六甲山町中一里山１−１,3時間,駐車場あり,秋,5000円,複数人,普通,屋外,34.7515931,135.2090915,0,子連れ家族
神戸三田プレミアム・アウトレット,"https://motospot.jp/img/spot/img-1595-0-medium.jpg",ロサンゼルス市郊外の高級住宅地・パサディナをモデルとした「開放感のあるプレミアムな大人の街」。国内外の著名ブランドが揃い、ショッピングが楽しめます。 アウトレットモールの店舗面積順位で、国内第2位（西日本最大）です。山の中にあるので、敷地は大きいです。 駐車場はとても広いですが土日の夕方は出る時に混みます。,651-1515 兵庫県神戸市北区上津台７丁目３−３,2時間,駐車場あり,通年,無料,何人でも,普通,屋内,34.859171,135.1924854,0,子連れ家族
忍者キングダム,"https://motospot.jp/img/spot/img-2619-0-medium.jpg",日本文化に触れたり、忍者の衣装を着て散策したり、アトラクションで遊んだり、美味しいものを食べたりと、一日遊べる、忍者がテーマの珍しいテーマパークです。敷地がとても広く、色々な場所でイベントをやっていることがあるので丸一日遊べます。最後にはゆっくり温泉に浸かって疲れを癒すこともできます。,519-0603 三重県伊勢市二見町三津１２０１−１,5時間,駐車場あり,通年,7000円,何人でも,少し空いている,屋外,34.4991058,136.7764592,0,子連れ家族
伊根の舟屋,"https://motospot.jp/img/spot/img-60-medium.jpg",天橋立の近くにある絶景スポットです。伊根湾沿い立ち並ぶ民家で、船の収納庫の上に住居を備えた伝統的建造物です。日本のヴェネツィアと呼ばれる集落は、重要伝統的建造物群保存地区として選定されているために国内外にも知られています。民家の１階は、船揚場と作業場となっており、船はそのまま海上に出られるようになっています。山と海が非常に近くレストランやお土産やさんがある高台から絶景を見下ろすと爽快です。道幅は広く、ツーリングするには快適な場所です。,626-0423 京都府与謝郡伊根町平田77,0.5時間,駐車場なし,夏,無料,何人でも,普通,屋外,35.6751606,135.2866533,1,恋人
旧奈良監獄,"https://motospot.jp/img/spot/img-828-medium.jpg",1908年に作られた明治五大監獄のひとつです。2017年に国の重要文化財に指定され、同年3月で奈良少年刑務所として役割を終えており、今後はホテルを含む複合施設として活用されることが決まっています。（資料館も併設予定）建物は赤レンガを積んだロマネスク様式でほぼ竣工当時の形のままです。現在は耐震工事中で一般公開されていませんが、表門前には駐車・駐輪スペースもあり撮影は可能です。一般公開の時期などは、公式サイトでご確認ください。,630-8102 奈良県奈良市般若寺町１８,0.5時間,駐車場あり,通年,無料,一人,空いている,屋外,34.6997897,135.8335309,0,子連れ家族
しだれ紅梅,"https://motospot.jp/img/spot/img-1340-medium.jpg",淡路島八木 しだれ紅梅「村上邸」のある場所は個人宅で、梅の時期になるとお庭の植木を公開しています。樹齢約60年、幅約10メートルに及ぶ濃い色のしだれ梅が、2月中旬頃から見頃になると沢山の見物の方が訪れます。他の時期にもユキヤナギやつつじなどの植木も公開しているようですが、しだれ梅の見事さは圧巻です。ちょっとしたお土産も販売しています。お庭の入り口に数台の車の駐車が出来ます。,656-0445 兵庫県南あわじ市八木馬回２１９,1時間,駐車場あり,春,無料,何人でも,少し混んでいる,屋外,34.2771483,134.8109987,1,恋人
長谷寺,"https://motospot.jp/img/spot/img-3132-0-medium.jpg",長谷寺（はせでら）は、奈良県桜井市初瀬に位置する真言宗豊山派の総本山で、「花の御寺」として知られています。初瀬山の中腹に広がる境内には、国宝の本堂や重要文化財の仁王門、五重塔などが点在し、四季折々の花々が彩りを添えます。特に春の牡丹や秋の紅葉は見事で、多くの参拝者や観光客が訪れます。本堂には高さ10メートルを超える木造の十一面観音像が安置されており、これは日本最大級の木造仏像として有名です。また、399段の登廊（のぼりろう）を上ると本堂に至り、その道中からの景色も魅力の一つです。長谷寺は、西国三十三所観音霊場の第八番札所としても信仰を集め、古典文学にも度々登場する歴史ある寺院です。,633-0112 奈良県桜井市初瀬７３１−１,1時間,駐車場あり,通年,500円,一人,少し空いている,屋内,34.5341876,135.9065779,1,恋人
入之波温泉,"https://motospot.jp/img/spot/img-1085-medium.jpg",山奥のダムの横にある温泉です。お湯は炭酸泉でタオルを浸けると色が取れないぐらいの茶色をしています。ダムが見え景色も最高で神経痛などに効力があるそうです。大台ケ原ツーリングの帰り、夕方に寄ると家に着くまで体がポカポカしてオススメです。お食事もおいしく、鴨ロース・鹿刺しが特に絶品で値段もリーズナブルです。,639-3500 奈良県吉野郡川上村入之波,2.5時間,駐車場あり,秋,2500円,何人でも,普通,屋内,34.2341275,136.0658592,0,子連れ家族
神戸ベイクルーズ,"https://motospot.jp/img/spot/img-1597-0-medium.jpg",神戸港には遊覧船や豪華なレストランシップ、ヘリコプターやセスナによる遊覧飛行など、多種多様な楽しみ方があります。 日本一大きな浮きドック(船の修理・点検設備)のある川崎重工や国内初のダブルデッキ(2階建)タイプの真紅の神戸大橋の迫力には圧倒されます。,650-0042 兵庫県神戸市中央区波止場町７−１,2時間,駐車場あり,通年,1400円,複数人,普通,屋外,34.6825284,135.1850121,0,子連れ家族
掬星台（摩耶山）,"https://kobe-rokko.jp/wp-content/themes/works/images/nightview/nighttopimg-3.jpg",日本三大夜景に入る百万ドルの夜景が見る事ができるスポットです。神戸＝港町という印象ですが、都市部からすぐに山があるので車やバイクで絶景スポットに行くことができます。また、六甲あたりからはロープウェイもあるので徒歩でも行くことができます。,657-0105 兵庫県神戸市灘区摩耶山町長峰山２−２,0.5時間,駐車場あり,冬,無料,何人でも,普通,屋外,34.7378515,135.202107,0,子連れ家族
くじらの博物館,"https://motospot.jp/img/spot/img-1086-medium.jpg",大地町のくじらの歴史がわかる博物館です。水族館では水槽のトンネルやくじらショーはもちろん、エサやり体験もできます。昔からある施設なので建物は少し古いですが、楽しめます。基本屋外での行動になるので晴れた日に行くのがオススメです。,649-5171 和歌山県東牟婁郡太地町太地２９３４−２,2時間,駐車場あり,夏,2000円,複数人,少し空いている,屋外,33.6019074,135.9457897,0,子連れ家族
名谷あじさい公園,"https://motospot.jp/img/spot/img-1598-0-medium.jpg",高速道路の高架の下を活用した公園で、多少の雨でも利用可能なゾーンがあります。ビオトープ池周辺と福田川を一体的に整備した親水広場では自然に触れることができます。桜も綺麗です。主な施設は、ビオトープ池・ゲートボール広場・複合遊具・多目的広場・砂場・トイレなど。 駐車場は無料ですが、午後6時に閉門します。,655-0852 兵庫県神戸市垂水区名谷町,1時間,駐車場あり,通年,無料,複数人,普通,屋外,34.6628331,135.0724825,0,子連れ家族
最初ヶ峰,"https://motospot.jp/img/spot/img-2110-0-medium.jpg",最初ヶ峰は和歌山県紀の川市にある標高は285mの百合山にあります。展望台があり、180度のパノラマで紀の川市の街並みと空と山を楽しめます。南北朝時代の古戦場のあとで道も整備されておりアクセスはしやすいです。夜景もきれいですが、気候が良い時期にはランチやおやつを持参して景色を楽しみながら一休みするのにオススメです。,649-6162 和歌山県紀の川市竹房,0.5時間,駐車場あり,通年,無料,何人でも,空いている,屋外,34.2419212,135.3674854,0,子連れ家族
夙川公園,"https://motospot.jp/img/spot/img-319-medium.jpg",西宮の西側を流れる夙川の両岸に公園が広がっている河川敷公園です。春には2300本の桜が3kmに渡って咲き誇る場所でお花見に最適です。車は駐車場が少なかったり混んだりして大変かもしれませんが、バイクで川沿いを走るととても気持ち良いです。,662-0000 兵庫県西宮市宮西町８−１４他,2時間,駐車場なし,春,無料,何人でも,混んでいる,屋外,34.7358258,135.3306349,1,恋人
白浜,"https://motospot.jp/img/spot/img-1087-medium.jpg",日本で、一番海開きが早い場所で、海もきれいな温泉地です。海岸沿いをゆっくり眺めることができて、千畳敷や、三段壁な有名な絶景ポイントがあります。温泉地なので、足湯もあり、日帰り温泉もあるので、ゆっくりできます。海の近くなので、とれとれ市場で新鮮な海産物が食べられます。,,24時間,駐車場あり,夏,3000円,何人でも,少し混んでいる,屋内,,,0,子連れ家族
海遊館,"https://osaka-info.jp/spot/images/14c243d3ce6cd216d14558e77e0bde13d41ec265.jpg",大阪にある世界最大級の水族館です。大きなジンベエザメたちが悠々と泳ぐ巨大な水槽や、自然を体感するエリアなどで、たくさんの感動に出会えます。 飼育されている目玉動物の一つはジンベエザメです。,552-0022 大阪府大阪市港区海岸通１丁目１−１０,3時間,駐車場あり,通年,2400円,何人でも,普通,屋内,34.6563732,135.4302962,0,子連れ家族
妙見山,"https://motospot.jp/img/spot/img-2623-0-medium.jpg, https://motospot.jp/img/spot/img-2623-1-medium.jpg",大阪の北、山深い能勢町にある妙見山。ここには能勢妙見山という日蓮宗のお寺があります。なんでも北極星を信仰しているお寺で、お寺の紋はお星さまのカタチです。攻めのワインディングロードのルートがいくつかあり、ワクワクすること間違いなしです。山上までいくと、京都、大阪、神戸市の山々まで見渡せ絶景が堪能できます。,563-0132 大阪府豊能郡能勢町野間中,1時間,駐車場あり,通年,500円,何人でも,空いている,屋外,34.9345587,135.4615785,0,子連れ家族
伊太祁曽神社,"https://motospot.jp/img/spot/img-2112-0-medium.jpg",和歌山県にある神社です。紀ノ國一之宮で木の神様である五十猛命（いたけるのみこと）がまつられています。鳥居を抜け奥に駐車場があり無料で停めることができます。本殿まで少し階段がありますがそれほど歩かずお参りすることができます。木の神様らしく鳥居が木製で歴史を感じることができ神社の奥には水の神様がまつられた井戸があったりと境内をゆっくり歩くと多くの発見がある神社です。,640-0361 和歌山県和歌山市伊太祈曽５５８,1時間,駐車場あり,通年,無料,何人でも,空いている,屋外,34.2013474,135.2503019,0,子連れ家族
鈴鹿ツインサーキット,"https://motospot.jp/img/spot/img-2368-0-medium.jpg",鈴鹿には鈴鹿サーキットという国際サーキットがありますが、それとは別のミニサーキットです。グリップ・ドリフトでコースを2分割して走行することができます。金曜日にはフルコースをグリップで走行することもできるイベントがあるので、グリップコースに飽きたらフルコースを走行することもオススメです。亀山インターから車で20分ほど、近くにはモーターランド鈴鹿という別のミニサーキットもあります。コンビニが近くにあるので、買い出しも便利です。入場料で500円かかります。走行料金はグリップで1枠5000円と安価に走行できるので、サーキットデビューにもってこいです。,510-0265 三重県鈴鹿市三宅町２９１３−２,2時間,駐車場あり,春,8000円,何人でも,空いている,屋外,34.8052645,136.4962801,0,子連れ家族
霊山寺,"https://motospot.jp/img/spot/img-2113-0-medium.jpg",奈良県にある薬師如来を本尊とする大きなお寺です。本堂は国宝で、ほかにも重要文化財の堂塔・宝物がたくさんあります。本堂は重々しい雰囲気ですが平和を願って作られた薔薇園もあり、お参りときれいな花をじっくり堪能できるお寺です。奥の院まで歩いてお参りすれば祈りがより深まったような気がします。駐車場の一角に駐輪スペースがありそちらにバイクを停めてお参りすることができます。,631-0052 奈良県奈良市中町３８７９,1時間,駐車場あり,通年,500円,何人でも,普通,屋外,34.6749121,135.7461061,0,子連れ家族
番所庭園,"https://motospot.jp/img/spot/img-1090-medium.jpg",番所庭園は、綺麗な芝生公園で、整った形の松もあり、海を眺めることができます。バーベキュー施設もあり、夏は特に賑わっています。また、釣りもできるので、釣り好きの方にもおすすめの場所です。,641-0062 和歌山県和歌山市雑賀崎,0.5時間,駐車場あり,夏,600円,何人でも,空いている,屋外,34.1895602,135.144372,0,子連れ家族
太山寺,"https://motospot.jp/img/spot/img-2626-0-medium.jpg",神戸市西区にある寺院です。市内唯一の国宝建造物があります。場所は郊外にあり人通りも少ないのですが、田畑が多く自然も豊かです。境内は三重塔や阿弥陀堂などがあります。厳かな雰囲気で仏像も多くあります。奥には森林と河が流れています。寺院ですので季節の祭りもあります。駐車場は無料で入場料は300円です。近隣に入浴施設があるので疲れたらリフレッシュしていくこともできます。,651-2108 兵庫県神戸市西区伊川谷町前開２２４,2時間,駐車場あり,秋,300円,一人,空いている,屋外,34.6964521,135.0679623,0,子連れ家族
わんぱく動物園,"https://motospot.jp/img/spot/img-1091-medium.jpg",小さい動物園ですが、ウサギなど小動物と触れ合えます。放し飼いにされているアヒルたちがおしりをプリプリさせながら歩いている姿に癒されます。そして、園のシンボルであるヤギタワーの螺旋階段にいるヤギたちを見ていると外国に来たような気分になれます。,630-2205 奈良県山辺郡山添村桐山３２,1時間,駐車場あり,通年,無料,何人でも,少し空いている,屋外,34.6816388,135.9743547,0,子連れ家族
京都市京セラ美術館,"https://motospot.jp/img/spot/img-2115-0-medium.jpg",1933年に開設された歴史ある大規模な公立美術館です。岡崎公園内に位置し、洋風建築に和風の屋根を被せた和洋折衷の外観が魅力です。京都画壇を中心とした明治以降の近代・現代美術を収集しており、浅井忠の「グレーの柳」や上村松園の「待月」、竹内栖鳳の「絵になる最初」など、約3800点を収蔵しています。2020年春にリニューアルされ、現代アートなどの多彩な展示を行う新館「東山キューブ」、常設のカフェ、ミュージアムショップ、コレクションルームも誕生しました。,606-8343 京都府京都市左京区岡崎円勝寺町１２４,1時間,駐車場あり,通年,2000円,何人でも,少し混んでいる,屋内,35.0132305,135.7841327,0,子連れ家族
宇陀アニマルパーク,"https://motospot.jp/img/spot/img-1092-medium.jpg",奈良県営の動物ふれあい体験施設です。やぎや、牛、馬、ウサギなどの動物がいて小動物とは触れ合ったり餌をあげたりできます。また、広い敷地なので、子連れだと走り回ったり長い滑り台で遊んだり一日中有意義な時間がすごせます。,633-2112 奈良県宇陀市大宇陀小附７５−１,6時間,駐車場あり,通年,無料,何人でも,普通,屋外,34.489035,135.9330239,0,子連れ家族
江埼灯台,"https://romance-toudai.uminohi.jp/img/toudai/esaki_01.jpg",明治初期に建設された石造りの洋式灯台です。周囲は瀬戸内海国立公園に指定されており、灯台からは明石海峡大橋を望むことができます。江埼灯台は日本で8番目に建設された洋式灯台で、石造りの灯台としては3番目に古い灯台です。2022年に国の重要文化財に指定されました。灯台は明治時代のままの姿を残しており、訪れる人々に船舶の安全を守る歴史を伝えています。須磨灘に沈む夕日を見ることができる夕日スポットです。日没後には灯台に光が灯ります。夜景も綺麗です。,656-1725 兵庫県淡路市野島江崎１７,0.5時間,バイク駐車場あり,通年,無料,何人でも,空いている,屋外,34.6070054,134.993397,0,子連れ家族
若草山,"https://motospot.jp/img/spot/img-1093-medium.jpg",奈良公園にある山で、天候が良ければ徒歩で登山を楽しむことができます。そんなに高い山ではないので体力に自信がなくても登れます。途中たくさんの鹿に出会えますし、山頂からは、世界遺産の東大寺などを見下ろすことができます。夜はドライブウェイから登り、新日本三代夜景の一つに選ばれた夜景が見られます。,630-8211 奈良県奈良市雑司町,4時間,駐車場あり,秋,600円,何人でも,少し空いている,屋外,34.6890053,135.850522,0,子連れ家族
大和高田市総合公園,"https://motospot.jp/img/spot/img-2117-0-medium.jpg",駐車場もあり、グラウンドやコートでよく試合をしているのを見かけます。散歩、ランニングなど夜間利用している方もおられました。園内に桜の木が植えられているので春になると綺麗に咲いているのが見られます。,635-0058 奈良県大和高田市西坊城４１４,1時間,駐車場あり,通年,無料,何人でも,空いている,屋外,34.4918229,135.7556525,0,子連れ家族
星のブランコ,"https://motospot.jp/img/spot/img-1094-medium.jpg",長さ280m 、高さ最大50mの吊り橋で、まずそこに辿り着くまでに結構な山道を歩かなければなりませんが、ハイキングをかねて自然を楽しめます。吊り橋からは一面の絶景が見え、そこまでの苦労が報われるでしょう。展望台は吊り橋も見え、人気のフォトスポットです。秋は特に紅葉が綺麗でおすすめです。,576-0011 大阪府交野市星田５０１９−１,4時間,駐車場あり,秋,無料,何人でも,少し混んでいる,屋外,34.7521327,135.6881175,0,子連れ家族
大阪中之島美術館,"https://motospot.jp/img/spot/img-2118-0-medium.jpg",大阪中之島美術館は、大阪の中核であり、水都のシンボルである中之島に位置しています。2022年2月にオープンしたこの美術館は、19世紀後半から今日までの日本と海外の代表的な美術品やデザイン作品を中心に、約6000点のコレクションを所蔵しています。この美術館では、幅広い領域の作品を楽しむことができます。,530-0005 大阪府大阪市北区中之島４丁目３−１,1時間,駐車場あり,通年,2000円,何人でも,普通,屋内,34.6922899,135.4913832,0,子連れ家族
ロゴスランド,"https://motospot.jp/img/spot/img-2374-0-medium.jpg",ロゴス(LOGOS)が経営するキャンプ施設があり、テントなどのキャンプ用品も販売されています。とても広く、手ぶらでキャンプ体験やバーベキューも楽しめます。施設内にはキャンプホテルやBBQテラス、アウトドア料理のレストランなどがあり、屋内施設もあるので雨でも楽しめます。さらに、ローラースライダーや木製アスレチックなどのアトラクションも楽しめます。公園内にはピクニックが楽しめる大芝生広場もあります。ログスショップやワークショップなども開催され、家族や仲間と一緒に楽しい時間を過ごすことができます。近くにコンビニがないので、飲み物などは持参した方が良いです。,610-0121 京都府城陽市寺田大川原２４−４,3時間,駐車場あり,春,2000円,複数人,少し空いている,屋外,34.8561999,135.7975158,0,子連れ家族
信貴山朝護孫子寺,"https://motospot.jp/img/spot/img-327-medium.jpg",虎と毘沙門天のお寺なので、大きな虎の像が出迎えてくれます。信貴山は、毘沙門天が最初に来たと言われる山で、毘沙門天王信仰の総本山です。阪神タイガースの聖地とも呼ばれているようで、ファンの方はもちろん、そうでない方も楽しめるスポットです。山の上にあるので、景色も良いです。,636-0923 奈良県生駒郡平群町信貴山２２８０−１,2時間,駐車場あり,通年,無料,何人でも,少し空いている,屋外,34.6093095,135.669655,0,子連れ家族
宝山寺,"https://motospot.jp/img/spot/img-1607-2-medium.jpg",奈良県生駒山にある、お寺です。寺の敷地は広く、階段で山を登ります。山頂からは奈良の絶景を眺めることができます。参道は昭和にタイムスリップした光景が広がります。小洒落たカフェなどもあり、休憩することも可能です。,630-0266 奈良県生駒市門前町１−１,1時間,駐車場あり,通年,無料,何人でも,普通,屋外,34.6846402,135.6865849,1,恋人
キッチンたかま,"https://motospot.jp/img/spot/img-2119-0-medium.jpg",昔ながらの喫茶店の雰囲気があるアットホームなお店です。ボリュームは全体的に多く、喫茶店といえどガッツリ食べたい人にもオススメです。年配のスタッフさん達がにこやかに接してくれ、地元で愛されているお店です。テレビやメディアへも多数掲載されています。,517-0011 三重県鳥羽市鳥羽１丁目６−２３７９−２４,1.5時間,駐車場あり,通年,1500円,何人でも,混んでいる,屋内,34.4842134,136.8445986,0,子連れ家族
観心寺,"https://lh4.googleusercontent.com/proxy/QVp78yI1kLzvS1pKuDYdhMAoLnCaPISNmQ0MP9k8bitdxxB4w0_MCDLJVDcfpSf8UrWxkdTlrEn82KjsQCN91-2FgAbU0kBkmwh9ABI0",8世紀に建立された当時は「雲心寺」という名称でしたが、9世紀に弘法大師空海が訪ねた際、境内に北斗七星を勧請、その数年後に本尊如意輪観音菩薩を刻まれたことにより「観心寺」と名前を変えました。本尊如意輪観音菩薩は国宝とされています。南北朝時代の武将・楠木正成に縁のあるお寺で、駐車場に楠木公の雄々しい銅像が建てられています。境内の木々は紅葉の時期には紅葉スポットとして有名で、多くの方が紅葉狩りに集まります。車で来られる方が多数、バイクで来られる方もそこそこいらっしゃいますが、徒歩の方はバスの運行も乏しいので少なめです。,586-0053 大阪府河内長野市寺元４７５,0.5時間,駐車場あり,秋,300円,何人でも,少し空いている,屋外,34.4374606,135.5981094,1,恋人
びん玉ロード,"https://motospot.jp/img/spot/img-1609-0-medium.jpg",海沿いに、びん玉を使用したオブジェがあるスポットです。静かな夜道に、ほんのりと灯りを灯したびん玉がとても綺麗です。大人数よりも、1人や2人など、少人数がおすすめです。,517-0404 三重県志摩市浜島町浜島１４１６−８,0.5時間,不明,通年,無料,何人でも,空いている,屋外,34.294007,136.7487466,0,子連れ家族
カルディアキャンプ場,"https://motospot.jp/img/spot/img-586-medium.jpg",ロッジ、バンガロー、テント（持参）などでの宿泊可能なキャンプ場です。日帰りでBBQや鍋料理など食事のみもできます。横には吉野川が流れているので、夏はライフジャケットをレンタルし泳ぐこともできます。最近、新たにスケートボードも楽しめるパークも完成したのでスケートボードをする子供から大人まで楽しめます。,637-0028 奈良県五條市原町３１２,6時間,駐車場あり,夏,3000円,何人でも,少し空いている,屋内,34.365052,135.748545,0,子連れ家族
あわじ花さじき,"https://motospot.jp/img/spot/img-1098-medium.jpg",「あわじ花さじき」は、淡路島北部の高原に位置する花の名所です。明石海峡大橋、神戸、大阪、関西国際空港などを一望できます。20年の歴史を迎え、リニューアルされ、便益施設を整備し、新たな眺望を創出するとともに、空中回廊も新設されました。春から冬まで季節により変わる花が、夢の世界を作ります。また、面積約15haの海に向かってなだらかに広がる高原には一面の花畑が広がり、四季折々の愛らしい花が夢の世界に誘います。「あわじ花さじき」は極上の見物席として自由に散策して自分の席を見つけることができます。,656-2301 兵庫県淡路市楠本２８０５−７,1時間,駐車場あり,春,無料,何人でも,少し空いている,屋外,34.5534178,134.9779468,0,子連れ家族
洞川温泉センター,"https://motospot.jp/img/spot/img-1610-0-medium.jpg",奈良県にある温泉施設で、自然に囲まれてゆっくりとした時間を過ごすことができます。ツーリング後の温泉は非常に気持ちが良いです。近くに温泉街もあるので、ゆっくりと散策するのも楽しいです。,638-0431 奈良県吉野郡天川村洞川１３−１,1時間,駐車場あり,冬,1000円,何人でも,少し空いている,屋内,34.2644458,135.87719,0,子連れ家族
るり渓,"https://motospot.jp/img/spot/img-588-medium.jpg",るり渓は長さ4キロメートルの渓谷で、渓谷上流部は花崗岩、下流部は石英粗面岩で、岩や滝、深淵が清流に点在し、景観のアクセントとなっています。「るり渓十二勝」には、玉走盤や双龍渕など特徴ある名前がつけられており、両岸には広葉樹やアカマツが生い茂っています。最上流部には通天湖と観光レクリエーション施設があり、休日には多くの人が訪れます。渓谷は昭和7年に名勝に指定されています。オートキャンプサイトがあります。素泊まりのプランは用意されていませんが、手ぶらで利用可能な7タイプのキャンプサイトがあり、キャンプ初心者の方も簡単にグランピングなどを楽しむことができます。テント内は、冬でも床暖房が設置されていたり、冷蔵庫もあるため、キャンプとは思えないほど快適です。また、温泉も同じ施設内にあるため、とても便利です。,622-0065 京都府南丹市園部町大河内広谷１−１４,19時間,駐車場あり,通年,4000円,複数人,少し混んでいる,屋内,35.0315151,135.397677,1,恋人
和歌山県立自然博物館,"https://motospot.jp/img/spot/img-2381-0-medium.jpg",和歌山県立の博物館です。メインは小型水族館で、紀伊半島沿岸に生息する魚、エビ、カニ、その他生物を中心に展示されています。そのほか、自然環境に関する各種展示もされています。館内はさほど大きくありませんので、時間も要しません。その割に工夫を凝らして展示されているので十分楽しめます。国道４２号線からやや西に入ったところにあり、周辺は落ち着いた環境です。海岸もすぐそばにあります。,642-0001 和歌山県海南市船尾３７０−１,1時間,駐車場あり,通年,500円,何人でも,少し空いている,屋内,34.1596172,135.1927643,0,子連れ家族
ラーメン与七,"https://motospot.jp/img/spot/img-334-medium.jpg",京都方面から国道477号線を東に進み、琵琶湖大橋を渡る手前にある交差点でビッグエコーを南に曲がって100mほど進んだところにある。近くにはJAレーク滋賀グリーンファームやセブンイレブンがあるのでそれも目印になる。,520-0241 滋賀県大津市今堅田２丁目４０−２５,1時間,駐車場あり,通年,1000円,一人,少し混んでいる,屋内,35.1242369,135.9187979,1,恋人
淡路夢舞台,"https://motospot.jp/img/spot/img-1614-0-medium.jpg",高台から自然の景色を望めるスポットで、特に百段苑では様々なキク科の花々が植えてあり、階段状となっているので、上から見ると非常に綺麗です。建築物はクリエイティブでSNS映えするようなものが多く、建物自体も迷路のような構造となっており、歩いているだけでも楽しいです。,656-2306 兵庫県夢舞台,1時間,駐車場あり,通年,無料,何人でも,空いている,屋外,34.5616197,135.0116583,0,子連れ家族
金剛峯寺,"https://motospot.jp/img/spot/img-591-medium.jpg",「紀伊山地の霊場と参詣道」として登録されている高野山は、弘法大師である空海が真言密教の修道場として開山した山です。多くの寺院や偉人のお墓がたくさん並ぶ奥之院などもある人気の高い観光スポットとなっています。宿泊施設やレストランもあるので、1日ゆっくり過ごせます。,648-0294 和歌山県伊都郡高野町高野山１３２,5時間,駐車場あり,通年,無料,何人でも,混んでいる,屋外,34.2140279,135.5843498,1,恋人
賤ヶ岳,"https://motospot.jp/img/spot/img-2895-0-medium.jpg",賤ヶ岳（しずがたけ）は、滋賀県長浜市にある標高421mの山で、琵琶湖と余呉湖を分ける場所に位置します。1583年の「賤ヶ岳の戦い」で羽柴秀吉（後の豊臣秀吉）と柴田勝家が戦った歴史的な戦場として有名です。現在、山頂付近には戦跡碑や戦没者の碑があり、歴史好きの人々に人気のスポットです。賤ヶ岳リフトを利用することで簡単に山頂付近までアクセスでき、そこからは琵琶湖や余呉湖、周囲の山々を一望できます。特に春の桜や秋の紅葉のシーズンには、バイクで訪れる観光客にとっても絶景が楽しめる場所です。観光と自然の美しさ、歴史を堪能できるスポットとしておすすめです。リフトは片道500円で往復で900円で利用可能です。歩いて山頂することも可能です。平日はとても空いているので、ゆっくりリフレッシュすることができます。,529-0431 滋賀県長浜市木之本町大音,1時間,駐車場あり,春,900円,何人でも,空いている,屋外,35.504167,136.2019799,1,恋人
奈良奥山ドライブウェイ,"https://motospot.jp/img/spot/img-2640-0-medium.jpg",奈良奥山ドライブウェイは「若草山」「春日山」「高円山」を結ぶ約12kmの道で、3つのコースがあります。それぞれのコースには、若草山頂、春日山原始林、鶯滝などの観光スポットや眺望ポイントがあり、四季折々の美しい風景を楽しめます。特に若草山山頂からの夕日や夜景は圧巻で、新日本三大夜景の一つです。山の中の道なので鹿などの野生動物にも出会えます。駐車スペースも完備されています。山道から五重塔を眺めることもできます。山道に入るには料金がかかり、乗り物によって料金は異なります。【特徴】新若草山コース：若草山山頂や東大寺大仏殿を見下ろすポイントが特徴。奈良奥山コース：春日山原始林や鶯滝、石仏群などを楽しめ、一方通行のルート。高円山コース：石仏ファンに人気。【料金】新若草山コース：二輪車380円、軽自動車530円、普通車530円、マイクロバス1320円、大型車2120円。奈良奥山コース：二輪車780円、軽自動車1350円、小型自動車1760円、普通車1860円、マイクロバス4000円、大型車5310円。高円山コース：二輪車430円、軽自動車640円、普通車640円、マイクロバス1590円、大型車2540円。※最新情報は公式サイトを確認してください。,奈良奥山ドライブウェイ,1.5時間,駐車場あり,通年,1500円,何人でも,少し空いている,屋外,34.6939774,135.8490043,1,恋人
道の駅 海南サクアス,"https://motospot.jp/img/spot/img-101201-0-medium.jpg",和歌山県にある道の駅「海南サクアス」です。,649-0141 和歌山県海南市下津町小南,1時間,駐車場あり,通年,無料,何人でも,普通,屋内,34.1239009,135.171676,2,道の駅
小赤壁,"https://motospot.jp/img/spot/img-1362-medium.jpg",海沿いにある見晴らしの良い展望台です。街から近くコンビニもあるため利便性は高いです。公園や神社も併設されているため、カップルや友達と少し時間をつぶすなんて言うのにもオススメです。また、朝や夕方などは夕焼けや日の出などで知る人ぞ知る名スポットとなっています。,672-8016 兵庫県姫路市木場,1時間,駐車場あり,通年,無料,複数人,少し空いている,屋外,34.7727227,134.7275911,0,子連れ家族
あのベンチ,"https://motospot.jp/img/spot/img-2386-0-medium.jpg",琵琶湖が見渡せる駐車場にポツンと木が立っており、その根本にベンチが設置されています。哀愁漂う雰囲気が良いようで、いつの間にか車、バイクなどの撮影スポットとして密かに人気になっています。休日は撮影に来る方も増え順番待ちが発生している場面もよく見ます。平日であればかなり空いている様です。砂利敷きの駐車場で多少の段差もありますので車高の低すぎる車は入る角度注意です。,521-1101 滋賀県彦根市石寺町１３３１−１,1時間,駐車場あり,通年,無料,何人でも,普通,屋外,35.2414152,136.1783562,0,子連れ家族
ビーパス年輪,"https://motospot.jp/img/spot/img-2387-0-medium.jpg",本屋産とクレープ屋さんが合体しています。ここのクレープはとてもボリュームがあり、びっくりします！平日であればドライブスルーでクレープが購入できます。休日は店内で購入となります。クレープは甘いものからがっつり系までさまざま。他にもバーガー系もあります。ここでクレープを購入し、湖岸で食べると気持ちが良いです。,520-1636 滋賀県高島市今津町舟橋２丁目７−１,0.5時間,駐車場あり,通年,1000円,何人でも,少し混んでいる,屋内,35.4020729,136.029956,0,子連れ家族
黒川ダリヤ園,"https://motospot.jp/img/spot/img-2643-0-medium.jpg",川西市の最北部にある黒川沿いで、毎年9月中旬から11月上旬にかけて期間限定でオープンしているダリヤ園です。知明湖キャンプ場に隣接して350品種、900株ものをダリヤが植えられ、日本の里山100選に選ばれた自然豊かなこの地を彩っています。見頃は10月上旬から下旬です。無料の駐車場があるほか、1週間前までに予約をすればバスを駐車場に停めることも可能です。また、各最寄駅から定期路線バスも出ています。,666-0101 兵庫県川西市黒川尾上３８９番地,0.5時間,駐車場あり,秋,500円,何人でも,普通,屋外,34.9293825,135.4353899,0,子連れ家族
明石城,"https://motospot.jp/img/spot/img-2899-0-medium.jpg",明石城は、1619年に初代明石藩主が徳川幕府2代将軍秀忠から命じられ、江戸時代初期に小笠原氏によって築かれました。城は主に防衛用として建設され、その後明石藩の中心として機能しました。城跡は現在、県立明石公園の一部となっており、公園内には城の石垣や堀、そして重要文化財に指定されている巽櫓（たつみやぐら）と坤櫓（ひつじさるやぐら）が保存されています。これらの櫓は日本に12基しか現存していない三重櫓のうちのふたつで、とても貴重なものとなっています。2004年には城跡（明石公園の一部）が国の史跡に指定され、2006年には、日本城郭協会による「日本100名城」に選定されました。,673-0847 兵庫県明石市明石公園１−２７,3時間,駐車場あり,通年,無料,何人でも,普通,屋外,34.6543106,134.9935154,1,恋人
大阪公立大学附属植物園,"https://upload.wikimedia.org/wikipedia/commons/e/e7/BGFSOCU05s3200.jpg",1950年に大阪市立大学理工学部附属の研究施設として発足した植物園です。交野市に位置し、植物学の基礎研究の対象として、日本産樹木を中心に多くの植物の収集と保存に努めています。約450種の植物を野外で植栽していて、代表的な11種類の森林型を復元しています。また、外国産の植物も収集し、学術的に重要なものを展示しています。研究成果は一般に公開され、絶滅危惧植物の保全活動も行われています。園内は広く公開されており、地域貢献にも積極的に取り組んでいて、植物園観察会や講座などの市民向けイベントも開催されています。桜や梅の観察会などの季節限定のイベントもあります。,576-0004 大阪府交野市私市２０００,1.5時間,駐車場あり,通年,350円,何人でも,少し空いている,屋外,34.7656949,135.6807446,0,子連れ家族
滋賀県立安土城考古博物館,"https://motospot.jp/img/spot/img-2388-0-medium.jpg",滋賀県立安土城考古博物館は、特別史跡安土城跡、史跡大中の湖南遺跡、史跡瓢箪山古墳、史跡観音寺城跡からなる歴史公園「近江風土記の丘」の中核施設で、平成4年に開館しました。博物館内には2つの常設展示室が設けられています。第1の展示室では「考古」をテーマに弥生時代、古墳時代の近江を体験でき、第2の展示室では「中世・戦国時代」をテーマに、安土城やその他の城郭の変遷、織田信長の人物像に迫ります。さらに、企画展示室では春と秋に特別展、夏と冬に企画展を開催しています。また、博物館講座、体験博物館、お茶会、写生大会、子ども考古学教室など、地域に開かれた親しみやすい博物館となっています。入館料は、大人900円、高大生640円、小中生420円、県内高齢者（65歳以上）460円です。おしゃれな建物と一緒に車やバイクの写真が撮れるのでオススメです。,521-1311 滋賀県近江八幡市安土町下豊浦６６７８,0.5時間,駐車場あり,通年,1000円,何人でも,空いている,屋内,35.1513654,136.1480175,0,子連れ家族
山王総本宮日吉大社,"https://motospot.jp/img/spot/img-2644-0-medium.jpg",山王総本宮日吉大社は、約2100年前に創祀された歴史的な神社で、全国に約3800社存在する日吉・日枝・山王神社の総本宮として知られています。通称は山王権現とも呼ばれており、この神社は比叡山の麓に鎮座しています。神体山の八王子山には大山咋神とその妻の鴨玉依姫神を祀っています。毎年11月10日頃から12月上旬にかけては、神社の境内で美しい紅葉を楽しむことができ、関西屈指の紅葉名所として知られています。境内には約40のお社があり、全ての神様を総称して「日吉大神」と呼んでいます。また、東本宮と西本宮の2区域からなる境内は国の史跡に指定されています。紅葉が素晴らしいが人少なめの新緑も良いです。ユネスコ世界遺産で拝観料は500円です。砂利の境内駐車場がありますが、バイクは徒歩5分の大宮川観光駐車場の方が安心できます。,520-0113 滋賀県大津市坂本５丁目１−１,1時間,駐車場あり,秋,無料,何人でも,空いている,屋外,35.0722324,135.8628848,1,恋人
東燃ゼネラル工場夜景,"https://motospot.jp/img/spot/img-1877-0-medium.jpg",ENEOS株式会社和歌山製油所(東燃ゼネラル和歌山製油所)の工場夜景が見られるスポットです。残念ながら2023年10月に操業停止が決まっており、今後見られなくなってしまう可能性が高いです。Googleマップでは『和歌山東燃ゼネラル石油撮影』と表示されています。付近にはミカン畑しかなく、トイレ等もありませんのでご注意ください。みかん畑は私有地ですのでくれぐれも入らないようにしてください。,649-0306 和歌山県有田市初島町浜151,0.5時間,駐車場なし,通年,無料,一人,空いている,屋外,34.104274,135.122174,0,子連れ家族
せんなん里海公園,"https://motospot.jp/img/spot/img-2645-0-medium.jpg",大阪府にある自然公園です。海水浴場があり夏には海水浴が楽しめます。他にも磯や公園、林もあります。かなり広いので混雑することは珍しいです。夕日も綺麗で、晴れていれば関西空港、淡路島、明石海峡大橋、六甲山まで見ることができます。,599-0301 大阪府泉南郡岬町淡輪地先,2時間,駐車場あり,通年,500円,何人でも,普通,屋外,34.3322395,135.1703455,0,子連れ家族
大通寺,"https://motospot.jp/img/spot/img-2901-0-medium.jpg",大通寺は滋賀県長浜市にある、真宗大谷派（東本願寺）の別院です。江戸時代初期に建立されたこの寺院は、地元の人々から親しみを込めて「御坊さん」と呼ばれています。大通寺は特に桃山文化が色濃く反映された建築美を持ち、本堂や大広間は伏見城の遺構と伝えられる重要文化財で、絢爛豪華な装飾が施されています。伊吹山を借景にした庭園もあり、四季折々の美しい景色を楽しむことができます。長浜黒壁スクエアから徒歩で5分程度です。寺の周辺や黒壁スクエアの近くに駐車場がいくつもあるのでアクセスはとても良いです。ただ、お店は早めに閉まるので17時よりも前に行くのが良いです。商店街が楽しめるので周辺の散策は徒歩がオススメです。,526-0059 滋賀県長浜市元浜町３２−９,0.5時間,駐車場あり,春,無料,何人でも,空いている,屋外,35.3834397,136.2692506,1,恋人
京都市動物園,"https://motospot.jp/img/spot/img-3157-0-medium.jpg",京都市動物園は、約140種類の動物たちが暮らす、京都市左京区にある歴史ある動物園です。園内では、キリンやレッサーパンダ、ライオンなどの人気動物を間近で観察できるほか、「生態展示」により動物たちの自然に近い生活を楽しめます。また、「ふれあい広場」ではウサギやモルモットと触れ合える体験ができ、特に子どもたちに人気です。2015年のリニューアル以降は展示方法が進化し、動物たちの個性や習性をより深く感じられるようになりました。さらに、学びの場としても充実しており、動物保護や生態について学べるパネル展示やイベントも開催されています。平安神宮や岡崎公園に近く、観光途中で立ち寄るのにも最適なスポットです。,606-8333 京都府京都市左京区岡崎法勝寺町,2時間,駐車場あり,通年,750円,何人でも,少し混んでいる,屋外,35.0136602,135.7870571,0,子連れ家族
室生山上公園芸術の森,"https://motospot.jp/img/spot/img-1110-medium.jpg",宇陀市の山奥にある、ダニ•カラヴァンというイスラエル出身の芸術家が作った巨大なオブジェがある公園です。自然を利用した芸術で、見る角度、見る人によって”見え方”が違うのでSNS映えは間違えなしです。また、太陽信仰にもつながる、北緯34度32分の軸線の『太陽の道』を視覚化したアートを目の前にするとなぜか神秘的な気持ちになります。大自然を感じながらアートを楽しむことができるスポットです。,633-0421 奈良県宇陀市室生１８１,2時間,駐車場あり,通年,410円,何人でも,少し空いている,屋外,34.5371008,136.0317965,0,子連れ家族
グリーンステーション鹿ヶ壺,"https://motospot.jp/img/spot/img-1111-medium.jpg",姫路市にある名勝「鹿ヶ壺」をはじめとする滝や渓谷で有名なキャンプ場です。コテージやお食事処もあります。特にお食事処がおすすめで、リーズナブルな価格で定食が楽しめます。夏はゆるやかな滝で川遊びができるため、家族連れにもおすすめです。,671-2416 兵庫県姫路市安富町関７７５,24時間,駐車場あり,春,3000円,何人でも,空いている,屋外,35.0617132,134.6288421,1,恋人
ゼロベース,"https://motospot.jp/img/spot/img-3159-0-medium.jpg",ZERO-BASEは、京都府南丹市にあるライダースカフェです。山に囲まれていて、近くには川もあるので、自然を感じられます。ライダースカフェなだけあってバイクで来ている方が多いですが、車も停められるためどちらで行っても楽しめます。美山町産のお米や自家栽培の無農薬野菜、平飼い卵を使用した料理を提供し、美しい自然を眺めながら食事を楽しむことができます。カフェのチキンオーバーライスは絶品です。バスケットゴールやキックボードなども置いてあるので、体を動かすこともできます。洗車する場所もあるのでとても良いツーリングスポットです。,601-0734 京都府南丹市美山町長尾野崎,3時間,バイク駐車場あり,夏,無料,何人でも,普通,屋内,35.2754207,135.5894943,0,子連れ家族
石ケ谷公園,"https://motospot.jp/img/spot/img-1624-0-medium.jpg",明石市の北部に位置する約14万平方メートルの広大な公園で、明石中央体育会館、恐竜を模した大型複合遊具などがあります。あそびの丘、レクリエーションや花見などが行える野外活動広場、梅園、ポニー放牧場、BBQ許可エリア、ハーブガーデンズなど施設が充実しており、市民憩いの場となっています。毎年3月下旬ごろから、野外活動広場の周りを約500本の桜が囲むように咲き誇り、多くの花見客で賑わいを見せます。350台収容できる無料駐車場もあります。,674-0053 兵庫県明石市大久保町松陰１１２６−４７,1時間,駐車場あり,春,無料,何人でも,普通,屋外,34.7094056,134.9575424,0,子連れ家族
道の駅 クロスウェイなかまち,"https://motospot.jp/img/spot/img-101208-0-medium.jpg",奈良県にある道の駅「クロスウェイなかまち」です。,631-0052 奈良県奈良市中町,1時間,駐車場あり,通年,無料,何人でも,普通,屋内,34.6749121,135.7461061,2,道の駅
紀ノ川フルーツライン,"https://motospot.jp/img/spot/img-601-medium.jpg",フルーツラインという名の通り、果樹農園の中を通っている道路です。標高が高めの所を通っているので、橋本市やかつらぎ町の町を見下ろしながら走る事ができます。ほどよいワインディングで、バイクで走るとより楽しめます。ハイキングや写真を撮りに歩いている人もおり、景観はとても良い場所です。,紀の川フルーツライン,0.5時間,駐車場なし,春,無料,何人でも,空いている,屋外,34.2853794,135.512306,0,子連れ家族
橋の科学館 くつろぎスペース,"https://motospot.jp/img/spot/img-1625-1-medium.jpg",明石海峡大橋を眺めながらひと休み（無料） 橋の科学館は、海に面した南側がガラス張りになっているので、すぐ目の前に明石海峡大橋のダイナミックな姿を見ることができます。大橋の下を往き来する船や淡路島まで一望しながら、おくつろぎください。観光情報コーナーには各種パンフレットやトラベル誌も常備し、お飲み物などの自動販売機も設置しています。,655-0047 兵庫県神戸市垂水区東舞子町４−１１４,1時間,駐車場あり,通年,無料,何人でも,少し混んでいる,屋内,34.631995,135.0330154,0,子連れ家族
豊郷小学校旧校舎群,"https://motospot.jp/img/spot/img-2393-0-medium.jpg",豊郷小学校旧校舎群は、昭和12年（1937年）に近江商人で丸紅の専務だった古川鉄治郎氏により寄贈され、建築家ウィリアム・メレル・ヴォーリズ氏が設計しました。鉄筋コンクリート製の建物は、水洗トイレ、暖房設備、内線電話など最新設備を完備し、最新の教材を備えていたことから「東洋一の小学校」「白亜の教育殿堂」と称されました。現在は、町立図書館や子育て支援センターなどの町の複合施設として利用され、校舎の見学も自由に行えます。また、様々な映画やドラマのロケ地として使われ、アニメ「けいおん！」の聖地ともなっており、多くの観光客や聖地巡礼者が訪れています。平成25年（2013年）には、国の登録有形文化財に登録されました。2009年に大規模改修を終え、年間5万人以上が訪れる観光地となっています。,529-1169 滋賀県犬上郡豊郷町石畑５１８,1時間,駐車場あり,通年,1000円,何人でも,空いている,屋内,35.2033582,136.2328166,0,子連れ家族
道の駅 飯高駅,"https://motospot.jp/img/spot/img-100697-medium.jpg",三重県にある道の駅「飯高駅」です。,515-1502 三重県松阪市飯高町宮前１７７,1時間,駐車場あり,通年,無料,何人でも,普通,屋内,34.4269943,136.3309226,2,道の駅
朝熊山展望台,"https://motospot.jp/img/spot/img-602-medium.jpg",伊勢志摩スカイラインの頂上にある展望台です。展望台からは太平洋が眺める他、伊勢神宮の鬼門を守る名刹金剛證寺や奥の院があります。遊歩道もあり、絶景を眺めながら徒歩での探索もできます。足湯もあるので、歩き疲れた身体を癒やすこともできます。,516-0021 三重県伊勢市朝熊町１８５,1時間,駐車場あり,通年,1270円,何人でも,普通,屋外,34.4598588,136.7908396,1,恋人
奥余野森林公園,"https://motospot.jp/img/spot/img-1114-medium.jpg",山の中で周りには何もなく、自然豊かな場所です。トイレはあります。幹線道路からはかなり離れているため、自動車の騒音や人の気配もほとんどなく、夜には真っ暗になりますが、その分星空がすごく綺麗です。自然の音、小鳥の鳴き声、川の流れる音で癒されたい時などにもってこいの場所ですが、道が狭い箇所があります。幹線道路から1.7キロ程入って行った場所にあります。,519-1402 三重県伊賀市柘植町,5時間,駐車場あり,通年,無料,一人,空いている,屋外,34.840134,136.2570137,0,子連れ家族
竹田城跡,"https://motospot.jp/img/spot/img-1370-medium.jpg",「日本のマチュピチュ」「天空の城」などの異名をもつ城跡です。350mの古城山の山頂に築かれています。駐車場はあるのですが、駐車場から30分歩いてやっと着くような場所にあります。歩いていくのは大変ですが、城跡の絶景を見ると疲れも吹き飛びます。,669-5252 兵庫県朝来市和田山町竹田古城山169番地,2時間,駐車場あり,通年,無料,何人でも,少し空いている,屋外,35.2939637,134.8388532,0,子連れ家族
大浜海水浴場,"https://motospot.jp/img/spot/img-1626-0-medium.jpg",日本の快水浴場百選にも認定されている白砂青松の風光明媚な海水浴場です。遠浅で水が美しく関西では人気のスポットです。ビーチは南北に750mあり、ゆったりと歩くことができます。砂浜には、かつて「洲本大浜千本黒松」と呼ばれた松原が続き、白砂青松海岸を楽しめます。,656-0022 兵庫県洲本市海岸通１丁目２,3時間,駐車場あり,夏,無料,複数人,少し空いている,屋外,34.34080950000001,134.903438,1,恋人
おかげ横丁,"https://motospot.jp/img/spot/img-3162-0-medium.jpg",三重県伊勢市にある伊勢神宮の近くにある食べ歩きなどが出来るスポットです。伊勢神宮に行く時はもちろん、参拝せずにここだけでも十分楽しむ事が出来ます。伊勢神宮の内宮の宇治橋から歩いて5分程、おはらい町の中ほどにあるのが「おかげ横丁」です。無料で自由に散策して楽しむことが出来、美味しいものがたくさんありどの季節も賑わっています。また、古い町並みで雰囲気があり写真を撮るのもおすすめです。ただし年末年始は特に伊勢神宮の参拝客でかなり混雑するので、おかげ横丁も道が人でいっぱいになります。行く度に新しいお店が出来たり、長く続く有名なお店もありと何度行っても楽しめるのがおすすめです。,516-8558 三重県伊勢市宇治中之切町５２,2時間,駐車場あり,冬,無料,何人でも,少し混んでいる,屋外,34.4627851,136.7225201,0,子連れ家族
道の駅 菰野,"https://motospot.jp/img/spot/img-100698-medium.jpg",三重県にある道の駅「菰野」です。,510-1233 三重県三重郡菰野町菰野２２５６,1時間,駐車場あり,通年,無料,何人でも,普通,屋内,35.0136843,136.5025359,2,道の駅
カモノセキャビン,"https://motospot.jp/img/spot/img-603-medium.jpg",周山街道の道中にあるログハウスのカフェです。ここでは山菜セットやカレーなどのランチから珈琲、自家製のスイーツまで楽しめます。店内は薪ストーブがあり、暖かい雰囲気を感じることができます。漫画などもあり、リラックスした時間を過ごすこともできます。常連客やリピーターも多く、ツーリングの休憩地としてもぴったりです。,601-0531 京都府京都市右京区京北上弓削町鴨瀬６−１,1.5時間,駐車場あり,秋,1200円,何人でも,普通,屋内,35.2301636,135.6656369,0,子連れ家族
勝尾寺,"https://motospot.jp/img/spot/img-1371-medium.jpg",大阪府の箕面市にあるお寺です。自分自身と向き合うための存在になる「勝ちだるま」が有名で、境内の中にたくさんのだるまがあります。8万坪の広大な境内には、噴水や滝などがあり、自然を感じられる場所でもあります。,562-0021 大阪府箕面市粟生間谷２９１４−１,1.5時間,駐車場あり,通年,1000円,何人でも,少し空いている,屋内,34.8658691,135.4910817,0,子連れ家族
新八日市駅,"https://motospot.jp/img/spot/img-2395-0-medium.jpg",滋賀県の近江鉄道の駅です。とても古い駅舎で、ノスタルジー雰囲気があります。1913年（大正2年）に「湖南鉄道・八日市口駅」として開業し、現在も木造の駅舎が当時の面影を残して使われています。地元の人々には親しみを込めて『ガチャコン』と呼ばれています。特にラッシュ時には地元の高校生を中心に利用客で賑わっています。小さな駅にも関わらず2階建てである理由は、開業当時に湖南鉄道の本社だったためと言われています。駅前は明確な駐車場として区画されているわけではありませんが、電車のない時間であれば特に混んでいません。,527-0018 滋賀県東近江市八日市清水２丁目１０,0.5時間,駐車場あり,通年,無料,何人でも,空いている,屋外,35.1106298,136.190816,2,道の駅
丸山千枚田,"https://motospot.jp/img/spot/img-3163-0-medium.jpg",三重県の紀和町丸山地区にある、斜面に広く描かれている棚田で、日本棚田百選にも選ばれているスポットです。素晴らしい景観と農耕文化の融合は、日本人だけでなく海外の人も感動できる場所です。立地はとても田舎で山の中をしっかり感じられます。ＪＲ熊野市駅から車で約40分程で行くことができ、無料駐車場もあります。四季を通じて美しさが変わり、それぞれで魅力があります。春は水が張られ、５月頃に田植え、夏は稲が風に揺れて綺麗で夜には蛍も見られます。また秋は稲穂が黄金色に輝き、冬は比較的暖かいですが雪景色が見れる事もあり、おすすめです。,519-5405 三重県熊野市紀和町丸山３１８,1時間,駐車場あり,通年,無料,何人でも,空いている,屋外,33.8753274,135.953516,0,子連れ家族
道の駅 紀宝町ウミガメ公園,"https://motospot.jp/img/spot/img-100699-medium.jpg",国道42号線沿いにある道の駅で館内では休憩と食事が行えます。また隣接するウミガメハウスではウミガメが飼育されており、ウミガメへのウミガメへの餌やりが可能で、休日にはウミガメと触れることのできるイベントが行われている。,519-5711 三重県南牟婁郡紀宝町井田５６８−７,1時間,駐車場あり,通年,無料,何人でも,普通,屋内,33.7695566,136.0285469,2,道の駅
犬鳴山温泉,"https://motospot.jp/img/spot/img-92-medium.jpg",犬鳴山温泉は、大阪で有名な温泉地です。源泉はリウマチや神経痛、胃腸病、皮膚病などに効能があるといわれています。特徴的なのは、つるつる・ぬるっとしたお湯の感触です。レトロな空気感がある食事処もあり、昭和の雰囲気を味わうことができます。温泉に浸かってリフレッシュするのに最適な場所です。,598-0023 大阪府泉佐野市大木２２３８,1時間,駐車場あり,秋,1500円,一人,少し空いている,屋内,34.3418917,135.375298,0,子連れ家族
貴船神社,"https://motospot.jp/img/spot/img-860-medium.jpg",京都市内北側の山奥にある神社で、本宮参道が写真映えスポットとして有名です。すぐ横には川が流れており、早朝に行くと地元の方が水を汲みに来ています。街の中心地からは離れており、比較的アクセスしづらい場所ですがとても混むので、早朝に行くのがオススメです。,601-1112 京都府京都市左京区鞍馬貴船町１８０,1時間,駐車場あり,通年,無料,何人でも,混んでいる,屋外,35.1217654,135.7624649,1,恋人
京都水族館,"https://motospot.jp/img/spot/img-1116-medium.jpg",京都市の梅小路にある水族館です。広くないはですが、その分あまり歩かずに楽しめます。見どころの一つはチンアナゴで、可愛くてついつい長い時間立ち止まって癒されてしまいます。,600-8835 京都府京都市下京区観喜寺町３５−１,2時間,駐車場なし,通年,3000円,何人でも,少し混んでいる,屋内,34.987516,135.7472123,0,子連れ家族
めんたいパークびわ湖,"https://motospot.jp/img/spot/img-2140-0-medium.jpg",かねふくが運営する明太子専門のテーマパークです。入場料金無料で明太子製造工程の見学ができます。ショップ、フードコードもあります。ショップではいろいろな種類の明太子や明太子の加工品を購入することができます。,524-0201 滋賀県野洲市吉川４１８７,1時間,駐車場あり,通年,無料,何人でも,空いている,屋内,35.1297581,135.9810803,0,子連れ家族
道の駅 パーク七里御浜,"https://motospot.jp/img/spot/img-100700-1-medium.jpg",三重県にある道の駅「パーク七里御浜」です。,519-5204 三重県南牟婁郡御浜町阿田和４９２６−５,1時間,駐車場あり,通年,無料,何人でも,普通,屋内,33.8034297,136.04295,2,道の駅
銀の馬 車道モニュメント,"https://motospot.jp/img/spot/img-1373-medium.jpg",かつて、銀の馬車道という銀山から姫路までのルートがあり、所々整備されています。マスコットキャラクターの「はやぶくん」のモニュメントがあり、モニュメントがおしゃべりしたり写真撮影スポットになっている。,679-2317 兵庫県神崎郡市川町浅野,10時間,駐車場あり,春,無料,一人,空いている,屋外,35.0092253,134.7686135,0,子連れ家族
琴ノ浦温山荘園,"https://motospot.jp/img/spot/img-2397-1-medium.jpg",和歌山県を代表する日本庭園です。大正時代の造園で、国名称指定庭園となっています。潮入り式地泉回遊庭園（海から水を引いているので、干満にて水位が変動）で、大きな池が複数存在します。また、同様大正建築の主屋と浜座敷は重要文化財です。（別途入場料必要）明るく開けた日本庭園で、自然にあふれています。海に隣接ですので、潮風も存分に感じることができます。大正建築の重要文化財には、明治から大正を代表する要人（東郷平八郎、桂太郎、他）の書による扁額を見ることができます。,642-0001 和歌山県海南市船尾３７０,1時間,駐車場あり,春,700円,何人でも,空いている,屋外,34.1574906,135.1946529,0,子連れ家族
道の駅 海山,"https://motospot.jp/img/spot/img-100701-medium.jpg",三重県にある道の駅「海山」です。,519-3406 三重県北牟婁郡紀北町相賀１４３９−３,1時間,駐車場あり,通年,無料,何人でも,普通,屋内,34.1023593,136.2141128,2,道の駅
瀞峡,"https://motospot.jp/img/spot/img-606-medium.jpg",奈良県、三重県、和歌山県の県境にある景勝地です。切り立つ断崖とその岩肌、澄んだ川が美しい大峡谷になっています。北山川の上流から奥瀞、下瀞と分かれており、瀞八丁(どろはっちょう)とも呼ばれています。天気の良い日はジェット船に乗ることができ、川面付近から断崖、荘厳な岩を見上げると大自然をより一層感じることができます。,647-1581 奈良県吉野郡十津川村神下４０５,0.5時間,駐車場あり,夏,無料,何人でも,少し空いている,屋外,33.9098301,135.8812095,1,恋人
まほろば大仏プリン本舗 プリンの森,"https://motospot.jp/img/spot/img-1118-medium.jpg",プリンの森という名前通りプリン色の建物で、まるで本当に絵本の中のプリンの国に来たような感じがします。外からはもちろん、建物の中も全てがフォトスポットで、SNS映えは間違えなし。もちろん味も美味しく、プリンもソフトクリームも絶品です。大仏様のイラストの蓋がかわいい瓶のプリンはお土産にもオススメです。,630-8104 奈良県奈良市奈良阪町１０７３,1時間,駐車場あり,通年,1000円,何人でも,少し混んでいる,屋内,34.7076516,135.8250444,0,子連れ家族
道の駅 奥伊勢木つつ木館,"https://motospot.jp/img/spot/img-100702-medium.jpg",三重県にある道の駅「奥伊勢木つつ木館」です。,519-2703 三重県度会郡大紀町滝原８７０−３７,1時間,駐車場あり,通年,無料,何人でも,普通,屋内,34.3675992,136.4189797,2,道の駅
二見興玉神社,"https://motospot.jp/img/spot/img-863-1243-medium.jpg",夫婦岩（夫婦石）は、2つの岩が夫婦の様に寄り添うように見えることから名付けられました。海面から飛び出した岩と、山中の岩に大別できるのが特徴です。初日の出のスポットとしても知られています。,519-0602 三重県伊勢市二見町江５７５,0.5時間,駐車場あり,通年,無料,一人,少し空いている,屋外,34.5089505,136.7878426,1,恋人
道の駅 熊野きのくに,"https://motospot.jp/img/spot/img-100703-medium.jpg",三重県にある道の駅「熊野きのくに」です。,519-4561 三重県熊野市飛鳥町大又１０９−２１,1時間,駐車場あり,通年,無料,何人でも,普通,屋内,33.9601133,136.1045761,2,道の駅
神戸空港,"https://article-image-ix.nikkei.com/https%3A%2F%2Fimgix-proxy.n8s.jp%2FDSXZQO2400984013092022000000-1.jpg?ixlib=js-3.8.0&w=638&h=399&auto=format%2Ccompress&fit=crop&bg=FFFFFF&s=d1e94b9bc783e11c6bcbb6267c95c5d0",兵庫県神戸市の南に位置する小規模な空港です。屋外からの夜景だけでなく、屋上階では北を向けば市街地を一望でき、南を向けば迫力ある飛行機の離発着と壮大な景色が楽しめます。特に間近で飛行機を見ることができるのが特徴で、飛行機の離陸シーンをたくさん見ることができるのは13時頃です。また、夜の飛行機の発着も素敵です。展望デッキは滑走路を望むことができ、南を向けば海も眺めることができます。夜の23時までイルミネーションが行われ、神戸の新たな夜景スポットとなっています。神戸空港には屋上ガーデンや三宮への直通電車も整備されており、地方空港としても充実した施設を備えています。,650-0048 兵庫県神戸市中央区神戸空港１,1時間,駐車場あり,通年,無料,何人でも,普通,屋外,34.6372286,135.2289337,0,子連れ家族
道の駅 茶倉駅,"https://motospot.jp/img/spot/img-100704-medium.jpg",山の隣に川が流れており、山の上からの景色がとてもきれいです。時期に寄っては近隣の高校生の茶畑アートが見られます。また桜の時期は数種類の桜が咲きほこります。川の方に降りるための散歩道が有り、降りていくと綺麗な川が迫力満点で見ることが出来ます。,515-1411 三重県松阪市飯南町粥見４５２−１,1時間,駐車場あり,通年,無料,何人でも,普通,屋内,34.4604029,136.3982029,1,恋人
慈照寺（銀閣寺）,"https://motospot.jp/img/spot/img-2401-0-medium.jpg",一般には銀閣寺として知られ、足利義政が1482年（文明14年）に開いた山荘です。東山文化の代表とされ、義政が多様な文化を育てた拠点でした。寺は臨済宗相国寺派に属し、元々の山荘は後に寺に改められました。その中心的な建造物である銀閣（国宝）は1489年（延徳元3年）に上棟され、二層の楼閣で、上層は潮音閣、下層は心空殿と呼ばれます。他にも、東求堂（国宝）があり、その内部には同仁斎が存在し、これは四畳半茶室の原型と言われています。庭園は池泉回遊式庭園（特別名勝・特別史跡）で、特に印象的なのは本堂前の銀沙灘と向月台の二つの砂盛りです。また、上の庭園はお茶の井庭園ともいわれ、昭和6年に発掘した岩石群は枯山水庭園です。1994年（平成6年）12月に「古都京都の文化財」として、「世界遺産条約」に基づく世界文化遺産に登録されました。江戸時代になってから、金閣寺に対して銀閣寺と呼ばれるようになりました。,606-8402 京都府京都市左京区銀閣寺町２,1時間,駐車場あり,秋,1000円,何人でも,少し混んでいる,屋外,35.0273003,135.7968383,0,子連れ家族
道の駅 奥伊勢おおだい,"https://motospot.jp/img/spot/img-100705-medium.jpg",三重県にある道の駅「奥伊勢おおだい」です。,519-2404 三重県多気郡大台町佐原６６３−１,1時間,駐車場あり,通年,無料,何人でも,普通,屋内,34.3939218,136.4086717,2,道の駅
伏見桃山城,"https://motospot.jp/img/spot/img-2402-0-medium.jpg",伏見桃山城は、1592年に豊臣秀吉によって指月山に初めて築かれ、豊臣秀頼が大阪城に移った後、徳川家康が城主となり政務を行いました。しかし、関ヶ原の戦いで落城し、建物の大部分が焼失しました。その後、1602年に家康によって再建されましたが、1619年に廃城となりました。その後、元禄時代までに伏見城の跡地に桃の木が植えられ、桃山と呼ばれるようになり、伏見城は伏見桃山城とも呼ばれるようになりました。廃城となった建物や部材は、二条城、淀城、福山城などに移築されました。現在、城址の近くには模擬天守が建っており、かつては「伏見桃山城キャッスルランド」という遊園地の一部でした。しかし、2003年に遊園地は閉園し、模擬天守は解体予定でしたが地元の要望により残され、現在は京都市管理の「伏見桃山城運動公園」として整備されています。この模擬天守は、歴史的・文化的な価値はありませんが、見応えや迫力は十分です。,612-0853 京都府京都市伏見区桃山町大蔵４５,1時間,駐車場あり,春,1000円,何人でも,少し混んでいる,屋外,34.9393648,135.7767959,1,恋人
道の駅 美杉,"https://motospot.jp/img/spot/img-100706-medium.jpg",三重県にある道の駅「美杉」です。,515-3312 三重県津市美杉町上多気,1時間,駐車場あり,通年,無料,何人でも,普通,屋内,34.5094204,136.3097128,2,道の駅
沢ノ池,"https://motospot.jp/img/spot/img-2403-0-medium.jpg",京都市右京区の山中にある秘境の池です。京都市内中心部からは30分程度で行ける距離ですが、道中は山道で狭いので、車のすれ違いは難しいです。周辺にはお店やトイレはありませんので、事前に済ませてからお越しください。,616-0000 京都府京都市右京区鳴滝沢,1時間,駐車場なし,秋,無料,複数人,空いている,屋外,35.0654301,135.697638,0,子連れ家族
長浜港,"https://motospot.jp/img/spot/img-3171-0-medium.jpg",滋賀県長浜市港町に位置する地方港湾で、琵琶湖の湖岸に設けられた湖北地域の漁業と湖上交通の拠点です。1882年（明治15年）に長浜と大津を結ぶ鉄道連絡船の港として開港し、1963年（昭和38年）に現在の場所へ移転しました。現在は、竹生島への定期観光船が運航されており、冬には雪見、春には花見の遊覧船も楽しめます。きれいな琵琶湖をみることができます。アクセスはJR北陸本線「長浜駅」から徒歩約10分、北陸自動車道長浜ICから車で約15分と便利です。周辺には豊臣秀吉が築城した長浜城や黒壁スクエアなどの観光スポットがあるので併せて訪れると良いです。無料駐車場がありますが、観光シーズンは駐車場がすぐに一杯になります。一応近くに有料もあります。,526-0067 滋賀県長浜市港町4-17,0.5時間,駐車場あり,通年,無料,何人でも,普通,屋外,35.3733033,136.2641411,1,恋人
道の駅 関宿,"https://motospot.jp/img/spot/img-100707-medium.jpg",三重県にある道の駅「関宿」です。,519-1111 三重県亀山市関町新所６７４−８,1時間,駐車場あり,通年,無料,何人でも,普通,屋内,34.8494628,136.3926562,2,道の駅
道の駅 よかわ,"https://motospot.jp/image/no-image.png",兵庫県にある道の駅「よかわ」です。,673-1114 兵庫県三木市吉川町吉安２２２,1時間,駐車場あり,通年,無料,何人でも,普通,屋内,34.884788,135.1217842,2,道の駅
BOAT CAFE 衣奈マリーナ,"https://boatcafe-enamarina.com/wp-content/uploads/2022/08/lead-img02-1024x621.jpg",BOAT CAFE 衣奈マリーナ は和歌山県衣奈港にあるオシャレなカフェです。白を基調とした海に面したテラス席からは海と島が一望でき、特に晴天の夕焼けの時間帯は海と島とのコントラストが絶景です。またドリンク、スイーツ、食事のメニューも豊富でとても美味しいです。,649-1132 和歌山県日高郡由良町衣奈１０６９,2時間,駐車場あり,通年,1000円,何人でも,普通,屋外,33.9931757,135.1122239,0,子連れ家族
土倉鉱山（滋賀のラピュタ）,"https://motospot.jp/img/spot/img-2404-0-medium.jpg",琵琶湖の北東部、滋賀県長浜市の山中にラピュタのような遺跡建造物があります。その建物の正体は、銅を採掘していた「土倉鉱山」の施設跡です。遺跡の前に駐車場があるので、車やバイクと一緒に撮影するにはとても良い場所です。直前の道は細いので、ご注意ください。,529-0401 滋賀県長浜市木之本町金居原,0.5時間,駐車場あり,通年,無料,何人でも,空いている,屋外,35.5886347,136.2953347,0,子連れ家族
下北山スポーツ公園 きなりの郷,"https://motospot.jp/img/spot/img-2916-1-medium.jpg",奈良県下北山村にあるアウトドア複合施設です。日本最大のアーチを誇る池原ダムのふもとにあり、キャンプやスポーツ、温泉を楽しむことができます。公園内にはオートキャンプ場、バンガロー、コテージがあり、グループでの宿泊も可能です。キャンプ場からは、池原ダムの壁を見上げるように絶景が見られます。また、テニスコートや多目的グラウンド、バーベキューハウス、炊事棟など、様々な設備が整っており、スポーツ合宿や研修にも利用されています。温泉施設「きなりの湯」では、疲れを癒すことができ、自然に囲まれた環境でリフレッシュできます。春には下北山村主催のさくら祭りが開催されており、敷地内の桜が満開になると、関西一とも思われる桜の絶景が広がります。,639-3805 奈良県吉野郡下北山村上池原１０２６,3時間,駐車場あり,春,1000円,複数人,普通,屋外,34.0498921,135.9709181,0,子連れ家族
道の駅 伊勢志摩,"https://motospot.jp/img/spot/img-100708-medium.jpg",三重県にある道の駅「伊勢志摩」です。,517-0213 三重県志摩市磯部町穴川５１１−５,1時間,駐車場あり,通年,無料,何人でも,普通,屋内,34.3594258,136.7989781,2,道の駅
野田のコスモス畑,"https://motospot.jp/img/spot/img-2405-0-medium.jpg",地元では有名になりつつあるコスモス畑です。駐車場はありませんが農道なので、車・バイクは路駐して写真撮影している人が多くいます。JR近江八幡駅から車で5分程度でアクセスも良いので、コスモスシーズンの秋の休日は多少混雑します。近くにある人気観光地「ラ・コリーナ」「八幡堀」と合わせてシーズンがあえば立ち寄るのがオススメです。,523-0003 滋賀県近江八幡市野田町,0.5時間,駐車場なし,秋,無料,何人でも,少し空いている,屋外,35.1220238,136.1219329,0,子連れ家族
道の駅 紀伊長島マンボウ,"https://motospot.jp/img/spot/img-100709-medium.jpg",三重県にある道の駅「紀伊長島マンボウ」です。,519-3204 三重県北牟婁郡紀北町東長島,1時間,駐車場あり,通年,無料,何人でも,普通,屋内,34.2156557,136.3576702,2,道の駅
NIFREL,"https://motospot.jp/img/spot/img-1382-medium.jpg",NIFRELは、生きものの美しさと不思議さを直感的に楽しむことができる新しい施設です。海遊館が初めてプロデュースし、水族館や動物園、美術館を超えて、生きものをアートのように観察することができます。「感性にふれる」をコンセプトとして、地球が育む多様な生き物と個性を造形物、空間、照明、映像、音楽と融合する「インスタレーション」を使って表現し、子どもから大人までの感性を刺激し心を豊かにします。ミュージアムは「感性にふれる」をテーマに、水生生物や陸生生物などをテーマに分けて展示されています。8つのテーマ「かくれるにふれる」「いろ」「わざ」「すがた」「WONDER MOMENTS」「みずべ」「うごき」「つながり」は異なる世界を表現しています。,565-0826 大阪府吹田市千里万博公園２−１,2時間,駐車場あり,通年,2000円,何人でも,普通,屋内,34.80498,135.5349255,0,子連れ家族
坂本城址公園,"https://motospot.jp/img/spot/img-2406-0-medium.jpg",坂本城は、1571年に織田信長の命で明智光秀が琵琶湖岸に築いた城で、比叡山延暦寺の監視と琵琶湖の制海権の獲得を目的としていたと考えられています。豪壮で華麗な造りのこの城は、安土城に次いで絢爛豪華だったと、宣教師ルイス・フロイスによって記されています。堀は琵琶湖につながっており、城内から直接船に乗り込むことが可能でした。1582年の本能寺の変後、羽柴秀吉軍の攻撃により落城しました。湖中に残る石垣が琵琶湖の渇水時に見ることができます。その他、城内と推測される場所には明智光秀の供養塚とされる明智塚が存在します。現在、城のあった辺りには2カ所に碑が建てられています。現在、城のあった地域は坂本城址公園として整備されており、公園内には明智光秀像が建っています。ベンチやトイレ等も設置されており、ゆっくりとした一時を過ごすことができます。人もあまり多くないため、のんびり過ごしたい方におすすめです。,520-0105 滋賀県大津市下阪本３丁目１,0.5時間,駐車場あり,秋,無料,何人でも,空いている,屋外,35.0584096,135.8786915,1,恋人
道の駅 あやま,"https://motospot.jp/img/spot/img-100710-medium.jpg",三重県にある道の駅「あやま」です。,518-1315 三重県伊賀市川合,1時間,駐車場あり,通年,無料,何人でも,普通,屋内,34.8203247,136.1780715,2,道の駅
淡路島モンキーセンター,"https://motospot.jp/img/spot/img-359-medium.jpg",野生のニホンザルがいる動物園のような公園です。1967年から野生の猿に餌付けをし、現在は350頭の猿がいます。動物園のようですが、あくまで野生の猿なので、昼間はモンキーセンターの餌場近くにいますが、夜は山に帰ります。周辺は人口密集地帯とは程遠く、交通量も少ない場所にあります。山道の他、海を横目に見ながらのツーリングはとても解放感があり楽しめます。,656-2533 兵庫県洲本市畑田組２８９,2時間,駐車場あり,春,1000円,何人でも,空いている,屋外,34.244197,134.8831334,0,子連れ家族
和歌山マリーナシティ,"https://motospot.jp/img/spot/img-615-medium.jpg",和歌山マリーナシティは、市場・温泉・ホテル・釣り公園・ヨット体験・保育園などの施設が入っている複合施設です。中でもポルトヨーロッパという場所はヨーロッパの街並みをイメージしており、SNSでも写真映えする！と有名なスポットで人気があります。マリーナシティは1つの街のような場所で、1日中楽しめます。,641-0014 和歌山県和歌山市毛見１５２７,3時間,駐車場あり,通年,無料,何人でも,少し空いている,屋内,34.1535492,135.1767411,0,子連れ家族
道の駅 いが,"https://motospot.jp/img/spot/img-100711-medium.jpg",三重県にある道の駅「いが」です。,519-1402 三重県伊賀市柘植町６１８７−１,1時間,駐車場あり,通年,無料,何人でも,普通,屋内,34.8374196,136.2530299,2,道の駅
洲本城,"https://motospot.jp/img/spot/img-360-medium.jpg",洲本城は淡路島の三熊山に位置する国指定史跡で、上の城・下の城ともに洲本市の歴史的な遺構として指定されています。上の城は1526年に安宅氏によって築かれ、天守台から洲本市街を一望することができます。下の城は寛永年間に蜂須賀氏によって築かれました。登り石垣は、上下の城を繋ぐことで防御力を高めた珍しい遺構であり、2017年に続日本100名城に選定されました。城跡は公園施設で、常時無料開放されています。山麓には洲本城に関する資料を展示する洲本市立淡路文化史料館が建てられています。天守閣は当時のものではなく、最近建て替えられたものです。城の周りは自然情緒豊かな公園で、広々としていて人も少ないです。休憩スポットもあり、ゆったりと散策できます。高台に建てられているため、洲本をはじめ広範囲を一望できる絶景スポットです。,656-0023 兵庫県洲本市小路谷１２７２,2時間,駐車場あり,通年,無料,何人でも,空いている,屋外,34.3371725,134.9037392,1,恋人
道の駅 津かわげ,"https://motospot.jp/img/spot/img-100712-medium.jpg",三重県にある道の駅「津かわげ」です。,510-0311 三重県津市河芸町三行２５５−４,1時間,駐車場あり,通年,無料,何人でも,普通,屋内,34.7965508,136.5175782,2,道の駅
赤れんがパーク,"https://motospot.jp/img/spot/img-2409-0-medium.jpg",港湾都市として栄えたこの町は、明治から昭和の初期にかけて、官舎や倉庫などの海軍施設を中心にさまざまな赤れんが建造物がつくられました。ノスタルジックな赤れんが倉庫が並ぶ舞鶴赤れんがパーク。赤れんが、蔦、丸ポスト……。様々な映画やドラマのロケスポットとなった赤れんがパークには思わず写真を撮りたくなる場所ばかりです。,625-0080 京都府舞鶴市北吸１０３９−２,1時間,駐車場あり,通年,無料,何人でも,少し空いている,屋外,35.4743951,135.3845966,0,子連れ家族
竹生島,"https://motospot.jp/img/spot/img-3177-0-medium.jpg",竹生島は琵琶湖にある小さい島のひとつですが、有名なパワースポットで　ドライブやツーリングの予定に、入れる人が大変多い隠れた人気スポットです。島に上陸すると寺院や神社があるのですが、神秘な雰囲気がいっぱいの所です。訪れるには彦根港と長浜港からのフェリーを使う必要はありますが、行く価値はあります。パワースポットとともに国宝もあります。それぞれ港には駐車場あり。,526-0124 滋賀県長浜市早崎町1664-1,2時間,駐車場なし,通年,3500円,何人でも,少し混んでいる,屋外,35.4214474,136.143302,0,子連れ家族
道の駅 熊野・花の窟,"https://motospot.jp/img/spot/img-100713-medium.jpg",三重県にある道の駅「熊野・花の窟」です。,519-4325 三重県熊野市有馬町１３７,1時間,駐車場あり,通年,無料,何人でも,普通,屋内,33.8790187,136.0922289,2,道の駅
道の駅 熊野・板屋九郎兵衛の里,"https://motospot.jp/img/spot/img-100714-medium.jpg",三重県にある道の駅「熊野・板屋九郎兵衛の里」です。,519-5413 三重県熊野市紀和町板屋８２,1時間,駐車場あり,通年,無料,何人でも,普通,屋内,33.8765281,135.9147925,2,道の駅
梶賀のあぶり,"https://motospot.jp/img/spot/img-363-medium.jpg",三重県尾鷲市の小さな漁師町。地元の大敷で捕れた魚を町のおばさんたちが捌いて塩漬けにし、丸一日かけて燻製にします。桜の木のチップを使うので独特な良いにおいがして食欲を誘います。ビールのおつまみにも最高です。,519-3923 三重県尾鷲市梶賀町３１２−２,2時間,駐車場あり,通年,3000円,何人でも,空いている,屋内,33.9643095,136.2176106,0,子連れ家族
ハイマート佐中,"https://motospot.jp/img/spot/img-1131-medium.jpg",ワカサギ釣りやキャンプができる施設です。釣った魚をお食事どころで天ぷらにしてくれます。炊き込みご飯もおすすめです。キャンプ場は山に囲まれており、風が強く吹く為、夏場に行くのをオススメします。デイキャンプやBBQもできるので、手軽に行けます。,669-2731 兵庫県丹波篠山市小坂４５９−３,6時間,駐車場あり,冬,3000円,何人でも,少し空いている,屋外,35.11609,135.1614419,0,子連れ家族
太郎坊宮（阿賀神社）,"https://motospot.jp/img/spot/img-2411-0-medium.jpg",太郎坊宮は約1400年の歴史を持つ神社で、伊勢神宮の天照大神の第一皇子神を祀っています。その神様の名前には「勝利」を象徴する意味が込められており、「勝利と幸福を授ける神様」として古くから信仰されてきました。聖徳太子、最澄、源義経などから尊崇を集め、現在でもスポーツ選手、企業経営者、政治家、職人、ビジネスマンといった多岐にわたる方々からご利益を求めて訪れています。神社は滋賀県東近江市にあり、急峻な地形に沿った箕作山系の赤神山中腹に位置しています。境内には国の登録有形文化財に登録された本殿などがあり、「天空の宮」のような風景が広がっています。また、境内には「夫婦岩」と呼ばれる壮大な岩が立ち、「善良な人が通れば願いが叶い、悪心ある人が通れば挟まれる」という言い伝えが残っています。太郎坊宮は「太郎坊さん」の愛称でも知られ、勝運の神としてパワースポットともされています。,527-0091 滋賀県東近江市小脇町２２４７,1時間,駐車場あり,通年,無料,何人でも,少し混んでいる,屋外,35.1180965,136.1821612,0,子連れ家族
道の駅 あいの土山,"https://motospot.jp/img/spot/img-100715-medium.jpg",滋賀県にある道の駅「あいの土山」です。,528-0211 滋賀県甲賀市土山町北土山２９００,1時間,駐車場あり,通年,無料,何人でも,普通,屋内,34.9277706,136.2956773,2,道の駅
城崎ジェラートカフェchaya,"https://motospot.jp/img/spot/img-1132-medium.jpg",城崎温泉にあるジェラートを楽しめるカフェです。ジェラートももちろん美味しいですが、オススメは温泉卵です。カフェで生卵を買い、側にある源泉で10分ほど放置したらできます。味付けなしでも美味しいですが、塩を少しかけるとさらに美味しいです。専用の駐車場はないですが、城崎温泉の駐車場があります。,668-0012 兵庫県豊岡市下陰１８−４,0.5時間,駐車場なし,冬,500円,何人でも,少し空いている,屋外,35.5540467,134.8067732,0,子連れ家族
旧水口図書館,"https://motospot.jp/img/spot/img-2412-0-medium.jpg",旧水口図書館は、ヴォーリズが設計し、戦前における最盛期の作品の一つとされています。簡素さと高い実用性を兼ね備え、使い手の立場を重視した設計が特徴です。建築はシンプルながらもローマ風の円柱を両脇に配した玄関や、壁面を半円アーチ状にくぼめた上部、小さいバルコニー、塔屋上のランタンなど、「知の館」にふさわしいデザインが施されています。また、建物は鉄筋コンクリート造2階建てで、北東側には塔屋が設けられています。その外観は全体を引き締める太めの軒蛇腹によって特徴づけられています。平成13年には国の登録文化財建造物として登録され、その後、当時の材料やデザインを活かしながら耐震構造に補強され、平成16年7月から公開されています。この建物はヴォーリズの「珠玉の小品」とも称され、ヴォーリズが設計した建築物の中でも特に知られています。,528-0031 滋賀県甲賀市水口町本町１丁目２−１,0.5時間,駐車場あり,通年,無料,何人でも,空いている,屋外,34.9701728,136.1765564,0,子連れ家族
信楽駅,"https://motospot.jp/img/spot/img-2668-1-medium.jpg",信楽（しがらき）駅は滋賀県の信楽高原鐵道の終着駅です。周辺は陶器作りの街で知られており、信楽焼のたぬきや、窯元での陶芸体験が楽しめます。信楽駅構内では、SKRグッズの販売やレンタサイクルの貸し出しもあり、信楽焼のたぬきが観光客をお出迎えしています。特に目立つのは、駅前広場に設置された大きなたぬきの電話ボックスで、町のランドマークとなっています。季節ごとに衣装替えが行われるこの大たぬきは、信楽駅を訪れる観光客を温かくお出迎えしています。時期によっては信楽の陶器市を行うので、その時期はとても人が多いです。信楽駅周辺の観光は、自然や歴史的な景観を楽しむことができるだけでなく、信楽焼の魅力を堪能することもできます。駅は公共交通機関や車で簡単にアクセスでき、駐車場も提供されています。信楽駅窓口の営業時間は始発列車から最終列車までで、グッズの販売やレンタサイクルは9:00～17:00まで利用可能です。,529-1851 滋賀県甲賀市信楽町長野１９２,1時間,駐車場あり,秋,無料,何人でも,空いている,屋外,34.876782,136.0609428,0,子連れ家族
道の駅 くつき新本陣,"https://motospot.jp/img/spot/img-100716-medium.jpg",滋賀県にある道の駅「くつき新本陣」です。,520-1401 滋賀県高島市朽木市場７７７,1時間,駐車場あり,通年,無料,何人でも,普通,屋内,35.3510835,135.9156566,2,道の駅
かざはやの里,"https://motospot.jp/img/spot/img-1389-medium.jpg",季節によってあじさいやフジ、梅などの花を楽しめる穴場スポットです。想像以上の花数で写真を撮ったら映えること間違いなしです！時期によっては出店もあります。芝生もあるので子供連れやペットを連れて行きたい場合も一緒に楽しめます。,514-1138 三重県津市戸木町４０９６,2時間,駐車場あり,夏,500円,何人でも,少し空いている,屋外,34.688243,136.4468703,0,子連れ家族
道の駅 しんあさひ風車村,"https://motospot.jp/img/spot/img-100717-medium.jpg",滋賀県にある道の駅「しんあさひ風車村」です。,520-1511 滋賀県高島市新旭町藁園３３６,1時間,駐車場あり,通年,無料,何人でも,普通,屋内,35.350437,136.0670329,2,道の駅
天橋立,"https://motospot.jp/img/spot/img-1390-medium.jpg",天橋立は宮津湾と阿蘇海を結ぶように伸びる不思議な造形を持つ場所です。何千年にもわたって自然が作り出したこの姿は、古くから龍が天に昇る様子に例えられてきました。ここは名勝として知られ、京都府内の観光地1位に選ばれたこともあります。天橋立からの眺め、散策、塩味を含まない不思議な湧水「磯清水」などを楽しむことができます。また、海水浴や温泉を満喫することもできるので、バイクで訪れるツーリングのおすすめスポットです。,626-0001 京都府宮津市文珠,3時間,駐車場あり,通年,無料,何人でも,普通,屋外,35.5568003,135.1848793,1,恋人
大峯本宮天河大辨財天社,"https://motospot.jp/img/spot/img-2158-0-medium.jpg",宗像三女神の一人、市杵島姫命（いちきしまひめのみこと）を主祭神とする、奈良県吉野郡天川村にある神社です。日本五弁財天の一つと言われています。芸能の神として知られ、現在も芸能関係の参拝が多いそうです。場所は、近鉄下市口駅から中庵住行きバス「天河大辨財天社」下車徒歩すぐの場所ですが、 駐車場もあり30台駐車可能です。,638-0321 奈良県吉野郡天川村坪内１０７,1時間,駐車場あり,通年,無料,何人でも,空いている,屋外,34.2197477,135.8407669,0,子連れ家族
道の駅 東近江市あいとうマーガレットステーション,"https://motospot.jp/img/spot/img-100718-medium.jpg",滋賀県にある道の駅「東近江市あいとうマーガレットステーション」です。,527-0162 滋賀県東近江市妹町１８４−１,1時間,駐車場あり,通年,無料,何人でも,普通,屋内,35.1092957,136.2586724,2,道の駅
はりまシーロード,"https://motospot.jp/img/spot/img-111-medium.jpg",姫路から相生に続く海沿いの道です。絶景が続きます。比較的車も少ないのでツーリングしやすい道です。朝焼けや夕焼けも非常に有名なので1日楽しめます。また道沿いには道の駅があり、少し道を外れると海鮮の美味しい店やカフェがあります。,671-1332 兵庫県たつの市御津町室津８９６−２３,2時間,駐車場あり,夏,無料,一人,普通,屋外,34.7798023,134.5233535,2,道の駅
道の駅 びわ湖大橋米プラザ,"https://motospot.jp/img/spot/img-100719-medium.jpg",滋賀県にある道の駅「びわ湖大橋米プラザ」です。,520-0241 滋賀県大津市今堅田３丁目１−１,1時間,駐車場あり,通年,無料,何人でも,普通,屋内,35.12413280000001,135.9282902,2,道の駅
道の駅 近江母の郷,"https://motospot.jp/img/spot/img-100720-medium.jpg",滋賀県にある道の駅「近江母の郷」です。,521-0062 滋賀県米原市宇賀野１３６４−１,1時間,駐車場あり,通年,無料,何人でも,普通,屋内,35.343722,136.2772744,2,道の駅
道の駅 こんぜの里りっとう,"https://motospot.jp/img/spot/img-100721-medium.jpg",滋賀県にある道の駅「こんぜの里りっとう」です。,520-3003 滋賀県栗東市荒張１−１１,1時間,駐車場あり,通年,無料,何人でも,普通,屋内,34.9683829,136.0392138,2,道の駅
道の駅 湖北みずどりステーション,"https://motospot.jp/img/spot/img-100722-medium.jpg",滋賀県にある道の駅「湖北みずどりステーション」です。,529-0365 滋賀県長浜市湖北町今西１７３１−１,1時間,駐車場あり,通年,無料,何人でも,普通,屋内,35.4449941,136.1906897,2,道の駅
かまぼこ工房夢鮮館,"https://motospot.jp/img/spot/img-1139-medium.jpg",ヤマサ蒲鉾の直売店です。夢鮮館の1階では、かまぼこや天ぷらが販売されています。注文してから揚げるものもあるので、見ていて楽しいです。おすすめのメニューは城下町ドッグ（チーカマドッグ）です。また、2階には休憩所があるためそちらで買ったものを食べられますが、おすすめは外のベンチです。近くに花畑があるので、眺めながら食べると気持ちが良いです。,671-2122 兵庫県姫路市夢前町置本,0.5時間,駐車場あり,春,150円,何人でも,少し空いている,屋内,34.9024419,134.6747948,0,子連れ家族
仁和寺,"https://www.kimonoichiba.com/media/wp-content/uploads/2024/05/29153431/image001-15.jpg",仁和寺は、京都にある歴史ある寺院です。平安時代まで遡る歴史を持っています。天皇や皇室関係者も多く訪れ、御所庭園の宸殿の造りが豪華で当時の豪華さが伝わってきます。歴史の長さが感じられるところもありますが、どの季節でも楽しめます。特に春は左近の桜や右近の橘が見られるのでオススメです。,616-8092 京都府京都市右京区御室大内３３,2時間,バイク駐車場あり,春,800円,何人でも,空いている,屋内,35.0293133,135.7143746,0,子連れ家族
鈴鹿スカイライン,"https://runnippon.jp/cms-2022/wp-content/uploads/2017/06/24-2-600x400.jpg",鈴鹿スカイラインの武平峠は、三重県菰野町から滋賀県甲賀市にアクセスする峠です。滋賀県から三重県に下る道では三重県の夜景を拝むことができます。昔は有料でしたが、今は無料で走ることができます。道中に無料の駐車場が多数ありますので、休憩することができます。また、ドライビングスポットとしても有名であり、ワインディングを楽しみたいという方にはうってつけのスポットです。昼だとバイク乗りの方が多数走っています。また、有名な御在所の登山スポットでもあるので、ドライブや登山両方を楽しむことができます。三重県側から、上り5km、トンネルを渡ると滋賀県へ入ります。トンネルを出てから下り5.8kmのスカイラインです。,510-1233 三重県三重郡菰野町,2時間,駐車場あり,通年,無料,何人でも,空いている,屋外,35.0039308,136.4729592,0,子連れ家族
道の駅 草津,"https://motospot.jp/img/spot/img-100723-medium.jpg",滋賀県にある道の駅「草津」です。,525-0001 滋賀県草津市下物町１４３６,1時間,駐車場あり,通年,無料,何人でも,普通,屋内,35.070311,135.939755,2,道の駅
信貴スカイライン,"https://jafmate.jp/drive/__icsFiles/afieldfile/2023/03/16/ikoma_yakeikari.jpg",奈良県生駒郡と大阪府をつなぐスカイラインです。全長20.9km、ゆるやかな道が続き、急な坂はありません。展望台や大阪の景色を拝むことができる場所が何か所かあります。車、バイクともに通行可能です。また、生駒山上遊園地があり家族連れの方も楽しむことができる場所です。途中、駐車場が数か所あります。夕方は混んでおり、駐車場は満車のこともよくあります。3月～10月は24時まで、11から2月は23時までの営業となります。,636-0832 奈良県生駒郡三郷町信貴山西２−２,2時間,駐車場あり,通年,2000円,何人でも,普通,屋外,34.6062827,135.6697747,0,子連れ家族
道の駅 竜王かがみの里,"https://motospot.jp/img/spot/img-100724-medium.jpg",滋賀県にある道の駅「竜王かがみの里」です。,520-2573 滋賀県蒲生郡竜王町鏡１２３１−２,1時間,駐車場あり,通年,無料,何人でも,普通,屋内,35.0860306,136.0790702,2,道の駅
the Farm UNIVERSAL,"https://motospot.jp/img/spot/img-1397-medium.jpg",大人から子供まで植物を愉しむことができるガーデンセンターです。緑に囲まれたカフェ、迫力の植物園、花苗や大きな庭木、観葉植物、珍しい多肉植物など、植物を体感しながら楽しむことができます。リニューアルしてから豊富な植物をはじめ、ゆったりと寛げるカフェ、子供たちが楽しめる遊具、動物、いちご狩りなど、体験ができるガーデンセンターになっています。,568-0095 大阪府茨木市佐保１９３−２,1時間,駐車場あり,通年,無料,何人でも,少し空いている,屋内,34.8648582,135.5313683,0,子連れ家族
四日市港,"https://motospot.jp/img/spot/img-2677-0-medium.jpg",三重県四日市市にある港になります。釣りに来る人が多いスポットで、どの時間に行っても釣りをしている人がいます。港なのでクレーンやコンテナがありますのでそこで車と写真を撮る人が多いです。車、バイクともに通行可能です。信号がなく、まっすぐ道が続くので、ドライブにももってこいなスポットです。,510-0051 三重県四日市市千歳町,0.5時間,駐車場あり,通年,無料,何人でも,空いている,屋外,34.9522294,136.6373875,0,子連れ家族
道の駅 アグリの郷栗東,"https://motospot.jp/img/spot/img-100725-medium.jpg",滋賀県にある道の駅「アグリの郷栗東」です。,520-3041 滋賀県栗東市出庭９６１−１,1時間,駐車場あり,通年,無料,何人でも,普通,屋内,35.0386669,136.0014829,2,道の駅
道の駅 マキノ追坂峠,"https://motospot.jp/img/spot/img-100726-medium.jpg",滋賀県にある道の駅「マキノ追坂峠」です。,520-1811 滋賀県高島市マキノ町海津８９７−２７,1時間,駐車場あり,通年,無料,何人でも,普通,屋内,35.4656616,136.0854137,2,道の駅
ローザンベリー多和田,"https://motospot.jp/img/spot/img-887-medium.jpg",広大な敷地に7つのエリアのガーデンや羊たちやポニーに触れ合える牧場やパンやピザ作り体験ができる場所などがあります。2019年3月31日には、ひつじのショーンファームガーデンがオープンしました。アニメに登場する「牧場主の家」や「ひつじの小屋」がリアルに再現されています。大人も子供も一緒になって楽しめるエリアです。,521-0081 滋賀県米原市多和田６０５−１０,3時間,駐車場あり,通年,3000円,何人でも,少し混んでいる,屋外,35.3453851,136.3329446,0,子連れ家族
武庫川渓谷・福知山廃線跡,"https://motospot.jp/img/spot/img-1911-0-medium.jpg",脇にある廃線跡を歩き、綺麗な川と美味しい空気と絶景が楽しめます。途中にあるトンネルは懐中電灯がないと進めませんがワクワクします。ゴール地点の武庫川駅は温泉施設がありました。春は桜が、秋は紅葉が風景を彩ってくれます。,669-1141 兵庫県西宮市塩瀬町名塩,1時間,駐車場なし,秋,無料,複数人,空いている,屋外,34.8506352,135.2946934,1,恋人
道の駅 藤樹の里あどがわ,"https://motospot.jp/img/spot/img-100727-medium.jpg",滋賀県にある道の駅「藤樹の里あどがわ」です。,520-1221 滋賀県高島市安曇川町青柳１１６２−１,1時間,駐車場あり,通年,無料,何人でも,普通,屋内,35.3265497,136.0299839,2,道の駅
青山高原・室生赤目青山国定公園,"https://motospot.jp/img/spot/img-1912-1-medium.jpg",とても広い公園で展望スポットが複数箇所あり、片側一車線の道路で走ったり遊歩道で歩くことも出来ます。山の上に多くの風力発電用の風車があるのですごく見応えがあり、風車を見ながらツーリングを楽しめます。,518-0469 三重県名張市赤目町長坂,1.5時間,駐車場あり,通年,無料,一人,少し混んでいる,屋外,34.5714339,136.0825552,0,子連れ家族
道の駅 伊吹の里,"https://motospot.jp/img/spot/img-100728-medium.jpg",滋賀県にある道の駅「伊吹の里」です。,521-0311 滋賀県米原市伊吹１７３２−１,1時間,駐車場あり,通年,無料,何人でも,普通,屋内,35.3967918,136.3709792,2,道の駅
南部梅林,"https://svcstrg.cld.navitime.jp/imgfile/02301_2400160_01.jpg",日本一広い梅林で、園内に入ると入り口から山の上まで梅の木が沢山植えられています。春になると一斉に開花してとても見応えがあります。園内の景色を楽しみながら歩いていると丁度良い運動になります。入り口に神社があり、進むとイベント広場があり、更に行くと山頂からは海まで見渡せます。駐車場までの道では芋餅や、めはり寿司が売られています。駐車場では梅昆布茶や梅饅頭、様々な種類の味付けの梅干しがお土産として売られています。,645-0022 和歌山県日高郡みなべ町晩稲,2時間,駐車場あり,春,300円,何人でも,少し混んでいる,屋外,33.7931348,135.3439917,1,恋人
道の駅 塩津海道あぢかまの里,"https://motospot.jp/img/spot/img-100729-medium.jpg",滋賀県にある道の駅「塩津海道あぢかまの里」です。,529-0701 滋賀県長浜市西浅井町塩津浜１７６５,1時間,駐車場あり,通年,無料,何人でも,普通,屋内,35.5207538,136.1624816,2,道の駅
二上山,"https://upload.wikimedia.org/wikipedia/commons/9/9b/Mount_Nijo%2C_zenkei.jpg",二上山は、ふたかみパーク當麻から歩いて登山することができます。トトロルートという遺跡の背後から登山することができます。途中にはジブリの「トトロ」や「ネコバス」のキャラクターの飾り付けがあり、楽しみながら登山することができます。トトロルートは藪のトンネルがあり、そこを通って行くことができます。二上山には雄岳と雌岳があり、雌岳からは美しい景色が見渡せます。初心者にもオススメの山です。,583-0992 大阪府南河内郡太子町山田,2時間,駐車場あり,通年,無料,何人でも,普通,屋外,34.5161851,135.6645186,0,子連れ家族
道の駅 せせらぎの里こうら,"https://motospot.jp/img/spot/img-100730-medium.jpg",滋賀県にある道の駅「せせらぎの里こうら」です。,522-0252 滋賀県犬上郡甲良町金屋１５４９−４,1時間,駐車場あり,通年,無料,何人でも,普通,屋内,35.2019803,136.2755474,2,道の駅
黒江,"https://www.wakayama-kanko.or.jp/lsc/upfile/spot/0000/1003/1003_1_l.jpg",黒江は、和歌山県にある古い町並みの残る場所です。古くから漆器の街としても知られている歴史ある場所で、黒江ぬりもの館という漆器を展示したスポットもあります。また、昔の酒造所を改築した温故伝承館というスポットには、清酒酒造の道具などが展示販売しています。お酒が飲めなくても買い物もできるため、オススメです。地域からも愛される中言神社には、万葉集にも登場する黒牛潟の由来となった石もあります。春になると黒江のひなめぐりと呼ばれるイベントも開催されています。各所に展示されるひな人形が春の訪れを告げます。,642-0011 和歌山県海南市黒江,1時間,不明,春,無料,何人でも,空いている,屋外,34.1668419,135.2067905,0,子連れ家族
道の駅 妹子の郷,"https://motospot.jp/img/spot/img-100731-medium.jpg",滋賀県にある道の駅「妹子の郷」です。,520-0526 滋賀県大津市和邇中５２８,1時間,駐車場あり,通年,無料,何人でも,普通,屋内,35.1596116,135.9015227,2,道の駅
ドライブインダルマ,"https://motospot.jp/img/spot/img-2428-0-medium.jpg",舞鶴市街地から少し西に外れた国道178号線沿いにあるドライブインダルマです。レトロ自販機レストランでは24時間営業の所も多いですが、こちらは8:00～18:00の営業時間です。全体的にレトロな雰囲気で、古き良き昭和にタイムスリップできる空間です。インベーダーゲームをはじめ、2〜30年前のゲームもあります。一部マニアには“自動販売機の聖地”とも呼ばれているようです。,624-0955 京都府舞鶴市丸田８２２−１,1時間,駐車場あり,通年,無料,何人でも,空いている,屋内,35.4705453,135.2777477,0,子連れ家族
道の駅 奥永源寺 渓流の里,"https://motospot.jp/img/spot/img-100732-medium.jpg",滋賀県にある道の駅「奥永源寺 渓流の里」です。,527-0207 滋賀県東近江市蓼畑町５１０,1時間,駐車場あり,通年,無料,何人でも,普通,屋内,35.10551,136.3722728,2,道の駅
万博記念公園,"https://motospot.jp/img/spot/img-893-medium.jpg",万博記念公園は、1970年に開催された日本万国博覧会（大阪万博）の跡地を利用して整備された、総面積約260haの公園です。公園には、日本庭園、自然文化園、文化・スポーツ・レジャー・宿泊施設があります。日本庭園は、万博開催時に日本政府の出展施設であり、「国立民族学博物館」もあります。自然文化園は、博覧会のシンボル「太陽の塔」を中心に、森から里山までの自然風景、平野でのイベントやお祭りが催されています。,565-0826 大阪府吹田市千里万博公園１−１,5時間,駐車場あり,通年,無料,何人でも,混んでいる,屋内,34.8046044,135.5318113,0,子連れ家族
淡路ファームパーク,"https://grand-mercure-awajiisland-resortandspa.jp/wp/wp-content/uploads/2024/09/%E5%9C%92%E5%86%85%E6%99%AF%E8%A6%B3%E2%91%A1.jpg",淡路島にある小さな動物園です。ウサギやプレーリードッグなどの小動物、カピバラ、ヒツジといった動物たちを目にすることができます。一番のオススメはコアラ。かわいいコアラの姿をじっくりと見ることができます。また、淡路ファームパークイングランドの丘では様々な体験も可能です。季節によって収穫できる様々な野菜の収穫体験やバーベキュー体験などもできます。園内は一年を通して色とりどりの花々を愛でることもでき、園内を歩いているだけでも日常から離れられ、リフレッシュできます。友人や家族、カップルなどで楽しめるスポットです。,656-0443 兵庫県南あわじ市八木養宜上１４０１,3時間,駐車場あり,通年,1000円,複数人,普通,屋外,34.3075749,134.802872,0,子連れ家族
道の駅 アグリパーク竜王,"https://motospot.jp/img/spot/img-100733-medium.jpg",滋賀県にある道の駅「アグリパーク竜王」です。,520-2531 滋賀県蒲生郡竜王町山之上６５２６,1時間,駐車場あり,通年,無料,何人でも,普通,屋内,35.043859,136.1446567,2,道の駅
フルーツフラワーパーク,"https://motospot.jp/img/spot/img-1150-medium.jpg",神戸市北区の奥の方にあるのですが、温泉、ホテル、バーベキュー施設、色々な体験、公園、ちょっとした遊園地など、様々な物が楽しめる場所で、子供からお年寄りまでたくさんの人が訪れています。１日遊べて、綺麗な施設なので雰囲気も楽しめるようになってます。,651-1522 兵庫県神戸市北区大沢町上大沢２１５０,3時間,駐車場あり,春,3000円,何人でも,普通,屋外,34.8500593,135.1922098,0,子連れ家族
くじらのモニュメント,"https://motospot.jp/img/spot/img-3198-0-medium.jpg",和歌山県には、独特の存在感を放つ「くじらのモニュメント」があります。このモニュメントは、紀南地域の名物であるくじらを象徴するもので、周囲には美しい海が広がり、観光客に人気のフォトスポットとなっています。特に、日没時の光景は絶景で、インスタグラムやSNS映えすること間違いなしです。バイクで訪れる方には、周辺の景色を楽しみながら走るルートが魅力的です。県道を通り、海岸沿いを巡ることができます。近くには新鮮な海の幸を味わえる食堂もあり、ツーリングの休憩によいスポットです。特に、地元のくじら料理は一度は味わってみたい逸品です。ぜひ訪れて、地元の文化や美しい自然を満喫してください。,649-5172 和歌山県東牟婁郡太地町森浦,0.5時間,駐車場あり,通年,無料,一人,少し空いている,屋外,33.5951288,135.9289311,0,子連れ家族
道の駅 浅井三姉妹の郷,"https://motospot.jp/img/spot/img-100734-medium.jpg",滋賀県にある道の駅「浅井三姉妹の郷」です。,526-0244 滋賀県長浜市内保町２８４３,1時間,駐車場あり,通年,無料,何人でも,普通,屋内,35.4301505,136.3056452,2,道の駅
高雄パークウェイ,"https://ja.kyoto.travel/resource/tourism/2707-1.jpg",松尾山の中に嵐山高雄パークウェイというドライブウェイがあります。もみじが沢山あるので秋は走りながら紅葉が楽しめます。また展望台が数カ所あり、京都市の街並みや保津峡の川下り、トロッコ列車の走行が見れます。周辺にはBBQ場やフィッシングエリア、ドッグラン、遊園地など複数人で楽しめる施設が数多くあり、一日中楽しめるスポットです。自然あふれる場所でもあるので、春には桜、秋には紅葉が見られ、四季折々の緑と花を楽しむことができます。釣り好きな方はBBQ横に隣接する管理釣り場でトラウトを釣る事が出来ます。,616-8285 京都府京都市右京区梅ケ畑檜社町１１,2時間,駐車場あり,通年,1200円,何人でも,少し空いている,屋外,35.0538775,135.6755098,0,子連れ家族
ら～めん幕末 海南店,"https://motospot.jp/img/spot/img-3199-0-medium.jpg",和歌山県海南市にある「ら～めん幕末 海南店」は、地元の人々に愛されるラーメン店です。特に和歌山ラーメンを楽しむことができ、こってりとした豚骨スープと細麺の絶妙なバランスが特徴です。メニューには、チャーシューやネギ、のりなどトッピングも豊富に揃い、リピーターが多いのも納得です。観光ついでに立ち寄るには最適な場所で、近隣には自然の絶景も多く、移動時にはバイクでのツーリングを楽しむのも良いでしょう。駐車場も用意されており、サクッと入店できます。ぜひ、和歌山の美味しいラーメンを味わいに訪れてみてください！,642-0034 和歌山県海南市藤白１８７−１,1時間,駐車場あり,通年,1000円,一人,普通,屋内,34.1480516,135.2105687,0,子連れ家族
道の駅 舟屋の里伊根,"https://motospot.jp/img/spot/img-100735-medium.jpg",京都府にある道の駅「舟屋の里伊根」です。,626-0424 京都府与謝郡伊根町亀島４５９,1時間,駐車場あり,通年,無料,何人でも,普通,屋内,35.6744692,135.2911023,2,道の駅
高野山奥之院,"https://www.koyasan.or.jp/sp/images/meguru/sights_okunoin_main.jpg",高野山奥之院は、和歌山県にある高野山の最も神聖な地点で、真言宗の開祖・弘法大師空海が眠る場所と言われています。荘厳な雰囲気の中、数多くの墓碑が立ち並び、神秘的な空気に包まれています。特に「大師の読み」や木々の美しさが素敵です。観光に訪れる際は、バイクでのアクセスも便利です。高野山への道は緑豊かで風光明媚なため、ライダーには最適です。駐車場は奥之院無料駐車場に停めて、奥之院までは徒歩になります。さらに、奥之院までの道は穏やかですが、急カーブが多いため、安全運転を心掛けましょう。,648-0211 和歌山県伊都郡高野町高野山５５０,1時間,駐車場あり,春,無料,複数人,普通,屋外,34.2229986,135.6057343,1,恋人
道の駅 シルクのまち かや,"https://motospot.jp/img/spot/img-100736-medium.jpg",京都府にある道の駅「シルクのまち かや」です。,629-2422 京都府与謝郡与謝野町滝９８,1時間,駐車場あり,通年,無料,何人でも,普通,屋内,35.4815344,135.0936898,2,道の駅
BE KOBE モニュメント,"https://motospot.jp/img/spot/img-129-medium.jpg",メリケンパークと呼ばれる所でもありポートタワーやモニュメントがあり観光や写真撮影など出来る場所もあって1日過ごせる場所です。夜にはライトアップがされ光と海を見渡せる場所にもなっています。またモニュメントを撮る際にオリエンタルホテルがバックにあるのでどこを撮っても綺麗に撮れる、散歩やデートなどに匹敵の場所になります。,650-0042 兵庫県神戸市中央区波止場町２,2時間,駐車場あり,通年,無料,何人でも,少し空いている,屋外,34.6853158,135.1899227,0,子連れ家族
一庫公園,"https://motospot.jp/img/spot/img-385-medium.jpg",ダムの入り口から公園まで信号がなくバイカーやサイクリングされている方をよく見かけます。秋には山全体が紅葉し景色をかんさつするのにてきしています。公園自体も整備されており家族ずれや幼稚園小学生のバス旅行などでも利用されています。,666-0103 兵庫県川西市国崎知明１−６,3時間,駐車場あり,秋,無料,複数人,少し混んでいる,屋外,34.9249685,135.4168607,0,子連れ家族
蒲入水産,"https://motospot.jp/img/spot/img-2433-1-medium.jpg",地域の水産会社が営んでいる食堂です。営業日は土日祝、時間は昼の11時~14時までです。食事場所の目の前に広がるのはエメラルドグリーンの綺麗な海。素晴らしいロケーションで食べる食事は格別です。漁港めしで、メニューは海鮮丼のみですが、鮮度、ボリューム、ロケーションは最高。その日の朝に目の前に広がる海から採った新鮮なお魚は非常に美味しいです。ボリューム感もかなりあり、満足できます。京都北部にある伊根町は、海と山に囲まれた穏やかなこの町はツーリングに最適です。近くには有名な伊根の舟屋があったり、少し走ると日本三景である天橋立があります。休憩がてら漁港めしを堪能しませんか。,626-0401 京都府与謝郡伊根町蒲入１１２３−６,0.5時間,駐車場あり,夏,2000円,何人でも,少し混んでいる,屋外,35.7549914,135.251741,0,子連れ家族
巨大たまねぎオブジェ『おっ玉葱』,"https://motospot.jp/img/spot/img-3201-0-medium.jpg",兵庫県にある巨大たまねぎオブジェ『おっ玉葱』は、姫路市に位置し、約2.5メートルの高さを誇るユニークなアート作品です。このオブジェは地元の特産品であるたまねぎをモチーフにしており、観光客の人気スポットとなっています。周囲には景色が楽しめるベンチや、お土産ショップもあります。バイクで訪れる観光客には、周辺には広々とした駐車場が完備されており、バイクでのアクセスも非常に便利です。また、周囲の道は美しい風景が広がり、ツーリングには最適なエリアです。ぜひ『おっ玉葱』を訪れて、地域の特産品や観光スポットを楽しんでください。,656-0503 兵庫県南あわじ市福良丙９３６−３,0.5時間,駐車場あり,通年,無料,複数人,少し空いている,屋外,34.2543567,134.6849792,0,子連れ家族
道の駅 てんきてんき丹後,"https://motospot.jp/img/spot/img-100737-medium.jpg",京都府にある道の駅「てんきてんき丹後」です。,627-0221 京都府京丹後市丹後町竹野３１３−１,1時間,駐車場あり,通年,無料,何人でも,普通,屋内,35.7388911,135.1053529,2,道の駅
道の駅 和,"https://motospot.jp/img/spot/img-100738-medium.jpg",京都府にある道の駅「和」です。,629-1131 京都府船井郡京丹波町坂原上モジリ−１１,1時間,駐車場あり,通年,無料,何人でも,普通,屋内,35.2701239,135.3973009,2,道の駅
道の駅 ガレリアかめおか,"https://motospot.jp/img/spot/img-100739-medium.jpg",京都府にある道の駅「ガレリアかめおか」です。,621-0806 京都府亀岡市余部町宝久保１−１,1時間,駐車場あり,通年,無料,何人でも,普通,屋内,35.0146113,135.5666249,2,道の駅
安寿ロマン海道（奈具海岸）,"https://motospot.jp/img/spot/img-1412-0-medium.jpg",舞鶴から天野橋立に向かう途中にある海岸線です。晴れの日の景色は最高です。途中、所々に停車可能なスポットもありますので、ゆっくり海を眺めることもできます。交通量はそんなに多くはないので、ゆっくり走りながら眺めることもできます。,626-0071 京都府宮津市由良,0.25時間,駐車場あり,春,無料,何人でも,空いている,屋外,35.5200985,135.2720421,0,子連れ家族
道の駅 丹波マーケス,"https://motospot.jp/img/spot/img-100740-medium.jpg",京都府にある道の駅「丹波マーケス」です。,622-0213 京都府船井郡京丹波町須知色紙田３−５,1時間,駐車場あり,通年,無料,何人でも,普通,屋内,35.1548894,135.4287141,2,道の駅
安乗埼灯台,"https://motospot.jp/img/spot/img-2437-1-medium.jpg",四角の形をした珍しい灯台で、断崖の上に立つ姿は雄々しく、それほど高くもない姿はかわいくも見えます。国内に16か所しかない登れる灯台の一つです。灯台からの景色は青い海が広がり、灯台のすぐ下では素潜り漁をしている姿を見ることもでき、条件が合えば富士山まで見えるとか。広場には上田商店という、お取り寄せ一年待ちという干し芋屋さんがあります。建物内部は誰でも使える休憩スペースになっており、その一角にカフェ兼店舗があります。カフェでは芋スイーツやコーヒーやお芋ラテなどがいただけます。割と穴場スポットで観光客が少ないので、ゆっくりできます。,517-0507 三重県志摩市阿児町安乗７９４−１,2時間,駐車場あり,夏,1000円,一人,空いている,屋外,34.3648046,136.9069036,1,恋人
道の駅 瑞穂の里・さらびき,"https://motospot.jp/img/spot/img-100741-medium.jpg",京都府にある道の駅「瑞穂の里・さらびき」です。,622-0322 京都府船井郡京丹波町大朴休石１０−１,1時間,駐車場あり,通年,無料,何人でも,普通,屋内,35.167618,135.3613579,2,道の駅
天保山,"https://motospot.jp/img/spot/img-390-medium.jpg",海があって観覧車があり夜はとても綺麗で、海の風を感じながら正面に見える南港の照明が幻想的でとても落ち着く。床もウッド調になっていて雰囲気もとてもよくカップルのデートスポットには最適である。近くに天保山のマーケットプレスもあるのでそこで食べ物を買ってランチするのもありだと思う。,552-0022 大阪府大阪市港区海岸通１丁目,0.5時間,駐車場なし,通年,無料,複数人,少し空いている,屋外,34.6537053,135.4300998,0,子連れ家族
大阪市中央公会堂,"https://motospot.jp/img/spot/img-902-medium.jpg",ネオルネサンス様式の美しい建物です。コンサートや講演会、式典などで使用される文化ホールですが、ツーリングスポットとしてオススメなのは、毎晩行われるライトアップです。ライトアップ時間は季節毎に違うので要確認です。都会のど真ん中でライトに照らされた美しい公会堂は一見の価値ありです。タイミングが良ければ入口前にバイクをとめて写真を撮る事ができます。,530-0005 大阪府大阪市北区中之島１丁目１−２７,0.5時間,不明,通年,無料,何人でも,空いている,屋外,34.6929063,135.5067785,0,子連れ家族
住吉大社,"https://motospot.jp/img/spot/img-1414-0-medium.jpg",摂津の国一之宮で、全国住吉神社の総本社です。住吉大神は海中より出現されたため、海の神として古くから航海関係者・漁師等に篤く信仰されてきました。奈良時代、遣唐使の派遣の際には必ず海上の安全が祈られ、農耕の神・産業の神としても崇敬されています。また風光明媚なところから万葉集などの歌集にも多数詠まれています。,558-0045 大阪府大阪市住吉区住吉２丁目９−８９,1時間,駐車場あり,通年,無料,何人でも,普通,屋外,34.6124237,135.4933369,1,恋人
道の駅 農匠の郷やくの,"https://motospot.jp/img/spot/img-100742-medium.jpg",京都府にある道の駅「農匠の郷やくの」です。,629-1322 京都府福知山市夜久野町平野2150番地,1時間,駐車場あり,通年,無料,何人でも,普通,屋内,35.3382442,134.9302568,2,道の駅
道の駅 舞鶴港とれとれセンター,"https://motospot.jp/img/spot/img-100743-medium.jpg",京都府にある道の駅「舞鶴港とれとれセンター」です。,624-0946 京都府舞鶴市下福井９０５,1時間,駐車場あり,通年,無料,何人でも,普通,屋内,35.4504964,135.3154054,2,道の駅
道の駅 京都新光悦村,"https://motospot.jp/img/spot/img-100744-medium.jpg",京都府にある道の駅「京都新光悦村」です。,622-0025 京都府南丹市園部町曽我谷縄手１５−３,1時間,駐車場あり,通年,無料,何人でも,普通,屋内,35.1239063,135.4823252,2,道の駅
神戸トリックアート不思議な領事館,"https://www.kobeijinkan.com/wp-content/uploads/2019/05/c3dfa0c05c763ec62d73e653a3350cfd.jpg",神戸トリックアート・不思議な領事館は、体験型のアミューズメントスポットで、来館者が絵画の中に参加できる異人館です。トリックアートが豊富に展示されており、作品に触れたり、写真を撮ったりして楽しむことができます。他の異人館とは異なる個性的な魅力があります。元々は明治後期にヒルトン氏の自宅として建設され、戦後はパナマ領事館として使われていたという歴史があります。建物自体は木造2階建てで、高い石垣の上に立っており、白い壁と緑の桟のコントラストが特徴的な現代的な色彩を持つ建物です。館内は「神戸オリジナルシリーズ」、「アドベンチャーワールド」、「錯覚の世界」、「錯覚、脳のトレーニング」、「名画の世界」、「迷宮の部屋」という6つのコーナーに分かれています。特に「神戸オリジナルシリーズ」のコーナーでは、神戸牛のステーキに潰されるような錯覚を体験できる部屋があり、とても楽しめます。,650-0002 兵庫県神戸市中央区北野町２丁目１０−７,1時間,駐車場なし,通年,800円,複数人,少し混んでいる,屋内,34.7009305,135.1908689,0,子連れ家族
道の駅 丹後王国「食のみやこ」,"https://motospot.jp/img/spot/img-100745-medium.jpg",京都府にある道の駅「丹後王国「食のみやこ」」です。,627-0133 京都府京丹後市弥栄町鳥取１２３,1時間,駐車場あり,通年,無料,何人でも,普通,屋内,35.6743104,135.0684739,2,道の駅
将軍塚,"https://garden-guide.jp/photo/shogunzuka/shogunzuka01.jpg",山を登っていくと、高台になっているので、キレイな景色が楽しめます。京都では有名なスポットですが、車やバイクが無いと行きにくい場所なので、そんなに混雑することもなく、ゆっくり楽しむことが出来ます。小さなお茶屋さんや、自動販売機などもあり、広い駐車場もあります。,607-8456 京都府京都市山科区厨子奥花鳥町２８,0.5時間,駐車場あり,通年,無料,何人でも,少し空いている,屋外,35.0017958,135.7876528,0,子連れ家族
道の駅 美山ふれあい広場,"https://motospot.jp/img/spot/img-100746-medium.jpg",山の中にある道の駅。美山で育った野菜や御当地の食べ物を販売している売店とミルクの味をダイレクトに味わえるソフトクリーム屋があります。他にも牛乳、チーズ、プリンがあります。近くには定食屋もあり自然の中ゆっくり出来る場所です。,601-0722 京都府南丹市美山町安掛下23−１,1時間,駐車場あり,通年,無料,何人でも,普通,屋内,35.2768745,135.5878157,2,道の駅
伊勢神宮,"https://motospot.jp/img/spot/img-395-1-medium.jpg",日本神社界の総本山。祀られている主神天照大神は日本で最も有名な神様です。内宮・外宮を中心とした125社から成り立つ神社です。内宮の門前町おかげ横丁も賑わいスポットです。三重にきたら絶対寄っておきたいスポットです。,516-0023 三重県伊勢市宇治館町１,2時間,駐車場あり,通年,無料,何人でも,混んでいる,屋外,34.457233,136.7237887,0,子連れ家族
道の駅 ウッディー京北,"https://motospot.jp/img/spot/img-100747-medium.jpg",京都府にある道の駅「ウッディー京北」です。,601-0251 京都府京都市右京区京北周山町上寺田１−１,1時間,駐車場あり,通年,無料,何人でも,普通,屋内,35.1560759,135.6331579,2,道の駅
道の駅 くみはまSANKAIKAN,"https://motospot.jp/img/spot/img-100748-medium.jpg",京都府にある道の駅「くみはまSANKAIKAN」です。,629-3438 京都府京丹後市久美浜町浦明１７０９,1時間,駐車場あり,通年,無料,何人でも,普通,屋内,35.6304241,134.9319472,2,道の駅
大威徳寺,"https://motospot.jp/img/spot/img-2701-0-medium.jpg",大威徳寺（だいいとくじ）は、もみじの名勝である牛滝山にある山岳寺院です。現在は天台宗に属していますが、近世以前は真言宗と天台宗の兼学寺院でした。役行者によって開創されたと伝えられ、古来より葛城修験の一霊場として崇敬されてきました。寺院の境内には室町時代の多宝塔があり、これは国の重要文化財に指定されています。また、令和2年度の日本遺産に認定された「葛城修験」の10番経塚があります。穴場スポットで、秋の紅葉シーズンでもあまり混まず、赤や黄色に染まった紅葉などを楽しむことができます。少し山を登ると滝がいくつかあり、迫力のある景色が楽しめます。足場が少しごつごつしているので、スニーカーや歩きやすい靴で行くのがおすすめです。,596-0114 大阪府岸和田市大沢町１１７８,1時間,駐車場あり,秋,無料,何人でも,普通,屋外,34.3716314,135.4486641,0,子連れ家族
道の駅 スプリングスひよし,"https://motospot.jp/img/spot/img-100749-1-medium.jpg",スプリングスひよしは、京都府南丹市日吉町にある天然温泉を備えた道の駅です。日吉ダム直下にあり、その好ロケーションと共に、温泉総選挙2019、2020で二年連続してスポーツレジャー部門で日本一に輝いたことがあります。施設内には、ひよし温泉、岩盤浴、温水プールなどのリラクゼーション施設のほか、キャンプ場やレストランも併設されています。スプリングスひよしでは、源泉100%の露天風呂や人気のアロマロウリュウサウナ、つぼ湯、電気風呂などが楽しめます。また、チムジルバン（岩盤浴）も設けられています。キャンプ場では、日吉ダムの壮大な景色を背景にゆっくりできます。寒い日には給湯付きの洗い場が嬉しいポイントです。地元の新鮮な野菜や特産品を扱うショップもあり、地元の食材を使った料理を楽しむことができます。,629-0335 京都府南丹市日吉町,1時間,駐車場あり,通年,無料,何人でも,普通,屋内,35.1820949,135.4906532,2,道の駅
鳥羽水族館,"https://motospot.jp/img/spot/img-1166-medium.jpg",展示生物数は日本一を誇る、規模が非常に大きい水族館です。日本で唯一ジュゴンが展示されています。館内は生態環境に合わせてブース分けされ、海獣とのふれあいやショー会場も複数用意されています。コツメカワウソと握手も可能です。子供はもちろん大人でも十分楽しめます。,517-8517 三重県鳥羽市鳥羽３丁目３−６,3時間,駐車場あり,通年,3000円,何人でも,普通,屋内,34.482529,136.8449117,0,子連れ家族
岩湧山,"https://cdn.yamap.co.jp/public/image2.yamap.co.jp/production/31152099?h=1080&q=50&t=resize&w=1620&q=60&f=webp",岩湧山は、無料の駐車場からダイヤモンドトレイルに合流して頂上までアクセスができます。頂上からは、美しい金剛山と大阪湾の景色が一望できます。岩湧の森にある展望台からは、素晴らしい景色を堪能することができます。山頂には、お弁当を食べたり、トイレを利用することができる広い広場があります。,586-0072 大阪府河内長野市滝畑,2時間,駐車場あり,秋,無料,複数人,混んでいる,屋外,34.3698323,135.5346307,1,恋人
道の駅 京丹波 味夢の里,"https://motospot.jp/img/spot/img-100750-medium.jpg",京都府にある道の駅「京丹波 味夢の里」です。,622-0232 京都府船井郡京丹波町曽根深シノ−６５−１,1時間,駐車場あり,通年,無料,何人でも,普通,屋内,35.1601592,135.41098,2,道の駅
浮御堂（満月寺）,"https://motospot.jp/img/spot/img-1167-medium.jpg",琵琶湖畔にある臨済宗の寺院で、湖に突き出たお堂が有名です。お堂とそこへつながる橋、周囲に植えられた松の木、穏やかにきらめく琵琶湖、それぞれが美しく見とれてしまうほどの絶景です。周囲の道は狭く、駐車場からは多少歩きますが、駐車料金は無料です。,520-0242 滋賀県大津市本堅田１丁目１６−１８,0.5時間,駐車場あり,夏,500円,何人でも,普通,屋外,35.1100526,135.9211012,1,恋人
道の駅 海の京都 宮津,"https://motospot.jp/img/spot/img-100751-medium.jpg",京都府にある道の駅「海の京都 宮津」です。,626-0012 京都府宮津市浜町３００７,1時間,駐車場あり,通年,無料,何人でも,普通,屋内,35.5382022,135.194057,2,道の駅
港大橋の下,"https://motospot.jp/img/spot/img-400-medium.jpg",大阪市港区と南港を繋いでいる阪神高速の港大橋の下がとても綺麗。前には南港のコンテナターミナルがあり、そこの照明が綺麗く、デートにとてもオススメ。車で岸壁まで行け、車の中から夜景を楽しむ事ができるので暑い日や、寒いにでも行けるオススメスポットです。近くにユニバーサルスタジオジャパンもあるのでそこの花火が見える事もある。ユーポスのCMに使われているスポットです。,552-0022 大阪府大阪市港区海岸通４丁目５,1時間,駐車場なし,通年,無料,一人,普通,屋内,34.6478202,135.4479079,0,子連れ家族
ワールド牧場,"https://motospot.jp/img/spot/img-912-medium.jpg",ワールド牧場は、動物と触れ合える素晴らしいスポットです。ここでは、小動物から亀、山羊、羊、馬、ポニーなど、多くの動物に餌をあげることができます。また、羊や山羊がいるゾーンでは、触れ合いが楽しめます。犬や猫との触れ合いスペースもあり、さらに犬の散歩体験やウサギのお散歩体験もできます。自分のペットを連れて行くこともできますし、小さいですがドッグランもあるので、おすすめで。,585-0014 大阪府南河内郡河南町白木１４５６−２,30時間,駐車場あり,夏,3000円,何人でも,少し空いている,屋外,34.4793716,135.6416272,0,子連れ家族
びわ湖バレイ,"https://motospot.jp/img/spot/img-1168-medium.jpg","琵琶湖西岸の標高1,100mに位置するリゾート施設です。ロープウェイでの空中散歩を楽しみ、山頂に降り立つと、圧倒的なスケールと迫力を誇る琵琶湖一望できます。ロープウェイに乗って約5分、標高約1,100ｍの打見山へ登ります。The Mainというテラスエリアには、Grand TerraceとNorth Terraceがあり、それぞれに爽やかな水盤や伸びやかなウッドデッキが広がっています。琵琶湖を眺めながら、ソファやチェアでのんびりと過ごすことができます。Terrace Caféなどでのお食事も楽しめます。また、プライベートな雰囲気のInfinity Loungeも利用できます。",520-0514 滋賀県大津市木戸１５４７−１,3時間,駐車場あり,通年,5000円,複数人,少し混んでいる,屋外,35.2134968,135.8950799,0,子連れ家族
道の駅 お茶の京都 みなみやましろ村,"https://motospot.jp/img/spot/img-100752-medium.jpg",京都府でたった一つの村にある道の駅で、休日祝日はたくさんのお客さんであふれています。その道の駅では南山城村の特産品であるお茶やお茶を使用したスイーツその他にも新鮮な野菜を販売しています。そして、道の駅の中には食堂がありそこではお茶を使用した茶そばを食べられます。,619-1411 京都府相楽郡南山城村北大河原殿田１０２,1時間,駐車場あり,通年,無料,何人でも,普通,屋内,34.7651413,136.0244838,2,道の駅
ブルーメの丘,"https://motospot.jp/img/spot/img-1425-0-medium.jpg",滋賀県農業胡淵ブルーメの丘は滋賀県湖東の日野町にある酪農をテーマとした体験型農業公園であります。素朴ながら楽しい遊具施設などがあり、また四季折々の花畑やカピバラ、カンガルー、アルパカと言った動物とふれあえるエリア、醸造所、ドイツ風の建物がある農業公園。バギーに乗ることができ、巨大なアスレチックスコーナーなどもあり、大人から子供まで十分に1日中遊べる場所です。,529-1628 滋賀県蒲生郡日野町西大路８４３,4時間,駐車場あり,通年,5000円,何人でも,少し混んでいる,屋外,35.0129841,136.2805458,0,子連れ家族
湖岸緑地公園,"https://motospot.jp/img/spot/img-2961-0-medium.jpg",琵琶湖の湖岸にある公園です。施設はトイレ、飲料とアイスの自動販売機と、ベンチが数ヶ所あるだけですが、無料の広大な公園で、琵琶湖を間近で一望できます。キャンプやバーベキューも自由に楽しむことができ、いつ行ってもテントを張ってキャンプされてる方やグループでバーベキューをされてる方が1～2組ほどはいますし、アウトドアシーズンや週末は多くの方が利用されてます。JR草津駅から車で10分ほどの距離とアクセスも良く、駐車場は30台ほどは停められます。観光の目的地としても、休憩場所としてもおすすめのスポットです。,525-0005 滋賀県草津市志那町他,4時間,駐車場あり,通年,無料,何人でも,空いている,屋外,35.0495171,135.9291177,0,子連れ家族
道の駅 ちはやあかさか,"https://motospot.jp/img/spot/img-100753-medium.jpg",大阪府にある道の駅「ちはやあかさか」です。,585-0044 大阪府南河内郡千早赤阪村二河原邊7,1時間,駐車場あり,通年,無料,何人でも,普通,屋内,34.4643044,135.6259018,2,道の駅
ぼくらの広場,"https://motospot.jp/img/spot/img-1682-0-medium.jpg",生駒山系の中で最も視界が広い夜景スポットです。生駒スカイラインからも、一般道からもアクセスができますが、場所が分かりづらくアクセスしづらい場所にあります。初心者には生駒スカイラインまたは十三峠広場の方がアクセスしやすいです。夜景を楽しむには下見をするか経験者と一緒に訪れることをオススメします。,579-8052 大阪府東大阪市上四条町,1時間,駐車場なし,通年,無料,複数人,普通,屋外,34.6606046,135.6609715,0,子連れ家族
道の駅 近つ飛鳥の里太子,"https://motospot.jp/img/spot/img-100754-medium.jpg",大阪府にある道の駅「近つ飛鳥の里太子」です。,583-0992 大阪府南河内郡太子町山田,1時間,駐車場あり,通年,無料,何人でも,普通,屋内,34.5161851,135.6645186,2,道の駅
おの桜づつみ回廊,"https://motospot.jp/img/spot/img-659-medium.jpg",全長4km、約650本が並ぶ、西日本最大級の桜並木です。上流から下流にかけて開花順に5種類の桜が植樹されているため 、3月下旬～4月上旬にわたって桜を堪能できます。河川敷に駐車して桜並木を散策したり、回廊に隣接する側道を走ったりするととても綺麗です。,675-1368 兵庫県小野市住永町,2時間,駐車場あり,春,無料,一人,普通,屋外,34.8655955,134.9212487,1,恋人
見晴らし公園,"https://motospot.jp/img/spot/img-1683-0-medium.jpg",「彩都なないろ公園」より西にある隠れた夜景が見える公園がこの「見晴らし公園」です。フロントテラスとパークフロントテラスの間の区画にあるとても雰囲気の素晴らしい公園です。夜景の規模は、なないろ公園より規模が劣りますが、こちらからも、あべのハルカスやエキスポシティの観覧車「レッドホースオオサカホイール」のライトアップも見ることができます。ただ住宅街の中にあるので深夜の訪問はしないことと、もちろん静かに夜景観賞しましょう。雰囲気は大阪府の郊外夜景スポットでもトップクラスに間違いありません。,562-0029 大阪府箕面市彩都粟生北２丁目６,0.5時間,駐車場なし,通年,無料,何人でも,空いている,屋外,34.8560588,135.5084013,0,子連れ家族
大王崎灯台,"https://motospot.jp/img/spot/img-2195-0-medium.jpg",三重県志摩市にある灯台です。地元では絵描きの街として有名な場所です。道が入り組んでおり、お店のならぶ坂道を徒歩で登っていくと、灯台の見える広場にたどり着きます。近年、ポケットモンスターのミジュマルとコラボしたマンホールが設置されました。,517-0603 三重県志摩市大王町波切５２,0.5時間,不明,通年,無料,何人でも,空いている,屋外,34.2763385,136.899232,0,子連れ家族
道の駅 能勢（くりの郷）,"https://motospot.jp/img/spot/img-100755-medium.jpg",大阪府にある道の駅「能勢（くりの郷）」です。,563-0364 大阪府豊能郡能勢町平野５３５,1時間,駐車場あり,通年,無料,何人でも,普通,屋内,34.9569966,135.4016387,2,道の駅
玄武洞,"https://motospot.jp/img/spot/img-2452-0-medium.jpg",玄武洞は、160万年前の火山活動によりマグマが冷えて固まった結果、規則正しい割れ目が形成された自然現象で作られた洞窟です。約6000年前に波に洗われて現れ、その後人間による石の採取により洞となりました。玄武洞の名は江戸時代の1807年に儒官の柴野栗山によって命名され、その後、東京大学の小藤文次郎博士が岩石の日本名を定める際に「玄武岩」と命名したため、現在もその名で呼ばれています。また、大正15年（1926年）には京都大学の松山基範博士が、玄武洞の石の磁性が現在とは逆の南を向いていることを発見しました。これにより、玄武洞は地磁気の逆転が初めて発見された場所として世界的にも知られるようになりました。玄武洞は昭和6年（1931年）に国の天然記念物に指定され、周辺地域一帯は昭和38年（1963年）に山陰海岸国立公園となりました。周辺一帯は「玄武洞公園」として、入園料や駐車場も無料で利用できます。この公園には、他にも青龍洞・白虎洞・南朱雀洞・北朱雀洞といった洞窟があり、多くの観光客が訪れています。ショップや資料館、レストランなどもあるので、観光にも休憩にも丁度良い場所です。,668-0801 兵庫県豊岡市赤石１３４７,1.5時間,駐車場あり,通年,500円,何人でも,空いている,屋外,35.5869252,134.8073971,1,恋人
滋賀県立陶芸の森,"https://motospot.jp/img/spot/img-2708-0-medium.jpg",やきものの町・信楽の緑豊かな公園の中に、陶芸美術館や、産業製品の展示館、また国内外のアーティストが滞在制作するスタジオを備えた文化施設です。公園内には無料の駐車場、園内には陶器専門の美術館もあります（美術館のみ有料）。信楽焼を購入できるショップ、カフェもあり高台から見える信楽町内の景色は雄大。春は桜、秋は紅葉、陶器祭りの時は大勢の観光客で賑わいます。四季折々の風景が楽しめ、新名神、西名阪自動車道と交通の便もよくツーリングにとっておきの場所となるでしょう。,529-1804 滋賀県甲賀市信楽町勅旨２１８８−７,0.5時間,駐車場あり,通年,無料,何人でも,空いている,屋内,34.8865313,136.0589942,0,子連れ家族
道の駅 かなん,"https://motospot.jp/img/spot/img-100756-medium.jpg",大阪府にある道の駅「かなん」です。,585-0034 大阪府南河内郡河南町神山５２３−１,1時間,駐車場あり,通年,無料,何人でも,普通,屋内,34.4784486,135.6170698,2,道の駅
道の駅 しらとりの郷・羽曳野,"https://motospot.jp/img/spot/img-100757-medium.jpg",大阪府にある道の駅「しらとりの郷・羽曳野」です。,583-0866 大阪府羽曳野市埴生野９７５−３,1時間,駐車場あり,通年,無料,何人でも,普通,屋内,34.5336886,135.5879039,2,道の駅
道の駅 いずみ山愛の里,"https://motospot.jp/img/spot/img-100758-medium.jpg",大阪府にある道の駅「いずみ山愛の里」です。,594-1136 大阪府和泉市仏並町３９８−１,1時間,駐車場あり,通年,無料,何人でも,普通,屋内,34.4235096,135.4833114,2,道の駅
白良浜,"https://motospot.jp/img/spot/img-919-medium.jpg",真っ白な砂浜が一面に広がる遠浅の海水浴場です。真っ白な砂浜の砂はサラサラしているので、素足で歩くのが心地よいです。海水浴場は遠浅で小さなお子様連れやカップルにおすすめです。浜を囲うように植えられたヤシの木は、南国ムードを演出してくれています。海水浴をしなくても、浜辺を歩いたり、景色を眺めたりするだけでも楽しめます。,649-2211 和歌山県西牟婁郡白浜町,2時間,駐車場あり,夏,無料,複数人,少し混んでいる,屋外,33.6731118,135.3510386,1,恋人
乃木神社,"https://motospot.jp/img/spot/img-1943-0-medium.jpg",明治時代の陸軍軍人で日露戦争で武功を上げた乃木希典を祀った神社です。明治天皇が崩御した際に夫婦で殉死し、大正5年、明治天皇の御陵の麓に乃木神社が創建されました。本殿、拝殿だけでなく乃木旧邸の復元や宝物殿、銅像、さざれ石、吾妻の錨など見どころがたくさんあります。,612-8028 京都府京都市伏見区桃山町板倉周防３２,0.5時間,駐車場あり,通年,無料,何人でも,空いている,屋外,34.9329883,135.776433,1,恋人
道の駅 とっとパーク小島,"https://motospot.jp/img/spot/img-100759-medium.jpg",大阪府にある道の駅「とっとパーク小島」です。,599-0314 大阪府泉南郡岬町多奈川小島４５５−１,1時間,駐車場あり,通年,無料,何人でも,普通,屋内,34.3150946,135.0999108,2,道の駅
アドベンチャーワールド,"https://motospot.jp/img/spot/img-920-medium.jpg",和歌山県を代表する動物園です。人気のジャイアントパンダをはじめキリンやライオンなどたくさんの動物たちを間近で見ることができます。また、イルカショーは迫力満点、ペンギンなど海の生き物との触れ合いも楽しめます。老若男女問わず楽しめます。遊園地もあるので、一日では回り切れないぐらい充実しています。,649-2201 和歌山県西牟婁郡白浜町堅田２３９９,7時間,駐車場あり,春,無料,複数人,普通,屋内,33.6737664,135.3741411,0,子連れ家族
熊野大社,"https://motospot.jp/img/spot/img-1176-medium.jpg",熊野本宮大社は、熊野速玉大社、熊野那智大社と合わせて、熊野三山の一つに数えられています。熊野三山は熊野本宮大社を中心に、古くから「よみがえりの聖地」として、いまもなお、多くの人々の信仰を集めています。,647-1731 和歌山県田辺市本宮町本宮１１１０,2時間,駐車場あり,通年,無料,一人,少し混んでいる,屋外,33.8405594,135.7734861,0,子連れ家族
淡路島　風車,"https://motospot.jp/img/spot/img-1944-0-medium.jpg",淡路島の風車とバイク・車を一緒に撮れるフォトスポットです。風車は、ホテルニューアワジのもので、ホテルニューアワジと大きく書かれているので、その名前を入れずに撮りたい場合は、ホテルニューアワジプラザホテルを目的地にして、吹上浜方面に少し行った道路のところで撮ることができます。風車の羽の先は赤くなっていて可愛いのもオススメポイントです。,南あわじ市阿万吹上町1433,0.5時間,駐車場なし,夏,無料,何人でも,空いている,屋外,34.2263264,134.7047928,0,子連れ家族
道の駅 愛彩ランド,"https://motospot.jp/img/spot/img-100760-medium.jpg",大阪府にある道の駅「愛彩ランド」です。,596-0817 大阪府岸和田市岸の丘町３丁目６−１８,1時間,駐車場あり,通年,無料,何人でも,普通,屋内,34.4222948,135.4258834,2,道の駅
道の駅 みさき,"https://motospot.jp/img/spot/img-100761-medium.jpg",大阪府にある道の駅「みさき」です。,599-0301 大阪府泉南郡岬町淡輪５６５４−３,1時間,駐車場あり,通年,無料,何人でも,普通,屋内,34.3257344,135.1738511,2,道の駅
道の駅 奥河内くろまろの郷,"https://motospot.jp/img/spot/img-100762-medium.jpg",大阪府にある道の駅「奥河内くろまろの郷」です。,586-0036 大阪府河内長野市高向１２１８−１,1時間,駐車場あり,通年,無料,何人でも,普通,屋内,34.4364593,135.5508326,2,道の駅
箕面の滝,"https://motospot.jp/img/spot/img-411-medium.jpg",日本の滝百選の落差33mある迫力のある滝です。四季折々の自然を楽しめる箕面国定公園の奥にあり、滝までの道はハイキングコースとしても楽しめます。道中にはカフェや茶屋がたくさんあり、紅葉の天ぷらなど有名なグルメもたくさんあります。,562-0002 大阪府箕面市箕面公園２−２,2.5時間,駐車場あり,通年,無料,何人でも,普通,屋外,34.8504545,135.4761119,1,恋人
道の駅 はが,"https://motospot.jp/img/spot/img-100763-medium.jpg",兵庫県にある道の駅「はが」です。,671-4213 兵庫県宍粟市波賀町原１４９,1時間,駐車場あり,通年,無料,何人でも,普通,屋内,35.2013759,134.5220833,2,道の駅
潮岬,"https://toudai.uminohi.jp/td-cms/wp-content/uploads/2019/07/shionomisaki_08.jpg",潮岬は本州最南端に位置し、断崖の高さ50メートルで太平洋に突き出た岬です。潮岬灯台は明治6年9月15日に正式点灯され、我が国最初の洋式木造灯台とされています。灯台から眺める海の景色は美しく、隣接する観光タワーからは遠く那智山までも望むことができます。また、観光タワーでは「本州最南端訪問証明書」も発行しています。冬には水平線から昇った太陽が同じ水平線上に沈む光景も見られます。灯台は光度970000力ンデラで、光達距離19海里です。灯台脇には資料館も併設されております。1月の第3土曜日には「本州最南端の火祭り」も開催されます。,649-3502 和歌山県東牟婁郡串本町潮岬,0.5時間,駐車場あり,通年,無料,何人でも,空いている,屋外,33.4480217,135.763946,1,恋人
道の駅 あさご,"https://motospot.jp/img/spot/img-100764-medium.jpg",兵庫県にある道の駅「あさご」です。,679-3423 兵庫県朝来市多々良木字牧野２１３−１,1時間,駐車場あり,通年,無料,何人でも,普通,屋内,35.242504,134.8203356,2,道の駅
ニジゲンノモリ,"https://prcdn.freetls.fastly.net/release_image/128966/368/128966-368-1f6151d4236eb6738a8c5a1c7eb7d3cb-1200x901.jpg?format=jpeg&auto=webp&fit=bounds&width=2400&height=1260",淡路島公園にあるアニメパークです。人気アニメや漫画などの世界と最新テクノロジーと淡路島の自然を融合させたテーマパークです。入場料金と駐車場が無料です。現在、ゲーム「ドラゴンクエスト」、アニメ「クレヨンしんちゃん」、アニメ「NARUTO-ナルト-」と「BORUTO-ボルト-」、映画「ゴジラ」をテーマとしたアトラクションがあります。立体アスレチックやジップライン、フィールドアスレチックや立体迷路、謎解きゲームやフィールドロールプレイングなど体を動かしながらアニメの世界観を体験できます。,656-2301 兵庫県淡路市楠本2425番2号,1.5時間,駐車場あり,通年,3300円,何人でも,少し空いている,屋外,34.5774206,135.0089243,0,子連れ家族
道の駅 ちくさ,https://motospot.jp/img/spot/img-100765-medium.jpg",兵庫県にある道の駅「ちくさ」です。,671-3225 兵庫県宍粟市千種町下河野７４５−５,1時間,駐車場あり,通年,無料,何人でも,普通,屋内,35.1077563,134.4417219,2,道の駅
新西宮ヨットハーバー,"https://motospot.jp/img/spot/img-670-medium.jpg",ヨットの停泊場になっており、公園も隣接しているため散歩しながら海を眺めることができます。静かな場所なので、落ち着いた雰囲気でゆっくりとリフレッシュすることができるのでオススメです。,662-0934 兵庫県西宮市西宮浜４丁目１６−１,1時間,駐車場あり,通年,無料,何人でも,空いている,屋外,34.710743,135.3304417,0,子連れ家族
道の駅 神鍋高原,"https://motospot.jp/img/spot/img-100766-medium.jpg",兵庫県にある道の駅「神鍋高原」です。,669-5372 兵庫県豊岡市日高町栗栖野５９−１３,1時間,駐車場あり,通年,無料,何人でも,普通,屋内,35.4993938,134.6753997,2,道の駅
道の駅 村岡ファームガーデン,"https://motospot.jp/img/spot/img-100767-medium.jpg",兵庫県にある道の駅「村岡ファームガーデン」です。,667-1321 兵庫県美方郡香美町村岡区大糠３２−１,1時間,駐車場あり,通年,無料,何人でも,普通,屋内,35.4618936,134.6028463,2,道の駅
富田屋,"https://motospot.jp/img/spot/img-1184-medium.jpg",宮津駅の前にある老舗のお食事処です。海鮮系が安く、とても美味しいです。地元で獲れた魚介類なので、新鮮で、刺身から煮魚、天ぷらまで、とにかく何でも美味しいです。その他にも、昔ながらの中華そばや昭和を感じるカレーなどもあります。土日の昼時は結構混み合います。,626-0041 京都府宮津市鶴賀２０６６−５６,0.7時間,駐車場あり,通年,1500円,何人でも,少し混んでいる,屋内,35.5348368,135.1992477,0,子連れ家族
国道４８２号線（兵庫側）,"https://motospot.jp/img/spot/img-1440-2-medium.jpg",兵庫県の香美町と鳥取県の若桜町を結ぶ国道です。香美町の小代地区から峠までは酷道です。冬期は通行止になります。1車線区間が多少あります。秘境感満載で、鹿や熊が出てきそうな雰囲気です。携帯電話は届かない可能性あり。通過時間は兵庫側で１時間弱。おすすめは兵庫側です。コンビニ等近くにないので注意です。土日祝日はライダーがちらほらいます。,667-1533 兵庫県美方郡香美町小代地区,1時間,不明,秋,1000円,一人,普通,屋外,35.4153333,134.4983747,0,子連れ家族
道の駅 やぶ,"https://motospot.jp/img/spot/img-100768-medium.jpg",兵庫県にある道の駅「やぶ」です。,667-0112 兵庫県養父市養父市場１２９４−７７,1時間,駐車場あり,通年,無料,何人でも,普通,屋内,35.3822645,134.8159826,2,道の駅
山手八番館,"https://motospot.jp/img/spot/img-2209-0-medium.jpg",山手八番館は北野異人館街にある歴史的な建物です。館内には、ロダンやベルナールといった著名な彫刻家の作品や希少なアジアの仏像も展示されています。一番の見どころは、サターンの椅子と呼ばれる2対の椅子です。サターンの椅子に座ると、願いが叶うと言われており、これまで様々なメディアに取り上げられました。北野異人館街は急な坂が多く、山手八番館はかなり坂の上の方にあります。駐車場がないので、コインパーキングなど別の場所に停めて歩いて向かうことになります。,650-0002 兵庫県神戸市中央区北野町２丁目２０−７,0.5時間,駐車場なし,通年,3000円,何人でも,少し混んでいる,屋内,34.7030365,135.1910303,0,子連れ家族
海津大崎,"https://motospot.jp/img/spot/img-2721-0-medium.jpg",滋賀県にある海津大崎は、琵琶湖の北端に位置する美しい景勝地です。特に春には、約800本のソメイヨシノがびわ湖岸に沿って約4kmにわたり咲き誇り、見事な桜のトンネルを形成します。樹齢80年を超えるこれらの桜は、近畿圏で桜の遅咲きの名所として知られ、毎年多くの花見客で賑わいます。海津大崎は「琵琶湖八景」の一つであり、「暁霧・海津大崎の岩礁」としても有名です。その絶妙な景色のコントラストは、湖の碧、遠くに望む竹生島との組み合わせで、訪れる人々を魅了します。地元の「美しいマキノ・桜守の会」が中心となり、この美しい景観の保全活動にも取り組んでいます。桜の季節は時計周りのみの一方通行になります。夏は夏で木陰が涼しく、バイク乗りには最高です。,520-1811 滋賀県高島市マキノ町,1時間,不明,春,無料,何人でも,混んでいる,屋外,35.4970135,136.0301014,1,恋人
道の駅 但馬楽座,"https://motospot.jp/img/spot/img-100769-medium.jpg",兵庫県にある道の駅「但馬楽座」です。,667-0131 兵庫県養父市上野２９９,1時間,駐車場あり,通年,無料,何人でも,普通,屋内,35.3787591,134.7840694,2,道の駅
和歌山城,"https://motospot.jp/img/spot/img-418-medium.jpg",紀州徳川の西日本の拠点のひとつであり、和歌山県のシンボルとも言えるお城です。それほど広くなく、近所の人がよく散歩に来る人気のスポットです。ツーリングで来ても城まで散歩感覚で歩いていけます。近くに無料で開放されている動物園もあり、1人でも楽しめる場所です。,640-8146 和歌山県和歌山市一番丁３,1時間,駐車場あり,通年,410円,何人でも,少し空いている,屋内,34.2263956,135.1711786,0,子連れ家族
石龕寺,"https://motospot.jp/img/spot/img-2210-0-medium.jpg",足利氏ゆかりの寺で紅葉の名所です。11月に、もみじ祭りが行われ、武者行列など多彩な行事が催されます。足利尊氏とその子供が身を寄せていたこともあり、足利家とゆかりの深い寺としても知られています。山奥にあるため道の狭いところがあります。秋には美しい紅葉が見られ観光客で賑わいます。,669-3141 兵庫県丹波市山南町岩屋2,1時間,駐車場あり,秋,1000円,何人でも,少し空いている,屋外,35.0938538,135.0163225,0,子連れ家族
道の駅 みなみ波賀,"https://motospot.jp/img/spot/img-100770-medium.jpg",兵庫県にある道の駅「みなみ波賀」です。,671-4241 兵庫県宍粟市波賀町安賀８−１,1時間,駐車場あり,通年,無料,何人でも,普通,屋内,35.148142,134.539807,2,道の駅
信貴山のどか村,"https://motospot.jp/img/spot/img-419-medium.jpg",キャンプ場のある自然と遊べる公園です。季節の野菜や果物の味覚狩りや卵狩りを体験でき、羊などの動物と触れ合える場所もあります。アスレチックも充実しており、家族で自然の中で思いっきり遊べます。広い芝生の広場もあり、1日いても飽きずに楽しめます。,636-0833 奈良県生駒郡三郷町信貴南畑１丁目７−１,5時間,駐車場あり,秋,2000円,複数人,普通,屋外,34.6031515,135.6586079,0,子連れ家族
ひまわり園,"https://motospot.jp/img/spot/img-1187-medium.jpg",五條市ひまわり園は、少し山を登ったところのJR和歌山線沿いにあり、7月〜8月の夏真っ盛りの時期に10万本のひまわりが咲き乱れる、いわゆる映えスポットです。とにかくひまわりがあちらこちらに咲いていて、なんだか普段の日常を忘れさせてくれます。カップルにはとってもおすすめのスポットです。,637-0073 奈良県五條市上野町２５９,0.8時間,駐車場あり,夏,無料,何人でも,普通,屋外,34.3369867,135.6694161,0,子連れ家族
神子畑選鉱場跡,"https://motospot.jp/img/spot/img-1699-1-medium.jpg",鉱石を選鉱する大規模な機械選鉱施設として建設された東洋一の選鉱場の跡地で、当時のコンクリートで作られた建物がそのまま残る日本遺産に登録されているスポットです。あまり有名ではありませんが、壮大な選鉱場跡地として訪れる人を魅了する場所です。,679-3453 兵庫県朝来市佐嚢１８４２−１,0.6時間,駐車場あり,通年,無料,何人でも,空いている,屋外,35.2436571,134.7172107,0,子連れ家族
道の駅 しんぐう,"https://motospot.jp/img/spot/img-100771-medium.jpg",兵庫県にある道の駅「しんぐう」です。,679-4342 兵庫県たつの市新宮町平野９９−２,1時間,駐車場あり,通年,無料,何人でも,普通,屋内,34.9222679,134.5372073,2,道の駅
白鬚神社,"https://motospot.jp/img/spot/img-420-1169-medium.jpg",車やバイクで走りながらも見える湖の中に立つ鳥居が目を引く神社です。白鬚という名前の通り延命長寿にご利益があり、他にも恋愛成就なとさまざまなご利益があるとされる近江で最も古い神社です。写真映えのする場所なので、カメラを片手に観光する人が多いです。,520-1122 滋賀県高島市鵜川２１５,0.5時間,駐車場あり,夏,無料,何人でも,少し混んでいる,屋外,35.2746343,136.0113136,1,恋人
有馬温泉,"https://www.kepco.co.jp/brand/citylights/arima_onsen/images/img_arima_onsen.jpg",金泉・銀泉が有名な近畿の大型温泉街です。山間を抜けた先にあり、自然あふれる情景、昔ながらの温泉街と今風のモダンカフェが融合した独特な街並みがあります。温泉の他にジェラートや釜飯も有名で、温泉を楽しんだ後は温泉街を散策して、楽しむことができます。,651-1401 兵庫県神戸市北区有馬町,12時間,駐車場あり,通年,10000円,複数人,混んでいる,屋内,34.7987891,135.2467896,1,恋人
とれとれ市場南紀白浜,"https://motospot.jp/img/spot/img-2468-0-medium.jpg",西日本最大の海鮮マーケットで、地元でとれた魚や全国の新鮮な魚達が堪能できます。味も鮮度も抜群なのに価格が非常にリーズナブルです。新鮮なお魚やお刺身が食べられてたり海鮮BBQが出来たりとお魚好きにはたまらないスポットになっています。お土産コーナーでは新鮮なお魚達を買って帰ることが出来るので、家でも新鮮なお魚の味を楽しむことが出来ます。,649-2201 和歌山県西牟婁郡白浜町堅田,1.5時間,駐車場あり,通年,2500円,複数人,混んでいる,屋内,33.6782195,135.3778817,0,子連れ家族
道の駅 R427かみ,"https://motospot.jp/img/spot/img-100772-medium.jpg",兵庫県にある道の駅「R427かみ」です。,679-1322 兵庫県多可郡多可町加美区鳥羽７３３−１,1時間,駐車場あり,通年,無料,何人でも,普通,屋内,35.1889579,134.9301689,2,道の駅
三木洋菓子店,"https://motospot.jp/img/spot/img-2213-0-medium.jpg",滋賀県の国道307号線にある地元で人気の洋菓子店です。田園風景広がる中にポツンと佇んでおり、周りには自然豊かな景色が広がっています。建物もとてもオシャレな作りで建築物が好きな方も訪れても楽しめるスポットです。ツーリングの休憩で立ち寄るライダーも沢山います。休日は混み合うこともあるので、平日が狙い目です。,527-0162 滋賀県東近江市妹町１７６５−１,1時間,駐車場あり,春,1000円,複数人,普通,屋内,35.0968155,136.2481049,0,子連れ家族
道の駅 あおがき,"https://motospot.jp/img/spot/img-100773-medium.jpg",兵庫県にある道の駅「あおがき」です。,669-3803 兵庫県丹波市青垣町西芦田５４１,1時間,駐車場あり,通年,無料,何人でも,普通,屋内,35.2415838,135.0097036,2,道の駅
赤福　外宮前店,"https://motospot.jp/img/spot/img-422-medium.jpg",伊勢神宮の外宮からほど近い場所にある伊勢名物の赤福が食べられるお店です。赤福は一口サイズの餅をなめらかなこし餡で包んだお菓子です。伊勢神宮の内宮にある本店よりも空いており、ゆったりとお茶の時間を楽しめます。,516-0074 三重県伊勢市本町１４−１,0.5時間,駐車場なし,冬,500円,何人でも,少し空いている,屋内,34.4881141,136.7067808,1,恋人
大興寿司,"https://motospot.jp/img/spot/img-1190-medium.jpg",大阪の名物「串カツ」と「通天閣」で有名な新世界にある老舗の寿司屋さんです。とにかく寿司が安くて旨いです。酒を一杯やりながら、目の前で職人が握る寿司と昭和の風情漂う店の雰囲気と相まって、とってもいい感じです。まぁ、寿司食ってから、串カツってのが、おすすめです。,556-0002 大阪府大阪市浪速区恵美須東３丁目２−１８,0.8時間,駐車場なし,通年,2000円,何人でも,普通,屋内,34.6497891,135.5061678,0,子連れ家族
鬼ヶ城,"https://motospot.jp/img/spot/img-2470-0-medium.jpg",自然にできた芸術で、天然記念物です。山頂には、戦国時代の城跡があり、熊野古道・松本峠と連結するハイキングコースが整備されています。鬼の見晴台といわれる展望台からは、熊野灘が一望できます。山頂へ通じるハイキングコースは一面、桜が植えられており、春になると、4種類の桜が次から次へと開花します。春の季節は特におすすめです。,519-4323 三重県熊野市木本町１８３５,1.5時間,駐車場あり,春,無料,何人でも,少し空いている,屋外,33.8925906,136.1153899,0,子連れ家族
道の駅 ハチ北,"https://motospot.jp/img/spot/img-100774-medium.jpg",兵庫県にある道の駅「ハチ北」です。,667-1334 兵庫県美方郡香美町村岡区福岡６０８−１,1時間,駐車場あり,通年,無料,何人でも,普通,屋内,35.4113426,134.5998328,2,道の駅
阪神甲子園球場,"https://motospot.jp/img/spot/img-423-medium.jpg",西宮市に位置する競技場で、阪神タイガースの本拠地です。夏には全国高校野球選手権大会が開催される有名な場所です。蔦の絡まった外観がかっこよく、試合を見るだけでなく、外をぐるっとまわるだけでも楽しめる場所です。,663-8152 兵庫県西宮市甲子園町１−８２,4時間,駐車場あり,夏,3000円,何人でも,少し混んでいる,屋内,34.721307,135.3619046,0,子連れ家族
道の駅 あわじ,"https://motospot.jp/img/spot/img-100775-medium.jpg",兵庫県にある道の駅「あわじ」です。,656-2401 兵庫県淡路市岩屋１８７３−１,1時間,駐車場あり,通年,無料,何人でも,普通,屋内,34.6013347,135.0093629,2,道の駅
西宮神社社家町,"https://motospot.jp/img/spot/img-424-medium.jpg",毎年お正月に福男を決める行事が行われることで有名な神社です。大人の男たちが本殿を目指して本気で走り抜けていく姿は圧巻です。商売繁盛のご利益があり、お店を切り盛りしている人が全国各地から訪れます。門前からも厳かな雰囲気が感じられます。,662-0974 兵庫県西宮市社家町１−１７,1時間,駐車場あり,冬,無料,何人でも,少し混んでいる,屋外,34.7343612,135.3357886,0,子連れ家族
キザクラカッパカントリー,"https://motospot.jp/img/spot/img-1192-medium.jpg",京都伏見の酒造メーカー「黄桜」が運営する食事処や土産物店、記念館を兼ね備えた施設です。食事処では、日本酒はもちろん、地ビールの飲み比べも出来ます。料理もとっても美味しくて、特にかす汁は絶品です。飲んで食べて、お土産も買える、伏見の酒蔵観光の際は、是非立ち寄ってみてください。,612-8046 京都府京都市伏見区塩屋町２２８,1.2時間,駐車場あり,通年,2500円,何人でも,普通,屋内,34.9309012,135.7603862,0,子連れ家族
藤原宮跡,"https://motospot.jp/img/spot/img-2728-0-medium.jpg",奈良県橿原市にある藤原宮跡は、日本の歴史において重要な場所です。約1300年前、持統、文武、元明の三代の天皇が治めた都、藤原京の中心に位置していました。藤原宮は、日本で初めて造られた瓦葺の宮殿で、政治の中枢施設や天皇や皇后の住まいがあった場所です。現在は朱塗りの列柱が数か所再現されているのみですが、四季折々の花が植えられていて、春には菜の花と桜、秋にはコスモスが楽しめます。藤原宮の規模は東西約5.3km、南北約4.8kmに及び、天皇の住まいである内裏や、天皇が儀式や政治を行った大極殿跡が残っています。現在の藤原宮跡は、広大な敷地に遺構が点在し、歴史的な価値が高い場所として知られています。日本古代史の一端を感じ取ることができます。,634-0072 奈良県橿原市醍醐町,0.5時間,駐車場あり,秋,無料,何人でも,少し空いている,屋外,34.5077331,135.8054355,0,子連れ家族
道の駅 みき,"https://motospot.jp/img/spot/img-100776-medium.jpg",兵庫県にある道の駅「みき」です。,673-0433 兵庫県三木市福井２４２６番地先,1時間,駐車場あり,通年,無料,何人でも,普通,屋内,34.7873259,134.977258,2,道の駅
いなべ市農業公園　梅林公園,"https://motospot.jp/img/spot/img-1449-0-medium.jpg",車通りの少ない林道を抜けると広大な梅園が広がります。38ヘクタールの広さで、広大な梅林は実梅と花梅が広がる庭園のようなつくりになっています。農業体験もできるようです。 毎年春には「梅まつり」が開催され、多くの観光客で賑わいます。,511-0501 三重県いなべ市藤原町鼎７１７,1時間,駐車場あり,春,無料,何人でも,少し混んでいる,屋外,35.22724240000001,136.4922002,0,子連れ家族
天神崎,"https://motospot.jp/img/spot/img-1961-0-medium.jpg",天神崎は、和歌山県の西側にある田辺湾に突き出た岬で、引き潮のときには大きな干潟が現れます。そこには、海の生き物や鳥など無数の生物たちを見ることができます。また、そのときの風や天気などの条件が合えば、ウユニ塩湖のように水面に空が反射して幻想的な写真が撮れるため映えスポットとしても人気です。西側に位置しているため海の向こうに沈んでいく夕日がとてもきれいで、和歌山県の朝日夕陽百選にもなっています。最後の道が海沿いの狭い道路にはなりますが、広くて何台も停められる駐車場がいくつかあります。,646-0050 和歌山県田辺市天神崎,1時間,駐車場あり,通年,無料,何人でも,少し混んでいる,屋外,33.730437,135.3593146,1,恋人
道の駅 うずしお,"https://motospot.jp/img/spot/img-100777-0-medium.jpg",淡路島最南端の道の駅。淡路島と四国を結ぶ鳴門大橋があり、鳴門の渦潮も見ることができます。レストランや土産店などがあり、淡路島特産の玉ねぎを使ったハンバーガーなどが有名です。土日などの休日には車やバイクが多く、渋滞することもしばしば。うずまちテラス限定の「The あわじ島ダブルバーガー〜淡路島なるとオレンジソース〜」が看板メニューとして販売されています。たまねぎの形のおっ玉チェアには、スマホ台が設置された写真撮影スポットがあります。また、リアルなたまねぎの皮柄のテーブルハウスでハンバーガーを食べるお客さんでにぎわっています。駐車場から見る鳴門海峡のパノラマ景色が絶景で写真を撮りたくなること間違いなしです。,656-0503 兵庫県南あわじ市福良丙９４７−２２,1時間,駐車場あり,通年,無料,何人でも,普通,屋内,34.2419887,134.6599616,2,道の駅
浜のうたせ,"https://arida-kanko.com/wp/wp-content/uploads/2021/02/%E6%B5%9C%E3%81%AE%E3%81%86%E3%81%9F%E3%81%9B.png",有田市にある箕島漁港直営の産直市場です。漁港敷地内にありますので、水揚げされたままの新鮮なお魚を購入することができます。魚介以外にも、野菜や果物、お土産類も販売しています。レストラン併設ですので海鮮丼やお魚料理などをメインに楽しむことができます。,649-0316 和歌山県有田市宮崎町２４８９,0.5時間,駐車場あり,通年,3000円,複数人,少し空いている,屋内,34.0783074,135.0943778,0,子連れ家族
道の駅 播磨いちのみや,"https://motospot.jp/img/spot/img-100778-medium.jpg",兵庫県にある道の駅「播磨いちのみや」です。,671-4133 兵庫県宍粟市一宮町須行名５１０−１,1時間,駐車場あり,通年,無料,何人でも,普通,屋内,35.088439,134.58823,2,道の駅
有田　みかん海道,"https://arida-kanko.com/wp/wp-content/uploads/2021/02/mikankaido-e1613990729129.jpg",有田みかん海道とは、和歌山県有田市の湾岸線を走る約5kmの海岸通りです。ロードサイドにはイタリアンレストラン、喫茶、キャンプ場などもあり、風景がきれいです。北側は有田市街から遠景は和歌山市方面、南側は湯浅湾から紀伊水道を望めます。桜の時期には、東屋付近で桜と海景色の共演が楽しめますが、混み合います。,649-0316 和歌山県有田市宮崎町１０５２,0.5時間,駐車場なし,春,無料,何人でも,少し空いている,屋外,34.073231,135.1166362,1,恋人
三田天然温泉 寿ノ湯,"https://motospot.jp/img/spot/img-2731-0-medium.jpg",兵庫県三田市にある「三田天然温泉 寿ノ湯」は、新型ライフスタイル温泉として知られています。80年の時を経て再開されたこの施設は、五感を解き放つリラクゼーションの場として人気です。質の良い温泉、おいしい食事、刺激と発見に満ちたライブラリー、身体を動かすためのジムや岩盤浴など、多様な施設があります。寿ノ湯は、温泉とサウナ、ジム、岩盤浴、一万冊のライブラリーを備えており、1日中過ごせる場所です。バレルサウナも特におすすめです。営業時間は10:00から23:00までで、水曜日が定休日です。,669-1547 兵庫県三田市富士が丘５丁目２,5時間,駐車場あり,通年,1900円,何人でも,少し混んでいる,屋内,34.8922897,135.2016583,0,子連れ家族
道の駅 フレッシュあさご,"https://motospot.jp/img/spot/img-100779-medium.jpg",兵庫県にある道の駅「フレッシュあさご」です。,679-3433 兵庫県朝来市岩津９６,1時間,駐車場あり,通年,無料,何人でも,普通,屋内,35.213104,134.7942262,2,道の駅
りんくうマーブルビーチ,"https://dakara-m.cocolog-nifty.com/photos/uncategorized/zfc_9299.jpg",りんくうマーブルビーチは、大阪府泉佐野市にある白い大理石を敷き詰めた珍しいビーチです。約900mほどあり、関西国際空港が見渡せる場所にあります。2006年に大阪府で初めて「恋人の聖地」に認定され、2018年には白いビーチに映えるハートのモニュメントが設置されました。このビーチは、対岸の関西国際空港から離着陸する飛行機を眺めながらの夕景が美しく、日本の夕日百選にも選ばれています。多くのツーリングライダーが夕日をバックにバイクを撮影するために訪れます。また、近隣にはりんくうアウトレットもあり、ショッピングと合わせて立ち寄ることができます。,598-0047 大阪府泉佐野市りんくう往来南７−１,0.5時間,駐車場あり,通年,無料,何人でも,少し空いている,屋外,34.4032076,135.2897994,0,子連れ家族
道の駅 宿場町ひらふく,"https://motospot.jp/img/spot/img-100780-medium.jpg",兵庫県にある道の駅「宿場町ひらふく」です。,679-5331 兵庫県佐用郡佐用町平福９８８−１,1時間,駐車場あり,通年,無料,何人でも,普通,屋内,35.0449305,134.3694256,2,道の駅
水生植物公園みずの森,"https://motospot.jp/img/spot/img-941-medium.jpg",滋賀県ならではの琵琶湖に関する水生植物全般の植物園です。蓮や睡蓮の違いなどを楽しく学ぶことができます。また、琵琶湖の歴史も学ぶことができます。休日には市民による演奏会なども開催されており、恋人の聖地にも認定されています。ゆるいお散歩デートにも最適な場所です。アクセス道路も素敵な景色が楽しめます。,525-0001 滋賀県草津市下物町１０９１,2時間,駐車場あり,通年,300円,何人でも,少し空いている,屋内,35.0730509,135.9399398,0,子連れ家族
道の駅 あゆの里 矢田川,"https://motospot.jp/img/spot/img-100781-medium.jpg",兵庫県にある道の駅「あゆの里 矢田川」です。,667-1361 兵庫県美方郡香美町村岡区長瀬９３３−１,1時間,駐車場あり,通年,無料,何人でも,普通,屋内,35.5564981,134.5705258,2,道の駅
道の駅 とうじょう,"https://motospot.jp/img/spot/img-100782-medium.jpg",兵庫県にある道の駅「とうじょう」です。,673-1341 兵庫県加東市南山１丁目５−３,1時間,駐車場あり,通年,無料,何人でも,普通,屋内,34.8942042,135.0757051,2,道の駅
般若寺,"https://motospot.jp/img/spot/img-431-medium.jpg",別名コスモス寺とも呼ばれる寺で、飛鳥時代から続く歴史あるお寺です。秋になると、お寺の周りに色とりどりのコスモスが咲き乱れます。コスモスの写真を撮りに毎年多くの観光客が訪れます。趣ある寺をバックに見るコスモスは格別です。,630-8102 奈良県奈良市般若寺町２２１,1時間,駐車場あり,秋,500円,何人でも,少し混んでいる,屋外,34.700167,135.8361544,0,子連れ家族
道の駅 いながわ,"https://motospot.jp/img/spot/img-100783-medium.jpg",兵庫県にある道の駅「いながわ」です。,666-0224 兵庫県川辺郡猪名川町万善竹添７０−１,1時間,駐車場あり,通年,無料,何人でも,普通,屋内,34.9192995,135.351947,2,道の駅
道の駅 東浦ターミナルパーク,"https://motospot.jp/img/spot/img-100784-medium.jpg",兵庫県にある道の駅「東浦ターミナルパーク」です。,656-2305 兵庫県淡路市浦６４８,1時間,駐車場あり,通年,無料,何人でも,普通,屋内,34.5374104,134.9924072,2,道の駅
大阪城,"https://motospot.jp/img/spot/img-433-medium.jpg",大阪城は有名な豊臣秀吉が作ったお城です。現在の城の中身は大阪城の歴史を詳しく紹介するボリューム満点の展示室になっており、社会見学などで訪れる人もたくさんいます。天守閣からは大阪の大都会を見下ろせます。冬にはプロジェクションマッピングもやっています。,540-0002 大阪府大阪市中央区大阪城１−１,1.5時間,駐車場あり,通年,600円,何人でも,少し混んでいる,屋内,34.6858721,135.5265557,0,子連れ家族
郡山城跡,"https://motospot.jp/img/spot/img-1201-medium.jpg",奈良県大和郡山にある郡山城跡は、豊臣秀吉の弟、羽柴秀長の居城であった郡山城の城跡です。城跡の中には、公園や郡山高校があり、誰でも無料で城跡の中を見て歩けます。春の時期にはお堀端の桜がとっても綺麗で、特にお城まつりが開催されている時期には、露店が城跡内に建ち並び、観光客で毎年賑わっています。ツーリングがてらの散策にはピッタリのスポットです。,639-1011 奈良県大和郡山市城内町２−２５５,1時間,駐車場あり,春,無料,何人でも,少し空いている,屋外,34.6517646,135.7791578,1,恋人
鳥羽展望台,"https://motospot.jp/img/spot/img-2481-1-medium.jpg",「鳥羽展望台海女のテラス」としてリニューアルオープンしました。食事やお土産、景色が楽しめます。三重県内をドライブ・ツーリングするなら外せないパールロードにある展望台です。海抜163mに位置し、日の出スポットとしても有名なので、元旦は特に混み合います。売店やレストランも併設されているので、休憩には丁度良いスポットです。,517-0031 三重県鳥羽市国崎町,1時間,駐車場あり,通年,無料,何人でも,少し空いている,屋外,34.4178234,136.914966,0,子連れ家族
道の駅 北はりまエコミュージアム,"https://motospot.jp/img/spot/img-100785-medium.jpg",兵庫県にある道の駅「北はりまエコミュージアム」です。,677-0022 兵庫県西脇市寺内５１７−１,1時間,駐車場あり,通年,無料,何人でも,普通,屋内,35.0076694,134.9871112,2,道の駅
興福寺 五重塔,"https://motospot.jp/img/spot/img-434-medium.jpg",近鉄奈良駅から徒歩圏内にある興福寺の五重塔は、日本で二番目に高い古塔であり、50mの高さがあります。間近で見ると迫力があり、歴史の重みを感じられる建物です。昼は鹿とのコラボレーション、夜はライトアップが魅力的です。,630-8213 奈良県奈良市登大路町４８,0.5時間,駐車場あり,通年,無料,何人でも,空いている,屋外,34.6835259,135.8325411,0,子連れ家族
伊丹スカイパーク,"https://motospot.jp/img/spot/img-946-medium.jpg",伊丹空港のすぐ真横にあり、公園が滑走路に併設されており、飛行機の離発着が間近で見ることが出来る。カフェや売店も併設されているので、ツーリングで一息つきたいときにオススメです。夜には公園がライトアップされ、また違った景色が見られます。,664-0842 兵庫県伊丹市森本７丁目９−１−１,1時間,駐車場あり,春,無料,何人でも,少し空いている,屋内,34.7788102,135.4406121,0,子連れ家族
マリーナ河芸,"https://motospot.jp/img/spot/img-1202-medium.jpg",車・バイク好きの人にはオススメのスポットです。砂浜が綺麗なので写真映えスポットにもなっています。近くでキャンプしている人もいます。駐車場は海岸の近くに停められます。アイスクリームが絶品です。,510-0303 三重県津市河芸町東千里８５４−３,0.5時間,駐車場あり,夏,無料,一人,普通,屋外,34.7982258,136.5632443,0,子連れ家族
海津大崎の桜,"https://motospot.jp/img/spot/img-1714-0-medium.jpg",滋賀県高島市マキノ町にある桜並木が美しい道です。お花見シーズンの土日は混んでおり、交通規制などもありますが平日の早朝に行くと、人が少なく空いており、ゆっくり桜を鑑賞できるスポットです。駐車場もありますが、ほとんどが道端に空いているスペースを見つけ、停めるような形になります。コースは若干の山道になりますが、湖に面しているため、湖と山、両方の景色を楽しむことができます。,520-1811 滋賀県高島市マキノ町海津,2時間,駐車場あり,春,無料,何人でも,少し混んでいる,屋外,35.4656616,136.0854137,1,恋人
道の駅 あいおい白龍城,"https://motospot.jp/img/spot/img-100786-medium.jpg",兵庫県にある道の駅「あいおい白龍城」です。,678-0053 兵庫県相生市那波南本町８−５５,1時間,駐車場あり,通年,無料,何人でも,普通,屋内,34.8042025,134.4610643,2,道の駅
ラーメンショップなまず峠店,"https://motospot.jp/img/spot/img-1203-medium.jpg",国道二号線沿い、兵庫県と岡山県の県境に程近い、なまず峠にあるこのお店は、西日本では珍しいラーメンショップの暖簾分け店です。細麺と豚骨風味のスープは、ラーショーならではの定番の美味しさです。ネギラーメンが有名ですが、土曜日の午前中の時間帯はラーメン（並）が450円と激安価格で食べられます。,678-1186 兵庫県赤穂市西有年３００８−１８−１,0.5時間,駐車場あり,通年,800円,何人でも,普通,屋内,34.8413135,134.3383486,0,子連れ家族
道の駅 淡河,"https://motospot.jp/img/spot/img-100787-medium.jpg",兵庫県にある道の駅「淡河」です。,651-1603 兵庫県神戸市北区淡河町淡河,1時間,駐車場あり,通年,無料,何人でも,普通,屋内,34.8132875,135.0956859,2,道の駅
生石高原,"https://motospot.jp/img/spot/img-436-1-medium.jpg",標高870mの紀美野町と有田川町にまたがる高原です。関西で１番と言われるほどのススキ野原が有名です。一面ススキ野原で遠くまで見える山々、障害物が一切見えず素晴らしい風景です。キャンプ場、レストランやトイレも併設されており、夏場はキャンプを楽しむ人もいます。現地まで行く道は信号が少ない山道でツーリングも楽しめます。山頂からは天気が良ければ四国や淡路島を見ることができます。,640-1114 和歌山県海草郡紀美野町中田８９９−２９,2時間,駐車場あり,秋,1000円,何人でも,少し空いている,屋外,34.1052707,135.3268656,0,子連れ家族
道の駅 丹波おばあちゃんの里,"https://motospot.jp/img/spot/img-100788-medium.jpg",兵庫県にある道の駅「丹波おばあちゃんの里」です。,669-4131 兵庫県丹波市春日町七日市７１０,1時間,駐車場あり,通年,無料,何人でも,普通,屋内,35.1660512,135.1167797,2,道の駅
大台ヶ原,"https://yamatoji.nara-kankou.or.jp/contents/images/0000003910/ad3d51ad4647278502e80f47f1218690.JPG",奈良県と三重県の境目にある、標高1695mの日出ヶ岳を最高峰とする台地です。主要な東大台と、原生的な森林が広がる西大台の２つの展望台があります。しんどすぎないハイキングコースと、整備された地面で誰でも気軽に自然を感じながら楽しむことができます。秋の紅葉シーズンには、ワインレッド色に染まったシロヤシロが一面に広がり絶景です。日出ヶ岳の展望台から360度パノラマ風景が堪能できます。最大の絶景ポイントである大蛇嵒の展望も素晴らしいです。大台ケ原ドライブウェイの終点にある大台ケ原ビジターセンターには食堂、お土産屋さんがあります。駐車場も200台、バイク専用も用意されています。,639-3702 奈良県吉野郡上北山村小橡６６０−１,2時間,駐車場あり,秋,無料,何人でも,少し空いている,屋外,34.1809436,136.0974559,1,恋人
山田池公園,"https://motospot.jp/img/spot/img-1973-0-medium.jpg",山田池公園は、大阪でも有数の大きな公園です。歴史ある公園で住宅地に位置していますが、とても静かな場所です。中心には大きな池があり、一年中様々な植物を楽しむことができます。アウトドア活動も楽しめるように十分整備されています。,573-0167 大阪府枚方市山田池公園１,1時間,バイク駐車場あり,通年,無料,何人でも,普通,屋外,34.8221688,135.6887973,0,子連れ家族
水無瀬神宮,"https://wmg2027.jp/upload_img/202201111134151692256555.jpg",水無瀬神宮は大阪府三島郡島本町にある神社で、旧社格は官幣大社です。現在は神社本庁の別表神社として位置づけられています。旧称は水無瀬宮と呼ばれていました。境内には環境庁認定の「名水百選」に選ばれた名水があり、多くの参拝者が訪れます。水無瀬神宮は、天王山の麓、北摂の住宅街の中に鎮守の杜として存在しており、自然豊かな環境に囲まれています。アクセスは阪急京都線「水無瀬駅」から徒歩約800メートル、またはJR東海道線「島本駅」「山崎駅」からそれぞれ約1kmの距離にあります。,618-0011 大阪府三島郡島本町広瀬３丁目１０−２４,1時間,駐車場あり,通年,無料,何人でも,空いている,屋外,34.8848694,135.6731539,1,恋人
道の駅 但馬のまほろば,"https://motospot.jp/img/spot/img-100789-medium.jpg",兵庫県にある道の駅「但馬のまほろば」です。,669-5153 兵庫県朝来市山東町大月９２−６,1時間,駐車場あり,通年,無料,何人でも,普通,屋内,35.311096,134.8700446,2,道の駅
王仁公園,"https://motospot.jp/img/spot/img-1974-0-medium.jpg",王仁公園は、9.3ヘクタールととても広大の敷地を誇ります。プールやグラウンドやテニスコートを楽しむのもいいですが、園内を散策される方も多数おられます。バイク置き場は広く屋根があり、雨の時に雨具を乾かすライダーが多く出没します。,573-0154 大阪府枚方市王仁公園,1時間,バイク駐車場あり,通年,無料,何人でも,普通,屋外,34.8178102,135.7065132,0,子連れ家族
東寺,"https://upload.wikimedia.org/wikipedia/commons/thumb/1/1f/Toji_2015.JPG/1200px-Toji_2015.JPG",東寺（とうじ）、正式には教王護国寺（きょうおうごこくじ）と呼ばれ、京都府京都市南区九条町に位置する寺院です。東寺は真言宗東寺派の総本山であり、本尊は薬師如来です。寺の山号は八幡山です。東寺は、794年（延暦13年）に創建され、平安京の鎮護として建立されました。その後、空海（弘法大師）によって真言宗の道場として発展しました。東寺は、1994年にユネスコの世界遺産に登録された「古都京都の文化財」の一部です。特に有名なのは、高さ約55メートルの五重塔で、これは京都市内からも望むことができ、京都のシンボルの一つとされています。五重塔は日本で最も高い木造塔の一つであり、春の桜や秋の紅葉の季節には多くの観光客で賑わいます。東寺には、国宝や重要文化財を含む多くの貴重な文化財が保存されており、その中には空海が持ち帰ったとされる仏像や経典などがあります。また、毎月21日には弘法市（こうぼういち）と呼ばれる市が開かれ、食料品から雑貨や衣服まで、数多くの露店が出店します。,601-8478 京都府京都市南区九条町１,2時間,駐車場あり,通年,無料,何人でも,少し混んでいる,屋外,34.9821316,135.7468388,0,子連れ家族
道の駅 ようか但馬蔵,"https://motospot.jp/img/spot/img-100790-medium.jpg",兵庫県にある道の駅「ようか但馬蔵」です。,667-0043 兵庫県養父市八鹿町高柳２４１−１,1時間,駐車場あり,通年,無料,何人でも,普通,屋内,35.3940031,134.7425362,2,道の駅
錦市場,"https://motospot.jp/img/spot/img-1719-0-medium.jpg",京都で人気の食べ歩きスポットです。市場の通路が狭いので、混雑することがあります。祝日には早い時間に行くことをオススメします。錦市場は海鮮や和菓子などが充実していて、ソフトクリームやきゅうりの1本漬けなど、様々な種類のグルメが味わえます。ご飯とスイーツどちらも楽しめます。,604-8054 京都府京都市中京区西大文字町609番地,1.5時間,駐車場なし,通年,2000円,何人でも,混んでいる,屋外,35.0044132,135.7648141,0,子連れ家族
北野天満宮,"https://kitanotenmangu.or.jp/wp-content/uploads/2022/10/img-slide-01.jpg",北野天満宮は、全国に約12000社ある天神社・天満宮の総本社です。947年（天暦元年）に創建されたこの神社は、平安時代に学者・政治家として活躍した菅原道真公を御祭神としており、現在は学問の神様として広く信仰されています。北野天満宮は、特に学業成就や合格祈願で知られ、受験生をはじめ多くの参拝者で賑わいます。また、梅と紅葉の名所としても有名で、特に梅の季節には「梅花祭」が開催され、多くの観光客で賑わいます。境内には約50種、約1500本の梅が植えられており、見事な梅林を楽しむことができます。北野天満宮のもう一つの見どころは、毎月25日に開催される「天神さんの縁日」です。この日には境内や周辺で多くの露店が出店し、賑わいを見せます。中でも2月25日は梅花祭が開催され、上七軒の舞妓さん・芸妓さんが野点のお茶を振るまってくれます（野点のお茶は有料）。梅園もあり、ちょうど梅が見頃な季節でもあります。拝観時間は季節によって異なりますが、夏期は5:00～18:00、冬期は5:30～17:30となっています。,602-8386 京都府京都市上京区馬喰町,2時間,駐車場あり,通年,無料,何人でも,空いている,屋外,35.0299253,135.735813,1,恋人
道の駅 みつ,"https://motospot.jp/img/spot/img-100791-medium.jpg",はりまシーサイドロードの道中にある道の駅です。建物には屋上デッキがあり、そこから瀬戸内海を一望できます。海岸まで降りることもでき、波打ち際で景色を楽しむことも可能です。海岸へ降りる階段の途中には鐘があり、写真スポットにもなっています。周辺の道路ははりまシーサイドロードと呼ばれ、勾配のある曲がりくねった海岸線を走るため、海の景色と峠の爽快感を同時に楽しめます。,671-1332 兵庫県たつの市御津町室津８９６−２３,1時間,駐車場あり,通年,無料,何人でも,普通,屋内,34.7798023,134.5233535,2,道の駅
まぐろレストラン,"https://motospot.jp/img/spot/img-952-medium.jpg",魚を加工する食品会社が運営するレストランです。海鮮丼がオススメです。元々はトラックドライバーの方々が多く利用していましたがそのコストパフォーマンスのよさからここ10年ぐらい前からメディアでも採り上げられ、開店直後に行列ができるほどの人気店です。,510-8005 三重県四日市市富双２丁目１−１５,0.5時間,駐車場あり,通年,1000円,何人でも,少し混んでいる,屋内,35.0038949,136.6629106,0,子連れ家族
二条城,"https://img.pretty-online.jp/wp-content/uploads/2023/03/08112102/news_naked_eye.jpg",二条城は、京都市中京区に位置する歴史的な城で、徳川家康によって1603年に建設されました。この城は、江戸幕府の京都における拠点として機能し、幕末の大政奉還が行われた場所としても知られています。二条城は、1994年に「古都京都の文化財」としてユネスコの世界遺産に登録されました。二条城の主な見どころは、国宝に指定されている二の丸御殿や、美しい庭園です。二の丸御殿は、豪華な障壁画で知られ、江戸時代の政治や文化の中心地としての役割を今に伝えています。また、城内には四季折々の美しい庭園があり、特に春の桜や秋の紅葉の季節には多くの観光客で賑わいます。アクセスは、地下鉄東西線「二条城前駅」から徒歩すぐ、またはJR「二条駅」からも徒歩圏内です。拝観時間や料金は季節によって異なる場合があるため、訪問前に公式サイトで確認することをオススメします。,604-8301 京都府京都市中京区二条城町５４１,2時間,駐車場あり,通年,1300円,何人でも,普通,屋外,35.0151103,135.7477878,0,子連れ家族
道の駅 あまるべ,"https://motospot.jp/img/spot/img-100792-medium.jpg",兵庫県にある道の駅「あまるべ」です。,669-6671 兵庫県美方郡香美町香住区余部１７２３−４,1時間,駐車場あり,通年,無料,何人でも,普通,屋内,35.6495276,134.5592618,2,道の駅
難波八坂神社,"https://motospot.jp/img/spot/img-953-medium.jpg",大阪市浪速区のオフィス街のど真ん中にある神社です。総本山は京都にある八坂神社で、敷地面積は大きくはありませんが、歴史ある神社です。特徴としては境内にはとても巨大で迫力のある獅子殿があります。,556-0016 大阪府大阪市浪速区元町２丁目９−１９,0.5時間,駐車場なし,通年,無料,何人でも,少し空いている,屋外,34.6616258,135.4967001,0,子連れ家族
まつもとの來來憲,"https://motospot.jp/img/spot/img-1721-0-medium.jpg",名物四日市トンテキのお店です。並んでも食べたいという人が続出するほどの評判があります。トンテキはボリューミーでご飯やキャベツとの相性は抜群！泊まりだったら1杯欲しくなるようなガッツリメニューです。ソースの味付けが絶妙で、付け合せのキャベツとニンニクの組み合わせは最高です。グローブタイプのトンテキで食べ応え抜群ですが、もう少し小さく頂きたい方向けにカットもしてくれます。優しい心遣いが嬉しいお店です。四日市にお立ち寄りの際はぜひ、チェックしてみてください。,510-0836 三重県四日市市松本２丁目７−２４,0.5時間,駐車場あり,通年,1540円,何人でも,少し混んでいる,屋内,34.9683944,136.5919493,0,子連れ家族
道の駅 福良,"https://motospot.jp/img/spot/img-100793-medium.jpg",兵庫県にある道の駅「福良」です。,656-0501 兵庫県南あわじ市福良甲１５２８−４,1時間,駐車場あり,通年,無料,何人でも,普通,屋内,34.2564572,134.7202069,2,道の駅
淡路ワールドパークONOKORO,"https://motospot.jp/img/spot/img-1210-medium.jpg",淡路ワールドパークONOKORO は、淡路島にあるにあるテーマパークです。「ミニチュアワールド」が有名で、世界各地の有名施設がミニチュアで再現されています。また、恐竜をテーマにした恐竜ワールド、ドイツ製本格ジオラマ、園内の各所に設置された撮影スポットなど、魅力あるアトラクションが沢山あります。,656-2142 兵庫県淡路市塩田新島８−５,5時間,駐車場あり,通年,3000円,何人でも,少し空いている,屋外,34.4167085,134.8986335,0,子連れ家族
藤白神社,"https://upload.wikimedia.org/wikipedia/commons/thumb/6/6c/241006_Fujishiro-jinja_Kainan_Wakayama_pref_Japan02s3.jpg/1200px-241006_Fujishiro-jinja_Kainan_Wakayama_pref_Japan02s3.jpg",平安時代に盛ん行われた熊野詣での由緒正しい礼拝所です。熊野古道・藤白坂の登り口に位置しています。（三熊野一の鳥居の石碑）飛鳥時代、神社から少し離れた地で有間皇子は処刑されたと伝えられています。また、全国の鈴木さん発祥の地とされ、近くに鈴木屋敷があります。境内には、幹回り１０メートルを超えるような千年楠と呼ばれる巨大な楠が存在します。,642-0034 和歌山県海南市藤白４６６,0.5時間,駐車場あり,通年,無料,何人でも,空いている,屋外,34.144321,135.2094069,0,子連れ家族
竹林の小径,"https://motospot.jp/img/spot/img-2746-0-medium.jpg",京都の嵐山にある竹林の小径は、京都を代表する観光スポットの一つです。約400メートルにわたって続くこの小径は、野宮神社から天龍寺北門を通り、大河内山荘へと抜ける道で、手入れされた竹林が道の両脇に続いています。平安時代には貴族の別荘地だったと言われており、晴れた日には木漏れ日が心地よく、また太陽のない日は昼でも薄暗くなることがあります。竹林の小径は、その美しい光景がテレビや写真でよく紹介され、国内外から多くの観光客が訪れます。春には新緑、夏には青々と茂る竹の葉、秋には風情あふれる黄金色、冬には雪景色と、四季折々の美しさを楽しむことができます。バイクで走行することも可能ですが、非常に混雑するので走行したりバイクを止めて写真を撮りたい場合は、早朝に行くことをオススメします。,616-8394 京都府京都市右京区嵯峨小倉山田淵山町,1時間,駐車場あり,通年,無料,何人でも,少し混んでいる,屋外,35.0170149,135.6701354,1,恋人
道の駅 山田錦発祥のまち・多可,"https://motospot.jp/img/spot/img-100794-medium.jpg",兵庫県にある道の駅「山田錦発祥のまち・多可」です。,679-1114 兵庫県多可郡多可町中区岸上２８１−１,1時間,駐車場あり,通年,無料,何人でも,普通,屋内,35.0589917,134.9188287,2,道の駅
鈴鹿サーキット,"https://motospot.jp/img/spot/img-955-medium.jpg",F1グランプリや8時間耐久レースといった世界最高峰のレースが行われる国際サーキットを中心としたアミューズメントパークです。遊園地では観覧車、ジェットコースター、メリーゴーランドの他に車やバイクにまつわるアトラクションが多いです。,510-0295 三重県鈴鹿市稲生町７９９２,6時間,駐車場あり,秋,5000円,何人でも,少し混んでいる,屋内,34.850004,136.5408654,0,子連れ家族
浜の宮ビーチ,"https://www.guruwaka.com/wp-content/uploads/beach-hamanomiya01.jpg",和歌浦湾と紀伊水道を望めるビーチです。沖合では小型～中型の貨物船も多く見ることができます。北は和歌浦　南はマリーナシティとリゾートマンション群です。紀伊水道に沈む夕日がきれいな場所でもあります。夏は海水浴とサーフィンで賑わいます。軽食等のお店もあります。（季節営業）,641-0014 和歌山県和歌山市毛見,0.5時間,駐車場あり,夏,無料,何人でも,空いている,屋外,34.1663664,135.1873106,0,子連れ家族
闘竜灘,"https://motospot.jp/img/spot/img-2747-0-medium.jpg",闘竜灘（とうりゅうなだ）は、兵庫県加東市上滝野にある加古川中流の名勝地です。この地域は、清流加古川の川底に奇岩・怪石が起伏し、落水の豪快なリズムと四季折々の水模様が魅力的なスポットとして知られています。竜の躍動に似た景観から「闘竜灘」と名付けられたと伝えられています。闘竜灘は、岩に阻まれた川の流れが激流や滝を形成しており、自然の力強さを感じることができる場所です。その壮大な自然景観に圧倒されます。また、この地域はハイキングや散策にも適しており、自然を楽しみながら健康的なアクティビティを楽しむことができます。四季折々の美しい景色を楽しむことができ、特に春の新緑や秋の紅葉の季節には、さらに美しい景観を楽しむことができます。アクセスは、車では中国自動車道「滝野社IC」より約5分、電車ではJR加古川線「滝駅」下車後、徒歩約5分の場所にあります。駐車場も完備されているため、車での訪問も便利です。鮎漁が有名で、近くには少しお高いですが、和食屋さんもあり一人でもゆったりと食事を楽しめます。,679-0211 兵庫県加東市上滝野,0.5時間,駐車場あり,夏,無料,何人でも,少し空いている,屋外,34.9432757,134.9577446,1,恋人
道の駅 神戸フルーツ・フラワーパーク大沢,"https://motospot.jp/img/spot/img-100795-medium.jpg",兵庫県にある道の駅「神戸フルーツ・フラワーパーク大沢」です。,651-1522 兵庫県神戸市北区大沢町上大沢２１５０,1時間,駐車場あり,通年,無料,何人でも,普通,屋内,34.8500593,135.1922098,2,道の駅
道の駅 山陰海岸ジオパーク浜坂の郷,"https://motospot.jp/img/spot/img-100796-medium.jpg",兵庫県にある道の駅「山陰海岸ジオパーク浜坂の郷」です。,669-6745 兵庫県美方郡新温泉町栃谷５７,1時間,駐車場あり,通年,無料,何人でも,普通,屋内,35.5676466,134.325746,2,道の駅
へんばや商店宮川店,"https://motospot.jp/img/spot/img-1725-0-medium.jpg",国道23号線沿いにある、伊勢名物へんば餅のお店です。大きな看板があり、和風の建物で目立ちます。店内ではへんば餅の他、さわ餅や季節によっては水ようかんなどがあります。イートインスペースがあるので購入したものを店内で食べることができます。,515-0505 三重県伊勢市西豊浜町３４２−１,0.5時間,駐車場あり,通年,500円,何人でも,空いている,屋内,34.5204099,136.6862617,0,子連れ家族
道の駅 銀の馬車道・神河,"https://motospot.jp/img/spot/img-100797-medium.jpg",兵庫県にある道の駅「銀の馬車道・神河」です。,679-2434 兵庫県神崎郡神河町吉冨88番地10号,1時間,駐車場あり,通年,無料,何人でも,普通,屋内,35.0912031,134.7782279,2,道の駅
光明寺,"https://motospot.jp/img/spot/img-1726-0-medium.jpg",安産祈願の「子安大師」と不老長寿の「寿老尊」が祀られています。別名「ふくろうの寺」と呼ばれており、境内にはふくろうが至る所にいます。夏になると約2000個の風鈴が飾られ、願いを風鈴に書いて奉納する事もできます。厄除け祈願の絵馬が少し変わっていて、厄を落としたい方にはオススメです。,679-0213 兵庫県加東市光明寺,0.5時間,駐車場あり,夏,無料,何人でも,空いている,屋外,34.9482363,134.9463471,0,子連れ家族
道の駅 吉野路 大塔,"https://motospot.jp/img/spot/img-100798-medium.jpg",奈良県にある道の駅「吉野路 大塔」です。,637-0417 奈良県五條市大塔町阪本２２５−６,1時間,駐車場あり,通年,無料,何人でも,普通,屋内,34.2141879,135.732953,2,道の駅
新福菜館 本店,"https://motospot.jp/img/spot/img-1215-medium.jpg",JR京都駅から徒歩圏内、通称「たかばし」にある第一旭と並京都ラーメンの老舗が、新福菜館です。店内は20人ほどが入れば満席になりますので、昼時、夕食時には行列待ちは覚悟しなければなりません。ここのラーメンはスープが醤油ベースのブラックです。味には独特のコクがあり、クセになること間違いないなしです。柔らかめの味の染みたチャーシューも美味しいです。,600-8213 京都府京都市下京区東塩小路向畑町５６９,0.5時間,不明,通年,1000円,何人でも,混んでいる,屋内,34.9861958,135.7623909,0,子連れ家族
志摩オートキャンプ場,"https://motospot.jp/img/spot/img-1471-0-medium.jpg",海がとても綺麗なキャンプ場です！時期によっては牡蠣を販売しており、焼いたり生のままだったり、旬の味覚を楽しむことができます。夕方の空がとても綺麗でうっとりします。ソロにもグループにもおすすめのキャンプ場です。冬は風がとても強く、タープは飛ばされるほどなので、気をつけてください。,517-0704 三重県志摩市志摩町越賀２２７９,22時間,駐車場あり,通年,5000円,何人でも,少し混んでいる,屋外,34.262205,136.7810415,0,子連れ家族
磯ノ浦,"https://motospot.jp/img/spot/img-2751-0-medium.jpg",磯ノ浦は和歌山県和歌山市の関西屈指のサーフィンスポットです。年間を通じてサーフィンが楽しめる海岸であり、海水浴シーズンには海水浴場とサーフィン場を分けて運営されています。小さな子どもからサーフィンの上級者まで、幅広い層の人々が安心して楽しむことができます。マリンパーク磯ノ浦では、サーフィンスクールや波情報の提供も行っており、サーフィン初心者から経験者まで、多くのサーファーに利用されています。また、磯ノ浦海水浴場は、遠浅で波も穏やかなため、家族連れにも人気のスポットです。磯ノ浦は、サーフィンや海水浴だけでなく、潮干狩りやバーベキューなど、海辺でのアクティビティを楽しむことができるので、自然豊かな環境の中で海のレジャーを満喫することができます。アクセスは、南海和歌山市駅から南海加太線で約20分の「磯ノ浦」駅下車すぐ、または阪和自動車道和歌山ICから車でアクセス可能です。駐車場も1500台収容可能で、1日800円で利用できます。,640-0114 和歌山県和歌山市二里ヶ浜,1時間,駐車場あり,通年,無料,何人でも,普通,屋外,34.2602614,135.0918961,0,子連れ家族
道の駅 吉野路 上北山,"https://motospot.jp/img/spot/img-100799-medium.jpg",奈良県にある道の駅「吉野路 上北山」です。,639-3701 奈良県吉野郡上北山村河合１−１,1時間,駐車場あり,通年,無料,何人でも,普通,屋内,34.1397126,135.9999825,2,道の駅
道の駅 杉の湯 川上,"https://motospot.jp/img/spot/img-100800-medium.jpg",奈良県にある道の駅「杉の湯 川上」です。,639-3553 奈良県吉野郡川上村迫６９５,1時間,駐車場あり,通年,無料,何人でも,普通,屋内,34.3370615,135.9548161,2,道の駅
雑賀崎灯台,"https://i.ytimg.com/vi/d29msBmb-ms/maxresdefault.jpg",雑賀崎灯台は和歌山県和歌山市にある灯台で、和歌浦の雑賀崎に位置しています。この灯台は、紀伊水道、淡路島、遥か四国の眺望を楽しむことができる展望スポットとしても知られています。昭和35年（1960年）3月31日に和歌山市が観光用の展望施設を整備し、海上保安庁が上部に灯台を新設しました。和歌山市は雑賀崎にある灯台で、夕日が絶景です。無人の灯台で広場や、花が植えてあるところもあり、よく手入れされています。切り立った崖の上にあり、老朽化した灯台ですが航行の目印としてしっかり役目を果たしています。紀伊水道を一望し、友ヶ島や淡路島、四国まで見る事ができます。夕日と問わず、景色のよく見える日中、夜景もおすすめです。土日には灯台の隣にあるカフェ「Oceanたかのすセンター」が開いています。キャンプ場もあり、遠くの波の音を聞きながらゆったりする時間はとても贅沢に思われます。アクセスは、JR和歌山駅からバスで40分（雑賀崎遊園下車後、徒歩約15分）または南海和歌山市駅からバスで40分の位置にあります。また、和歌山ICから車で約25分の距離にあり、駐車場も完備されています。,641-0062 和歌山県和歌山市雑賀崎８０９−２,0.5時間,駐車場あり,通年,500円,何人でも,少し空いている,屋外,34.1883165,135.1409555,1,恋人
道の駅 吉野路 黒滝,"https://motospot.jp/img/spot/img-100801-medium.jpg",奈良県にある道の駅「吉野路 黒滝」です。,638-0233 奈良県吉野郡黒滝村長瀬２２,1時間,駐車場あり,通年,無料,何人でも,普通,屋内,34.3065393,135.8231705,2,道の駅
鍬山神社,"https://morinokyoto.jp/manager/wp-content/uploads/2022/03/101113-085321-%E9%8D%AC%E5%B1%B1%E7%A5%9E%E7%A4%BE0149_R-1.jpg",鍬山神社は709年に建立された古いお寺です。神社周辺へ行く道はワィディングロードになっていて、走っていても楽しいです。季節外れは訪れる人が少ないですが、紅葉が綺麗な神社ですので、秋が特にオススメです。,621-0856 京都府亀岡市上矢田町上垣内２２−２,1時間,駐車場あり,秋,無料,何人でも,普通,屋外,34.9967496,135.5781698,0,子連れ家族
鷲ヶ峰コスモスパーク,"https://www.town.aridagawa.lg.jp/material/images/group/17/R3_cosmos.jpg",有田川町にある、標高586メートルの絶景ポイントです。その名のとおり、コスモスシーズンは数多くのコスモスが咲き乱れます。さえぎるものがないので、眼下の有田川流域や有田、湯浅方面から遠く淡路島から四国まで見渡せます。有田インターチェンジから30分ほどですが、道中の山道は対向困難な場所もありますので、ご注意ください。頂上には売店や販売機はありません。かつては風車がシンボルでしたが、今は撤去されています。,643-0841 和歌山県有田郡有田川町長谷２４４−２,1時間,駐車場あり,秋,無料,何人でも,普通,屋外,34.0925854,135.2334772,0,子連れ家族
びわ湖モニュメント,"https://motospot.jp/img/spot/img-2498-0-medium.jpg",滋賀県第2なぎさ公園にあります。BIWAKOモニュメントの前にバイクを持っていき写真が撮れます。バイクのエンジンは切って押していきます。琵琶湖も眺められて一緒に写真も撮れるのでおすすめです。琵琶湖が近いので春夏に行くと風がとても気持ち良いです。,524-0101 滋賀県守山市今浜町,0.5時間,駐車場なし,通年,無料,何人でも,空いている,屋外,35.11526509999999,135.9540529,0,子連れ家族
道の駅 ふたかみパーク當麻,"https://motospot.jp/img/spot/img-100802-medium.jpg",奈良県にある道の駅「ふたかみパーク當麻」です。,639-0272 奈良県葛城市新在家４０２−１,1時間,駐車場あり,通年,無料,何人でも,普通,屋内,34.5264565,135.693238,2,道の駅
大神神社,"https://motospot.jp/img/spot/img-707-medium.jpg",大神神社の歴史は古く、日本書紀・古事記にその由緒が書かれているほどで、日本最古の神社といわれています。ご祭神は国造りの神として知られる大物主神で、三輪山に鎮座されているといわれ、三輪山全体がご神体となっています。春には桜が綺麗に咲きます。,633-8538 奈良県桜井市三輪１４２２,1.5時間,駐車場あり,通年,無料,何人でも,少し混んでいる,屋外,34.528439,135.8523271,1,恋人
三室戸寺,"http://leafkyoto.net/leaf/wp-content/uploads/2022/02/220220-mimurotoji-1-1024x682.jpg",京都にある三室戸寺は、別名「あじさい寺」と言われています。例年、６月中旬から下旬にかけてあじさいが咲き乱れます。季節の花を写真に収めることが好きな方には特にオススメです！ただ、三室戸寺周辺の道は少し狭いので、車で来訪される方は注意が必要です。,611-0013 京都府宇治市莵道滋賀谷２１,1.5時間,駐車場あり,夏,1500円,何人でも,混んでいる,屋外,34.9002583,135.8197151,0,子連れ家族
和歌浦天満宮,"https://motospot.jp/img/spot/img-2243-0-medium.jpg",学問の神様、菅原道真をお祀りしています。大宰府天満宮、北野天満宮とともに、日本の3菅廟ともいわれています。本殿は国の重要文化財です。風光明媚な環境に建立されているので、自然を楽しみながらリラックスできるオススメスポットです。,641-0024 和歌山県和歌山市和歌浦西２丁目１−２４,1時間,駐車場あり,通年,1000円,何人でも,普通,屋外,34.1916263,135.1642422,0,子連れ家族
道の駅 宇陀路大宇陀,"https://motospot.jp/img/spot/img-100803-medium.jpg",奈良県にある道の駅「宇陀路大宇陀」です。,633-2164 奈良県宇陀市大宇陀拾生７１４−１,1時間,駐車場あり,通年,無料,何人でも,普通,屋内,34.4762318,135.9321824,2,道の駅
石舞台古墳,"https://motospot.jp/img/spot/img-708-medium.jpg",飛鳥歴史公園内にある我が国最大級の方墳で、古墳時代後期の古墳と考えられています。歴史の教科書でよく見る古墳ですが、想像以上に大きな遺構で、盛土が失われていて石室が露出しており、中に入ることができます。,634-0112 奈良県高市郡明日香村島庄２５４,1時間,駐車場あり,夏,無料,何人でも,少し空いている,屋外,34.4685263,135.8261937,1,恋人
煙樹ケ浜,"https://www.kkr.mlit.go.jp/kinan/fukeikaidokumano/kumano/area1/image/01enju_1.jpg",和歌山県美浜町にある全長約4kmの海岸です。大松原があり、江戸時代に防潮の目的で植えられました。夏はキャンプもでき、釣りもできます。足を少し伸ばせば、紀伊日御碕灯台（無人）があり、紀伊水道の見晴らしも抜群です。,644-0044 和歌山県日高郡美浜町和田県道24号線,1時間,不明,夏,無料,何人でも,空いている,屋外,33.8969721,135.1295957,0,子連れ家族
道の駅 十津川郷,"https://motospot.jp/img/spot/img-100804-medium.jpg",奈良県にある道の駅「十津川郷」です。,637-1333 奈良県吉野郡十津川村小原２２５−１,1時間,駐車場あり,通年,無料,何人でも,普通,屋内,33.9882376,135.793851,2,道の駅
空のあお 海のあを Roti,"https://motospot.jp/img/spot/img-197-medium.jpg",近江富士と呼ばれている三上山のふもとにある花緑公園内のカフェです。登山する時に寄ったり、公園内で自然を感じながらコーヒーを飲むのもいいです。この地域一帯に自然があふれてるため、ツーリングには最適です。,520-2321 滋賀県野洲市北桜９７８−９６,1時間,駐車場あり,通年,2000円,一人,少し空いている,屋内,35.0444547,136.0447937,0,子連れ家族
ラコリーナ近江八幡,"https://motospot.jp/img/spot/img-453-0-medium.jpg",ラ コリーナ近江八幡は「自然を愛し、自然に学び、人々が集う繋がりの場」をコンセプトにした自然を楽しめる観光スポットです。田畑がある広大な敷地の中に和・洋菓子のメインショップをはじめ、自社農園のキャンディーファーム、本社、飲食店、マルシェ、専門ショップ、パンショップなど、様々な施設があります。滋賀県の定番手土産バームクーヘンが有名なクラブハリエのショップもあります。屋根一面が芝におおわれたメインショップや百本以上もの栗の木を使って建てられたカステラショップなど自然を感じながらゆったりと過ごせます。,523-8533 滋賀県近江八幡市北之庄町６１５−１,1時間,駐車場あり,通年,1000円,何人でも,少し混んでいる,屋内,35.1487591,136.0916477,0,子連れ家族
施無畏寺,"https://www.yuasa-kankokyokai.com/app/wp-content/uploads/2021/03/989aaa3eca6d865c3fa368563e9124b4-1200x750.jpg",鎌倉時代の高僧「明恵上人」が開祖のお寺です。この周辺は明恵上人が若い頃に修行をしたところと言われています。また桜の名所でもあり、海に近いので海と桜のコントラストが非常にきれいです。すぐ下にある、栖原海岸も非常に美しい砂浜です。,643-0005 和歌山県有田郡湯浅町栖原１４６５,1時間,不明,春,無料,何人でも,少し混んでいる,屋外,34.0476258,135.1621777,0,子連れ家族
多賀大社,"https://motospot.jp/img/spot/img-2757-0-medium.jpg",多賀大社は、滋賀県犬上郡多賀町にある神社で、古事記にも名が出てくる古い神社です。旧社格は官幣大社で、現在は神社本庁の別表神社となっています。古くから「お多賀さん」として親しまれており、日本最古の書物「古事記」によると、この両神は神代の昔に、初めて夫婦の道を始められ、我国の国土、特に多賀の地を開拓されたとされています。多賀大社は、延命長寿・縁結びの神として全国的な信仰を集めています。祭神としては、天照大神の両親である伊邪那岐命（いざなぎのみこと）と伊邪那美命（いざなみのみこと）を祀っています。豊臣秀吉にも厚い信仰があったと伝えられています。杓子がお守りになっている珍しい神社（ほかに厳島神社）です。一歩踏み入れると、荘厳な空気を感じます。多賀大社は滋賀県内で最大規模を誇る大社であり、延命長寿や縁結び、厄除けの神様として知られています。滋賀県第一の大社としても知られ、長寿のご利益に関する様々なスポットがあります。また、近くに多くのお店があり、グルメも堪能できます。,522-0341 滋賀県犬上郡多賀町多賀６０４,1.5時間,駐車場あり,通年,1000円,何人でも,普通,屋外,35.22542320000001,136.2908635,1,恋人
道の駅 宇陀路室生,"https://motospot.jp/img/spot/img-100805-medium.jpg",奈良県にある道の駅「宇陀路室生」です。,633-0317 奈良県宇陀市室生三本松,1時間,駐車場あり,通年,無料,何人でも,普通,屋内,34.5735198,136.0324844,2,道の駅
道の駅 針Ｔ・Ｒ・Ｓ,"https://motospot.jp/img/spot/img-100806-medium.jpg",奈良県にある道の駅「針Ｔ・Ｒ・Ｓ」です。,632-0251 奈良県奈良市針町３４５,1時間,駐車場あり,通年,無料,何人でも,普通,屋内,34.6102162,135.963229,2,道の駅
本居宣長記念館,"https://motospot.jp/img/spot/img-711-medium.jpg",江戸時代に国学者・医師として活躍した本居宣長の功績を、多くの資料とともに紹介している博物館です。本居宣長直筆の書や遺品などが所狭しと展示されています。歴史好きにはたまらない、隠れたスポットです。旧宅も同じ松坂城址内に移築されて公開されています。,515-0073 三重県松阪市殿町１５３６−７,1時間,駐車場なし,通年,400円,何人でも,少し空いている,屋内,34.5750098,136.5253258,0,子連れ家族
アサヒビール大山崎山荘美術館,"https://motospot.jp/img/spot/img-1991-0-medium.jpg",京都府南部に位置する素敵な美術館です。アクセスは少し悪く、近隣のパーキングからは歩く必要がありますが、トンネルになった入口から自然豊かな公園を散歩することができ、晴れている時は気持ちが良いです。美術館にはカフェもあり、テラス席で山の景色を楽しむことができます。,618-0071 京都府乙訓郡大山崎町大山崎銭原５−３,3時間,駐車場なし,春,900円,何人でも,普通,屋内,34.8955764,135.6796319,0,子連れ家族
鉄道スクエア,"https://www.keihanhotels-resorts.co.jp/biwakohotel/wps/wp-content/uploads/2022/09/tetsudoumuseum7.png",鉄道スクエアは、長浜駅の近くにある鉄道の博物館です。規模はあまり大きくはありませんが、貴重な資料や展示、リアルなジオラマもあり鉄道好きの方には見学必須のスポットです。専用の駐車場は有りませんが、大きい有料駐車場が隣接しています。,526-0057 滋賀県長浜市北船町１−４１,1.5時間,駐車場あり,通年,600円,何人でも,少し空いている,屋内,35.3767338,136.2660168,0,子連れ家族
道の駅 大和路へぐり,"https://motospot.jp/img/spot/img-100807-medium.jpg",奈良県にある道の駅「大和路へぐり」です。,636-0903 奈良県生駒郡平群町平等寺７５−１,1時間,駐車場あり,通年,無料,何人でも,普通,屋内,34.6235091,135.7062627,2,道の駅
淡路ごちそう館　御食国（みつけのくに）,"https://motospot.jp/img/spot/img-1992-0-medium.jpg",淡路ごちそう館　御食国（みつけのくに）大正時代に建造されたレンガ造りの工場を生かした、開放感のある空間と歴史の香り漂う赤レンガの壁の施設です。施設内には広々としたレストランと特産品店があり、レストランでは地元の山海の幸を使った美味しい食事が楽しめます。また、併設されている「塩屋カフェ」では、淡路ビーフと淡路島の玉ねぎをふんだんに使った名物「淡路バーガー」が食べれます。,656-0021 兵庫県洲本市塩屋１丁目１−８,0.5時間,駐車場あり,通年,無料,何人でも,空いている,屋内,34.3455967,134.8954429,0,子連れ家族
道の駅 吉野路 大淀ｉセンター,"https://motospot.jp/img/spot/img-100808-medium.jpg",奈良県にある道の駅「吉野路 大淀ｉセンター」です。,638-0801 奈良県吉野郡大淀町芦原５３６−１,1時間,駐車場あり,通年,無料,何人でも,普通,屋内,34.412259,135.7969641,2,道の駅
姫路城,"https://motospot.jp/img/spot/img-713-1183-medium.jpg",姫路城は、その美しさから白鷺城とも呼ばれ、兵庫県を代表する観光地です。国宝に指定されている他、世界文化遺産にも登録されています。国内の現存12天守の一つで、創建時の姿を今に残す貴重な建造物で、壮大にして絢爛な城の外観には、とても圧倒されます。,670-0012 兵庫県姫路市本町６８,2.5時間,駐車場あり,春,1000円,何人でも,混んでいる,屋外,34.8376715,134.6956965,0,子連れ家族
天王寺動物園,"https://motospot.jp/img/spot/img-3017-0-medium.jpg",日本で3番目に古い動物園で、大正4年（1915年）に開園しました。約11ヘクタールの広大な園内には、180種類以上、約1000点の動物が飼育されています。特にライオン、チンパンジー、ホッキョクグマ、ニュージーランドの国鳥キーウィなど、多様な動物を見ることができます。見どころは、水中の生態を観察できるカバ舎や、現地の景観を再現したアフリカサバンナゾーン、ペンギンパーク＆アシカワーフなどです。天王寺動物園は、大阪のシンボルである通天閣や新世界にも近く、観光の拠点としても最適です。アクセスも良好で、地下鉄の動物園前駅から徒歩すぐの場所にあります。開園時間は9:30から17:00で、5月と9月の土日祝日は18:00まで延長されます。,543-0063 大阪府大阪市天王寺区茶臼山町１−１０８,3時間,駐車場あり,通年,500円,何人でも,少し混んでいる,屋外,34.6513392,135.510387,0,子連れ家族
道の駅 伊勢本街道 御杖,"https://motospot.jp/img/spot/img-100809-medium.jpg",奈良県にある道の駅「伊勢本街道 御杖」です。,633-1301 奈良県宇陀郡御杖村神末6325番地,1時間,駐車場あり,通年,無料,何人でも,普通,屋内,34.5156987,136.1993585,2,道の駅
道の駅 かつらぎ,"https://motospot.jp/img/spot/img-100810-medium.jpg",奈良県にある道の駅「かつらぎ」です。,639-2153 奈良県葛城市太田１２５７,1時間,駐車場あり,通年,無料,何人でも,普通,屋内,34.4947477,135.7041233,2,道の駅
蔵王橋,"https://motospot.jp/img/spot/img-459-medium.jpg",蔵王橋はダムの上に架かる吊り橋です。ここからは絶景が見られます。足元は格子状の鉄骨ですので、歩きながら下を見るとダム湖の湖面が見えます。春には周囲のソメイヨシノが咲き、お花見スポットとしても人気です。,643-0532 和歌山県有田郡有田川町沼１１１９,0.5時間,駐車場あり,春,無料,何人でも,少し空いている,屋外,34.0944765,135.3770812,1,恋人
コケコッコー共和国 山の駅よって亭,"https://motospot.jp/img/spot/img-2763-0-medium.jpg",自然豊かな環境の中で有精卵や平飼い鶏がいる施設です。卵や鶏肉製品を販売し、鶏焼肉が楽しめます。コケコッコー共和国のオリジナル商品もあります。山の駅よって亭は、コケコッコー共和国のアンテナショップとして、たまごかけご飯などの食事も楽しめます。施設は三重県多気町の山々に囲まれたのどかな風景の中にあり、お子様に人気のゴーカートや滑り台など、ご家族で楽しめるアクティビティもあります。10台程しか停められませんが、バイク用の駐輪場があります。車も10台程停められます。多気インターを降りてすぐなので、高速道路で行くのが便利です。スイーツも販売しています。,519-2211 三重県多気郡多気町丹生４４０９,2時間,バイク駐車場あり,通年,無料,何人でも,普通,屋内,34.461606,136.507459,0,子連れ家族
道の駅 レスティ唐古・鍵,"https://motospot.jp/img/spot/img-100811-medium.jpg",奈良県にある道の駅「レスティ唐古・鍵」です。,636-0226 奈良県磯城郡田原本町唐古７０−１,1時間,駐車場あり,通年,無料,何人でも,普通,屋内,34.571301,135.7974219,2,道の駅
長保寺,"https://cdn.jalan.jp/jalan/img/7/kuchikomi/5147/KL/5dd21_0005147144_1.jpg",和歌山県海南市下津町にある、紀州徳川家の菩提寺です。本堂・多宝塔・大門は、鎌倉室町期の建立とされ、いずれも国宝です。背後の山には紀州徳川家代々の藩主廟所があります。拝観料は300円、駐車場は無料です。,649-0164 和歌山県海南市下津町上６８９,1時間,駐車場あり,春,500円,何人でも,空いている,屋外,34.1086166,135.1653966,1,恋人
道の駅 飛鳥,"https://motospot.jp/img/spot/img-100812-medium.jpg",奈良県にある道の駅「飛鳥」です。,634-0138 奈良県高市郡明日香村越６−２,1時間,駐車場あり,通年,無料,何人でも,普通,屋内,34.4644365,135.7981669,2,道の駅
有田川温泉鮎茶屋,"https://cdn.jalan.jp/jalan/images/pict2L/Y8/Y326648/Y326648305.jpg",国道42号線沿いにある、有田市内唯一の温泉施設です。室内浴場と露店風呂があります。宴会場や食事処、お土産店もあります。泉質は特筆すべきものではありませんが、アクセスが非常に良いので、近くで宿泊する際は気軽に入浴できます。有田川対面の山々や背後は段々畑のみかん山で、シーズンは壮観な景色も楽しめます。,649-0312 和歌山県有田市星尾３７−３７,1時間,駐車場あり,通年,1000円,何人でも,少し空いている,屋内,34.0743485,135.16496,0,子連れ家族
道の駅 なら歴史芸術文化村,"https://motospot.jp/img/spot/img-100813-0-medium.jpg",奈良県にある道の駅「なら歴史芸術文化村」です。,630-8501 奈良県奈良市登大路町3,1時間,駐車場あり,通年,無料,何人でも,普通,屋内,34.6852037,135.8328002,2,道の駅
淡島神社,"https://www.wakayama-time.jp/wakayamatime/wp-content/uploads/2021/07/awashima-shrine2-scaled-1.jpeg",雛流し行事で有名な神社です。全国各地から多くの雛人形をはじめとする様々な人形が奉納されています。特に安産や子授けにご利益があると言われています。紀淡海峡のすぐ脇に位置しており、和歌山市内中心部からは約15㎞ほどです。,640-0103 和歌山県和歌山市加太１１８,0.5時間,駐車場あり,春,999円,何人でも,空いている,屋内,34.2735172,135.0668386,0,子連れ家族
龍鎮神社,"https://www.narakko.jp/wp-content/uploads/2023/04/2304ryuchin4.jpg",奈良県宇陀市に位置する「龍鎮（りゅうちん）神社」は、美しい深谷龍鎮渓谷の中に静かに佇むパワースポットです。雨乞いの龍神「高龗神」が祀られており、その滝壷に注ぐ神秘的なコバルトブルーの水は圧巻の美しさです。神社へは、室生ダム管理事務所の駐車場からダムの周回道路を約20分歩いたところにある龍鎮橋から渓谷に沿った遊歩道を5分ほど進むと到着します。神社は本殿と対岸に小さな祠と鳥居があり、その近くには美しい龍鎮の滝も存在します。この地は室生火山群が約1万5000年前の火山活動で作り出した景観があり、深谷川流域に広がる渓谷地帯は「やまとの水」に選定されています。周囲は神聖な域とされ、増水時などは渓谷を通るのが困難になることもありますが、普段は道路から簡単にアクセスできます。また、入り口は細く、気づかないで通り過ぎてしまう人もいるほど隠れた場所にあります。交通量は少なく、道幅も広いため、バイクなら路駐が可能です。車で訪れる場合、路駐が苦手な人は、10分ほど歩いた場所にある室生ダム管理所前の駐車場を利用することができます。,633-0211 奈良県宇陀市榛原荷阪,0.5時間,駐車場あり,通年,無料,何人でも,空いている,屋外,34.5337654,136.0038958,0,子連れ家族
道の駅 しみず,"https://motospot.jp/img/spot/img-100814-medium.jpg",和歌山県にある道の駅「しみず」です。,643-0521 和歌山県有田郡有田川町清水６０７,1時間,駐車場あり,通年,無料,何人でも,普通,屋内,34.0875729,135.4438633,2,道の駅
建仁寺,"http://ja.kyoto.travel/resource/tourism/276-1.jpg",建仁寺は京都最古の禅寺で、臨済宗建仁寺派の大本山です。1202年（建仁2年）に宋で禅を学んだ栄西が建立しました。堂塔伽藍や塔頭が連なり、建物は美しいこけら葺きの方丈や法堂などが一直線に並び、禅修行のひとつである浴室も現存しています。本尊は法堂の釈迦如来で、境内には風神雷神図屏風や双龍図などの見どころがあります。特に、俵屋宗達作の風神雷神図屏風は国宝となっています。保存のために本物は京都国立博物館に保管されていますが、最新のデジタル技術で再現されたものを見ることができます。また、白砂が敷きつめられた美しい枯山水の庭、大雄苑や潮音庭などの庭園もあります。栄西禅師は日本に茶種を持ち帰り広く一般に喫茶の習慣を広めた人物で、その功績を讃えて毎年春には本坊で大茶会が開かれ、禅宗古来の茶法が披露されます。また、月に一度、座禅と法話の会が開催されています。,605-0811 京都府京都市東山区大和大路通四条下る小松町５８４番地,1時間,駐車場なし,通年,600円,何人でも,少し混んでいる,屋内,34.9995775,135.7742082,1,恋人
道の駅 San Pin  中津,"https://motospot.jp/img/spot/img-100815-medium.jpg",和歌山県にある道の駅「San Pin  中津」です。,644-1111 和歌山県日高郡日高川町船津８２０,1時間,駐車場あり,通年,無料,何人でも,普通,屋内,33.9503119,135.2632787,2,道の駅
龍王ヶ渕,"https://motospot.jp/img/spot/img-464-medium.jpg",奈良県宇陀市の標高530mの山中にある自然池です。晴れて風のない日は水面に周辺の木々が鏡のように映り込み、大変美しいです。周りには遊歩道も整備されており、歩いて1周することができます。駐車場は少なく道中の道も狭いため、気をつけてください。,633-0316 奈良県宇陀市室生向渕,0.5時間,駐車場あり,通年,無料,何人でも,少し空いている,屋外,34.5831871,135.99437,1,恋人
三段壁,"https://motospot.jp/img/spot/img-1232-2-medium.jpg",約2キロに渡って高さ50メートルの切り立った崖が壮大で美しく、太平洋の波が激しく打ち付けている、迫力のある景勝地です。洞窟内へはエレベーターでアクセスする事が出来、降り立った洞窟内では黒潮の迫力と音を、肌で感じる事が出来ます。,649-2211 和歌山県西牟婁郡白浜町２９２７−５２,2時間,駐車場あり,通年,1300円,何人でも,少し混んでいる,屋内,33.6731118,135.3510386,1,恋人
赤目四十八滝,"https://motospot.jp/img/spot/img-1488-0-medium.jpg",三重県と奈良県の境を流れる滝川です。 いくつもの滝と遊歩道があり、遊歩道の長さは約4キロほどあります。全ての滝を見て歩くと約3時間かかります。「平成の名水百選」「日本の滝100選」「森林浴の森100選」「遊歩100選」にも選ばれた自然環境は、散策コースもあり、ハイキングや散策・森林浴などが楽しめます。滝入口付近にある日本サンショウウオセンターでは、赤目生まれのオオサンショウウオを含む国内産を中心に展示がされています。特別天然記念物に指定されているオオサンショウウオをじっくりと観察することができる貴重なスポットです。,518-0469 三重県名張市赤目町長坂６７１−１,3時間,駐車場あり,夏,500円,何人でも,少し空いている,屋外,34.5658686,136.084727,0,子連れ家族
けいはんな記念公園,"https://keihanna-park.net/wp/wp-content/uploads/2015/03/guide_kangetukyo_notext.jpg",京都府相良郡精華町にあり、とてもきれいな公園です。公園の中には、有料ですが「水景園」という日本庭園があって、四季折々の景色が楽しめます。また、水面10mの高さにある観月橋からは園庭が見渡せるのも魅力です。公園までの道も広くてキレイですし、近くには商業施設があるのでとても便利な所です。,619-0238 京都府相楽郡精華町精華台６丁目１,1.5時間,駐車場あり,通年,400円,何人でも,普通,屋外,34.7469823,135.7769817,0,子連れ家族
道の駅 ふるさとセンター大塔,"https://motospot.jp/img/spot/img-100816-medium.jpg",和歌山県にある道の駅「ふるさとセンター大塔」です。,646-1101 和歌山県田辺市鮎川９９７−１,1時間,駐車場あり,通年,無料,何人でも,普通,屋内,33.7428191,135.501844,2,道の駅
室生龍穴神社,"https://motospot.jp/img/spot/img-465-medium.jpg",奈良県宇陀市ある神社で、鳥居前や敷地内には樹齢何百年もあるような沢山の御神木に囲まれており、とても神秘的な空間です。身も心も洗われるような、まさにパワースポットと言える場所です。,633-0421 奈良県宇陀市室生１２９７,0.5時間,駐車場なし,通年,無料,何人でも,空いている,屋外,34.5349484,136.0471285,1,恋人
若杉高原おおやキャンプ場,"https://motospot.jp/img/spot/img-2257-0-medium.jpg",兵庫県養父市にあるキャンプ場です。冬はスキー場として運営しています。標高が少し高いため、朝晩の冷え込みには注意が必要です。道中も多少の山道はありますが、大型乗用車でも問題なく通行できます。夜の星空は絶景です。,667-0323 兵庫県養父市大屋町若杉９９−２,22時間,駐車場あり,秋,5000円,複数人,普通,屋外,35.2832733,134.5878739,0,子連れ家族
道の駅 龍神,"https://motospot.jp/img/spot/img-100817-medium.jpg",和歌山県にある道の駅「龍神」です。,645-0525 和歌山県田辺市龍神村龍神１７０−３,1時間,駐車場あり,通年,無料,何人でも,普通,屋内,33.9662345,135.5647761,2,道の駅
六波羅蜜寺,"https://motospot.jp/img/spot/img-2514-0-medium.jpg","六波羅蜜寺は、京都にある真言宗智山派の古刹で、西国三十三ヶ所めぐりの第17番札所でもあります。963年（応和3年）に空也上人により開かれ、南北朝時代に再建された本堂は重要文化財として保護されています。寺は、民家に囲まれた場所にひっそりと建っています。国宝の十一面観音像や重要文化財の空也上人像、平清盛像など、平安時代から鎌倉時代にかけての優れた仏像を多数所蔵しています。特に名高いのが、運慶の四男・康勝作とされる空也上人像で、空也の口からは「南無阿弥陀仏」の6字を象徴する阿弥陀仏の小像が吐き出されているとされます。また、寺周辺は「冥界への入口」とされる「六道之辻」の碑があり、""""幽霊子育て飴""""で知られる「みなとや」や、六道珍皇寺（ろくどうちんのうじ）などが存在するなど、ミステリースポットとしても知られています。「六波羅」が「髑髏ヶ原」が転じたとの逸話もあり、「あの世」の近くであることを覗わせるエピソードが数多く伝えられています。毎年1月1日から3日の皇服茶授与、8月8日から10日の萬燈会、12月13日から30日の公開空也踊躍念仏など、特別な行事も行われています。",605-0813 京都府京都市東山区轆轤町８１−１,0.5時間,駐車場あり,通年,600円,何人でも,普通,屋内,34.9970986,135.7733063,1,恋人
道の駅 イノブータンランド・すさみ,"https://motospot.jp/img/spot/img-100818-medium.jpg",和歌山県にある道の駅「イノブータンランド・すさみ」です。,649-3141 和歌山県西牟婁郡すさみ町見老津１−３２,1時間,駐車場あり,通年,無料,何人でも,普通,屋内,33.5205772,135.5456459,2,道の駅
道の駅 志原海岸,"https://motospot.jp/img/spot/img-100819-medium.jpg",和歌山県にある道の駅「志原海岸」です。,649-2511 和歌山県西牟婁郡白浜町日置２０３９−７３,1時間,駐車場あり,通年,無料,何人でも,普通,屋内,33.5704691,135.4314071,2,道の駅
余部クリスタルタワー,"https://kitakinki.gr.jp/wp-content/uploads/2018/12/171123161113_0.jpg",空の駅余部にある施設で、吊り橋のような線路にある駅に行くためのタワーです。エレベーターでタワーを登ると駅があり、この駅は現在も利用されているので時間になると列車が来ます。駅のホームからは日本海が眺められ、景色も綺麗です。,669-6671 兵庫県美方郡香美町香住区余部,0.5時間,駐車場あり,通年,無料,何人でも,空いている,屋外,35.6438391,134.5484366,0,子連れ家族
道の駅 熊野古道中辺路,"https://motospot.jp/img/spot/img-100820-medium.jpg",和歌山県にある道の駅「熊野古道中辺路」です。,646-1402 和歌山県田辺市中辺路町近露２４７４−１,1時間,駐車場あり,通年,無料,何人でも,普通,屋内,33.8121009,135.5949998,2,道の駅
赤穂御崎,"https://motospot.jp/img/spot/img-469-medium.jpg",瀬戸内海、家島、小豆島を一望できるスポットです。きらきら坂にはカフェやガラス工房などおしゃれなお店が並び、週末は観光客で賑わっています。温泉地としても有名で日本の夕日百選にも選ばれた赤穂御崎の夕日を眺めながら入浴できる温泉旅館が立ち並んでいます。海沿いの国道250号線ははりまシーサイドロードとも呼ばれ、東から来ても西から来ても景色を楽しめるので、ツーリングには最適です。,678-0215 兵庫県赤穂市御崎２−１,1時間,駐車場あり,春,無料,複数人,普通,屋内,34.7271195,134.4085807,1,恋人
道の駅 しらまの里,"https://motospot.jp/img/spot/img-100821-medium.jpg",和歌山県にある道の駅「しらまの里」です。,643-0164 和歌山県有田郡有田川町宇井苔２１３−１,1時間,駐車場あり,通年,無料,何人でも,普通,屋内,34.0150457,135.3344024,2,道の駅
道の駅 みなべうめ振興館,"https://motospot.jp/img/spot/img-100822-medium.jpg",和歌山県にある道の駅「みなべうめ振興館」です。,645-0026 和歌山県日高郡みなべ町谷口538番地１,1時間,駐車場あり,通年,無料,何人でも,普通,屋内,33.7906902,135.3270762,2,道の駅
道の駅 紀州備長炭記念公園,"https://motospot.jp/img/spot/img-100823-medium.jpg",和歌山県にある道の駅「紀州備長炭記念公園」です。,646-0102 和歌山県田辺市秋津川１４９１−１,1時間,駐車場あり,通年,無料,何人でも,普通,屋内,33.8034001,135.4275566,2,道の駅
越畑フレンドパーク　まつばら,"https://motospot.jp/img/spot/img-2264-0-medium.jpg",府道50号「京都日吉美山線」に位置する人気のそば屋です。十割そばをはじめとする色々なトッピングが付けられたそばが楽しめます。店の前には常に多くのお客さんが待っています。府道50号線は、狭い道と連続カーブ、アップダウンが激しく「腐道」と呼ばれる道路ですが、バイクツーリングならむしろ楽しめる道になっています。,616-8483 京都府京都市右京区嵯峨越畑鍋浦１０９−１,1時間,駐車場あり,通年,2000円,何人でも,少し混んでいる,屋内,35.09049090000001,135.6046445,0,子連れ家族
道の駅 瀞峡街道熊野川,"https://motospot.jp/img/spot/img-100824-medium.jpg",和歌山県にある道の駅「瀞峡街道熊野川」です。,647-1212 和歌山県新宮市熊野川町田長47,1時間,駐車場あり,通年,無料,何人でも,普通,屋内,33.7909374,135.896755,2,道の駅
那智の滝,"https://motospot.jp/img/spot/img-217-medium.jpg",那智の滝は「熊野古道」として世界遺産に認定されているため、山、川、海と豊富な自然があり、絶景スポットも多くあります。那智の滝の落差は133メートルで、一段の滝としては落差日本1位として知られています。国道42号線は和歌山の海沿いを走り、道幅が広く、海を眺めながらのツーリングに最適な場所となっています。,649-5301 和歌山県東牟婁郡那智勝浦町那智山,1時間,駐車場あり,通年,無料,何人でも,普通,屋外,33.6735036,135.8897105,1,恋人
太田ダム,"https://motospot.jp/img/spot/img-1241-medium.jpg",砥峰高原から峰山高原周辺にある池とダムです。林道が整備されており、非常に気持ちよくツーリングすることができます。バイク・車ともにそこまで多くなく空いている場所です。人は少なく、解放された自然が魅力です。,679-3103 兵庫県神崎郡神河町長谷,3時間,駐車場あり,通年,無料,何人でも,空いている,屋外,35.1183604,134.7287637,0,子連れ家族
道の駅 紀の川万葉の里,"https://motospot.jp/img/spot/img-100825-medium.jpg",和歌山県にある道の駅「紀の川万葉の里」です。,649-7164 和歌山県伊都郡かつらぎ町窪４８７−２,1時間,駐車場あり,通年,無料,何人でも,普通,屋内,34.284614,135.4649965,2,道の駅
道の駅 奥熊野古道ほんぐう,"https://motospot.jp/img/spot/img-100826-medium.jpg",和歌山県にある道の駅「奥熊野古道ほんぐう」です。,647-1743 和歌山県田辺市本宮町伏拝９０４−４,1時間,駐車場あり,通年,無料,何人でも,普通,屋内,33.8649688,135.7621768,2,道の駅
道の駅 おくとろ,"https://motospot.jp/img/spot/img-100827-medium.jpg",和歌山県にある道の駅「おくとろ」です。,647-1604 和歌山県東牟婁郡北山村下尾井３３５,1時間,駐車場あり,通年,無料,何人でも,普通,屋内,33.9392649,135.9463604,2,道の駅
菅原神社,"https://suzuka-kameyama.goguynet.jp/wp-content/uploads/sites/57/2021/03/FDFE69F2-368E-4D4E-8AE7-4C8829FB5653.jpeg",三重県鈴鹿市にある、菅原道真の坐像をご神体としている菅原神社です。民家に囲まれた中にあり、こじんまりとしていますが雰囲気のいい神社です。臥龍梅公園があり、そこでは梅まつりも開催されています。小さな公園の中に、梅が咲き乱れていて綺麗です。梅に時期であれば、特にオススメです。,513-0013 三重県鈴鹿市国分町８１１,1時間,駐車場あり,春,無料,何人でも,少し混んでいる,屋外,34.9115896,136.575291,0,子連れ家族
伊賀上野城,"https://motospot.jp/img/spot/img-2780-0-medium.jpg",伊賀上野城は三重県伊賀市にある、歴史価値のある城郭です。あの有名な伊賀の忍者の地元です。上野公園内にあり、白鳳城や伊賀上野城とも呼ばれています。城の外観は白い三層の美しい城郭で、「白鳳城」とも称され、日本有数の高さを誇る約30メートルの内堀の石垣が特徴的です。この石垣は映画のロケ地としても使用されてきました。広い公園には、お城あり、忍者のアトラクションあり、忍者の体験ありといろんなことが楽しめるスポットです。石垣からみる伊賀の町は眺望良し、歴史を感じることができます。伊賀上野城は、公益財団法人伊賀文化産業協会によって管理されており、上野市駅から徒歩で約8分の距離にあります。営業時間は9:00～17:00で、入場は16:45までとなっています。,518-0873 三重県伊賀市上野丸之内１０６,2.5時間,駐車場あり,通年,1000円,何人でも,空いている,屋外,34.7698381,136.1279393,0,子連れ家族
道の駅 水の郷日高川 龍游,"https://motospot.jp/img/spot/img-100828-medium.jpg",和歌山県にある道の駅「水の郷日高川 龍游」です。,645-0301 和歌山県田辺市龍神村福井５１１,1時間,駐車場あり,通年,無料,何人でも,普通,屋内,33.895183,135.4395732,2,道の駅
城南宮,"https://ja.kyoto.travel/resource/tourism/217-3.jpg",京都市伏見区にある神社です。「法除の大社」といわれています。家庭円満、厄除、安全祈願はもちろん、車のお祓いに全国から来られる方も多くいます。椿や桜、藤、紅葉など四季折々の景色が見られる園庭は「曲水の宴」が行われる神苑です。中でも枝垂れ梅が有名です。,612-8459 京都府京都市伏見区中島鳥羽離宮町７,1.5時間,駐車場あり,通年,無料,何人でも,少し混んでいる,屋外,34.9509807,135.7469031,1,恋人
田曽白浜ビーチ,"https://motospot.jp/img/spot/img-2269-0-medium.jpg",三重県南伊勢町田曽浦にある砂浜です。観光客は隣の志摩市の砂浜に流れるので、ここは穴場スポットです。天候が荒れた日以外は沖縄ばりの綺麗な海を見ることができます。地域の人達も優しい人ばかりで、田舎特有の良さがあります。また、少しお金をかけられる人は、近くにスカイダイビングができる施設もあるので、やってみるのもアリです。,516-0222 三重県度会郡南伊勢町田曽浦４５１４,1時間,駐車場あり,夏,500円,何人でも,空いている,屋外,34.3011494,136.713152,0,子連れ家族
高池の虫喰岩,"https://nankikumanogeo.jp/cms/wp_geopark/wp-content/uploads/pic_geosite071_main.jpg",高池の虫喰岩は、国の天然記念物に指定されている奇岩です。この岩は、古座川弧状岩脈の一部であり、流紋岩質火砕岩からなる岩体が風化し、タフォニ（虫食い状の穴）を形成したものです。風化の原因は、表面から塩類を含む水が蒸発する過程で、石膏などの微結晶が形成されることによります。高池の虫喰岩は、その独特の風貌から「虫に喰われたような穴が無数に刻まれた大岩」と形容され、風雨に侵食された岩全体に無数の穴が刻まれています。この地形は、南紀熊野のジオパークにも認定されており、自然の造形美として注目されています。高さ20mの岩壁で大小さまざまな穴が開いています。４～5mmの穴から　1mくらいのものまであります。耳の病気にも良いとされています。目の前に、道の駅虫喰岩があり、そこにバイクを止めて散策をするのもオススメです。,649-4103 和歌山県東牟婁郡古座川町池野山,0.5時間,駐車場あり,通年,無料,何人でも,空いている,屋外,33.5583094,135.8137377,2,道の駅
道の駅 明恵ふるさと館,"https://motospot.jp/img/spot/img-100829-medium.jpg",和歌山県にある道の駅「明恵ふるさと館」です。,643-0152 和歌山県有田郡有田川町金屋３２２−１,1時間,駐車場あり,通年,無料,何人でも,普通,屋内,34.0540572,135.2629427,2,道の駅
河内風穴,"https://motospot.jp/img/spot/img-734-medium.jpg",滋賀県多賀の山奥にある鍾乳洞です。川沿いの林道を抜け、山を少し登っていくと人ひとりが入れるギリギリの洞窟穴があります。入ると大きな鍾乳洞があり体感外気温−10°Cくらいの感覚になります。夏場だと絶好の避暑地スポットです。,522-0301 滋賀県犬上郡多賀町河内,2時間,駐車場あり,夏,500円,何人でも,少し空いている,屋外,35.2605226,136.3672674,1,恋人
道の駅 根来さくらの里,"https://motospot.jp/img/spot/img-100830-medium.jpg",和歌山県にある道の駅「根来さくらの里」です。,649-6201 和歌山県岩出市押川３７−１,1時間,駐車場あり,通年,無料,何人でも,普通,屋内,34.3118474,135.3069213,2,道の駅
速玉大社,"https://motospot.jp/img/spot/img-479-medium.jpg",速玉大社は、バイク乗りにとっての聖地と言われています。周囲には自然が豊かな道があり、海沿いを走るコースや山から行く道など、帰りと行きで異なるルートもあるため、道中も楽しめます。,647-0081 和歌山県新宮市新宮1番地,1時間,駐車場あり,秋,無料,何人でも,少し空いている,屋内,33.7322653,135.9834883,1,恋人
談山神社,"https://naratrip.com/wp-content/uploads/2011/11/0tanzanjinjyaklu.jpg",藤原鎌足公が祀られている談山神社には、本殿をはじめ、重要文化財の見どころがたくさんあります。中でも、十三重塔は世界唯一の木造で作られていて、一見の価値アリです。四季折々の季節で美しい景色が楽しめ、落ち着いた雰囲気でゆっくり境内を散策できます。また、縁結びの神社でもあります。談山神社までの道のりは、周りの景色を楽しめますので、ドライブの際には気持ちよく走れます。,633-0032 奈良県桜井市多武峰３１９,2時間,駐車場あり,秋,600円,何人でも,少し混んでいる,屋外,34.4656182,135.8607644,0,子連れ家族
白崎海洋公園展望台,"https://motospot.jp/img/spot/img-2783-2-medium.jpg",公園は、真っ白な石灰岩と青い海のコントラストが特徴で、エーゲ海を彷彿とさせるような絶景を楽しむことができます。展望台からは遠く淡路島や四国の山並みを一望でき、爽快な気分を味わうことが可能です。公園内では、水平線を一望できる見晴らしの良さや、夕方には「夕陽100選」にも選ばれた美しい夕陽を見ることができます。また、白崎海洋公園は和歌山県立自然公園としても指定されており、自然の美しさを保護しながら多くの訪問者に開放されています。公園内には87台の駐車スペースがあります。公園では、地元の海産物を使った食事も楽しむことができ、あかもく丼やしらす丼、えびカツバーガーなどもあります。道の駅 白崎海洋公園から徒歩5分くらいのところにあるので、アクセスは良好です。,649-1123 和歌山県日高郡由良町大引９６０−１,0.5時間,駐車場あり,通年,無料,何人でも,空いている,屋外,33.9770658,135.069429,1,恋人
道の駅 あらぎの里,"https://motospot.jp/img/spot/img-100831-medium.jpg",和歌山県にある道の駅「あらぎの里」です。,643-0511 和歌山県有田郡有田川町三田６６４−１,1時間,駐車場あり,通年,無料,何人でも,普通,屋内,34.0931077,135.4129196,2,道の駅
新舞子海水浴場,"https://motospot.jp/img/spot/img-2016-0-medium.jpg",春から夏にかけては潮干狩りをすることが出来ます。潮干狩りと共に宝探しもできるので潮干狩りに飽きても違うことして楽しめます！オススメは秋です。潮が引いた時に所々残ってる海でウユニ塩湖みたいな映え写真を撮ることが出来ます。,671-1301 兵庫県たつの市御津町黒崎,1時間,駐車場あり,通年,1000円,何人でも,空いている,屋外,34.775009,134.5572552,1,恋人
橋杭岩,"https://gazoo.com/pages/contents/drive/spot/191108/01.jpg",橋杭岩は和歌山県東牟婁郡串本町にある、大小約40の奇岩群です。この岩群は串本から大島に向かい、約850mの列を成してそそり立っています。海の浸食により岩の硬い部分だけが残り、まるで橋の杭のように見えることからこの名がつけられました。橋杭岩は、青く澄んだ海に突如として現れるが印象的です。干潮と満潮で雰囲気が変わります。干潮の時は歩いて行けます。橋杭岩の最も有名な伝説は、弘法大師（空海）が一夜にして作り出したというものです。この伝説は、岩の神秘的な美しさと相まって、橋杭岩をより特別な場所にしています。橋杭岩周辺には、道の駅くしもと橋杭岩があり、地元の特産品や食事を楽しむことができるほか、橋杭岩の美しい景色を一望できる展望台も設けられています。,649-3511 和歌山県東牟婁郡串本町鬮野川,0.5時間,駐車場あり,通年,無料,何人でも,空いている,屋外,33.4926172,135.7829081,1,恋人
道の駅 一枚岩,"https://motospot.jp/img/spot/img-100832-medium.jpg",一枚岩は和歌山県東牟婁郡古座川にあり国指定の天然記念物の巨岩です。近くにある道の駅では、キャンプをすることができます。岩のそばには古座川が流れ川遊びを楽しむこともできます。道の駅の前の道は程よいワインディングで走りやすく、道の駅のキャンプサイトの中にはバイク用のサイトもあります。,649-4235 和歌山県東牟婁郡古座川町相瀬２９０−２,1時間,駐車場あり,通年,無料,何人でも,普通,屋内,33.5459131,135.7201435,2,道の駅
神馬の湯,"https://motospot.jp/img/spot/img-1505-0-medium.jpg",最近できた温泉施設です。サウナが非常によく、他の温泉にはない10度以下の水風呂があるのがとてもおすすめです。食事環境もあり、岩盤浴もあるのでデートにもお使いいただける場所です。 岩盤浴は3種類あり、外の休憩スポットがあるので熱くなった体を外気で冷やすことができるのもおすすめです。,511-0105 三重県桑名市多度町小山,2時間,駐車場あり,通年,1000円,何人でも,少し混んでいる,屋内,35.1233236,136.6379525,0,子連れ家族
天理ダム,"https://lh6.googleusercontent.com/proxy/h7W6YjaA_yfq8XCUUur0Ax1IubtpbMvU0SCyJrgitNrSGO-BjarbUegNCF_4OsxDNV8DRohsm2VmeujEF9KKUqTaA5WUjMAn-jl68emashWoF4jv4bT31Q",天理ダムは、一級河川大和川水系布留川に建設された多目的ダムです。昭和54年（1979年）に完成し、奈良県初の多目的ダムとして、洪水調節、河川維持用水の確保、および天理市上水道の水源開発を目的としています。ダムの堤高は60mで、春には桜の絶景が広がる風致公園が併設されています。天理ダムの周辺には「レイクパーク」が設けられており、ダム湖畔の数箇所に公園や駐車場が整備されています。木々も大きく育ち、春から秋にかけては自然を楽しむ訪問者で賑わいます。また、ダムは治水対策や洪水調節の重要な役割を果たしており、天理市の上水道用水の供給源としても重要な位置を占めています。バイクの撮影はダムの手前の放流口が下から見えるところがベストです。,632-0123 奈良県天理市長滝町,0.5時間,駐車場なし,通年,無料,何人でも,空いている,屋外,34.5951589,135.8873346,0,子連れ家族
道の駅 白崎海洋公園,"https://motospot.jp/img/spot/img-100833-2-medium.jpg",白い石灰岩でできた土地に作られた道の駅で、ログハウスなどもありキャンプをしたりすることも可能です。展望台からは綺麗な太平洋の大海原を眺めることもでき、夕方には西の海に沈むきれいな夕日を見ることも可能です。夜には肉眼で天の川を見ることもできるスポットにもなっています。ダイビングやオートキャンプ場を兼ね備えた観光施設となっており、公園全体が白い石灰岩で囲まれ、青い海と白い岩のコントラストが印象的です。白さの正体は、2億5千万年以上前の古生代ペルム紀に形成された石灰岩が周辺一帯に広がっています。,649-1123 和歌山県日高郡由良町大引９６０−１,1時間,駐車場あり,通年,無料,何人でも,普通,屋内,33.9770658,135.069429,0,子連れ家族
柳生一刀石,"https://www.sankei.com/resizer/v2/VFYOH3QQRVJYPH4VYF7X6U2WMY.jpg?auth=8b095f56cb606dc0e1a178d60134e5a96487624b25bf935a751a0fae1c6f847d&quality=50&smart=true&width=1200&height=630",柳生一刀石は奈良県奈良市柳生町にある、中央から真っ二つに割れた巨石です。この岩には、柳生石舟斎が天狗と試合中に一刀両断に断ち切ったという伝説が残っています。柳生一刀石は、奈良市の柳生地区、特に芳徳寺の東南に位置しており、日本剣士の聖地としても知られています。奈良県の歴史や文化を感じることができるスポットの一つであり、柳生新陰流が誕生した地としてもその名を馳せています。アニメ『鬼滅の刃』に登場した一刀両断された岩と似ているとしてファンにも人気の場所となっています。駐車場はなく、麓に民間の駐車場がありますので、そこへ停めて徒歩20分程です。,630-1237 奈良県奈良市柳生町,0.5時間,駐車場なし,通年,無料,何人でも,空いている,屋外,34.7236164,135.9539064,0,子連れ家族
道の駅 椿はなの湯,"https://motospot.jp/img/spot/img-100834-medium.jpg",和歌山県にある道の駅「椿はなの湯」です。,649-2326 和歌山県西牟婁郡白浜町椿1058番地の1,1時間,駐車場あり,通年,無料,何人でも,普通,屋内,33.6032963,135.3918077,2,道の駅
鶉野飛行場滑走路跡地,"https://motospot.jp/img/spot/img-2787-0-medium.jpg",鶉野飛行場は第二次世界大戦末期の飛行場跡地です。この飛行場は、戦争が終わった後、食糧増産のために田畑に変わり、滑走路は国の土地となりました。現在、この滑走路跡は加西市が管理しており、1200mの滑走路が当時のまま残っているのは全国でも珍しいとされています。この地域は「sora加西（鶉野ミュージアム）」として地域活性化拠点施設が設けられ、令和4年4月にオープンしました。ミュージアムでは、姫路海軍航空隊鶉野飛行場で組み立てられていた「紫電改」と特攻機の歴史について学ぶことができます。また、滑走路そばには「平和祈念の碑」が設置されており、日本の平和を願うメッセージが込められています。滑走路跡地は、かつて陸上自衛隊の訓練施設（鶉野訓練場）としても使用されており、ヘリコプターなどの航空ショーが行われていたこともあります。場所によっては、バイクと零戦を一緒に撮影することが出来ます。レストランやお土産売り場があります。,675-2103 兵庫県加西市鶉野町２２７４−１１,1時間,駐車場あり,通年,無料,何人でも,空いている,屋内,34.8930472,134.8689173,0,子連れ家族
道の駅 なち,"https://motospot.jp/img/spot/img-100835-medium.jpg",和歌山県にある道の駅「なち」です。,649-5314 和歌山県東牟婁郡那智勝浦町浜ノ宮３６１−２,1時間,駐車場あり,通年,無料,何人でも,普通,屋内,33.6449043,135.9366638,2,道の駅
奈良公園,"https://motospot.jp/img/spot/img-2020-0-medium.jpg",奈良公園には東大寺や大仏など世界遺産があります。色んな種類の大仏や大仏の鼻と同じ大きさの穴が柱に空いていてそこをくぐったりすることもできます。公園内には鹿がおり、触れたり鹿せんべいをあげることもできます。とても広いので歩くだけでもなかなかの時間過ごすことができたり、秋になるとどんぐりが落ちていたり、紅葉がとても赤く綺麗なので、散歩するだけでも満喫できます。,奈良公園,5時間,駐車場あり,通年,無料,何人でも,普通,屋外,34.685047,135.843012,0,子連れ家族
飯盛山城,"https://lh6.googleusercontent.com/proxy/qid2n9mvrlE5AgJ8jhLVnckUvBtl6pv5BZ-UAO4KMS5upfGN5zxE2hdCoWL9h2vR_p4bcLh3auuZbFlK",飯盛山城は南北朝時代の山城で、標高745.6mの飯盛山山頂に築かれています。この城は建武元年（1334年）に北条高時が築いたとされ、天正9年（1581年）には織田信長による高野山攻めの際、高野山衆徒が籠もったとも伝えられています。城は山頂を主郭とした単郭の城で、周囲に高い切岸が巡り、北下に横堀がある構造です。秘境中の秘境で地図にはあるが道がないです。飯盛山城の特徴として、中世初期の山城ゆえに石垣はなく、山の地形を利用した土塁や横堀などの遺構が今も確認できます。しかし、現在山頂は整備されておらず、草木をかき分ける形で三角点を見つけることができます。飯盛山自体は『紀伊続風土記』に記載されており、「その形を似て名づく」とある山で、西側にある龍門山から伸びる龍門山脈に属します。飯盛山城は、歴史愛好家やハイキング愛好家にとって興味深いスポットであり、その歴史的背景や自然の美しさを楽しむことができます。,〒649-0152 和歌山県海南市下津町引尾６４９,0.5時間,駐車場なし,秋,無料,何人でも,空いている,屋外,34.1230991,135.2246422,1,恋人
道の駅 瀧之拝太郎,"https://motospot.jp/img/spot/img-100836-medium.jpg",和歌山県にある道の駅「瀧之拝太郎」です。,649-4216 和歌山県東牟婁郡古座川町小川７７４−１,1時間,駐車場あり,通年,無料,何人でも,普通,屋内,33.6019063,135.76573,2,道の駅
黒壁スクエア,"https://travel.rakuten.co.jp/mytrip/sites/mytrip/files/styles/main_image/public/2024-06/kurokabe-square-guide_1.jpg?itok=rv8H0oKe",黒壁スクエアは、最寄りの長浜駅から徒歩5分ほどのところにある商店街です。ここには「ガラス館」や「オルゴール館」などがあり、商店街の中にはユネスコ無形文化遺産に指定された曳山祭りについて学べる「曳山博物館」や「海洋堂」のフィギュアミュージカルもあります。長浜名物ののっぺいうどんや鯖そうめん、近江牛などが食べられるお店もあり、写真映えする食べ歩きスイーツ店なども多くあるため、幅広い年齢層が楽しめます。,526-0059 滋賀県長浜市元浜町１２−３８,3時間,駐車場あり,春,無料,複数人,普通,屋内,35.3808452,136.2671645,0,子連れ家族
七里御浜,"https://motospot.jp/img/spot/img-2277-0-medium.jpg",三重県熊野市から紀宝町にかけての海岸です。その名の通り七里にわたる広範囲に砂利の海岸が続いています。天気が良ければ一年中熊野灘を望む絶景スポットです。海岸沿いの国道４２号線を流せばすぐ脇に大海原が広がっており爽快です。七里御浜の北側に鬼が城という断崖絶壁を散策できるスポットがあり岩に激しく打ち付ける波が非常にスリルを味わえるスポットとなっています。気候の良い春、秋にはおすすめなツーリングスポットです。,519-5203 三重県南牟婁郡御浜町下市木,1時間,駐車場あり,通年,無料,何人でも,空いている,屋外,33.8269693,136.0515529,1,恋人
淡路島オートバイ神社,"https://motospot.jp/img/spot/img-2789-2-medium.jpg",淡路島オートバイ神社は、2021年10月14日に開設されました。この神社は、ライダーの交通安全を見守る目的で設立され、安乎岩戸信龍神社内にお目見えしました。淡路島1周のバイクツーリングコース上にあるため、ライダーたちにとっては訪れやすいスポットとなっています。おみくじがあり、旧車CBX1000が展示してあります。淡路島オートバイ神社の設立は、一般社団法人日本二輪車文化協会によって行われ、バイク文化の発展とライダーの安全を願う思いが込められています。神社周辺は、バイクの駐輪場をはじめ、訪問者の利便性を考慮した施設が整備されています。また、この地域は龍が祭られているパワースポットとしても知られ、バイク乗りだけでなく、多くの観光客やパワースポットを訪れる人々にも人気があります。,656-2121 兵庫県洲本市安乎町平安浦,0.5時間,駐車場あり,通年,無料,何人でも,空いている,屋外,34.3876744,134.8856205,0,子連れ家族
道の駅 田辺市龍神ごまさんスカイタワー,"https://motospot.jp/img/spot/img-100837-medium.jpg",和歌山県にある道の駅「田辺市龍神ごまさんスカイタワー」です。,645-0525 和歌山県田辺市龍神村龍神１０２０−６,1時間,駐車場あり,通年,無料,何人でも,普通,屋内,34.061278,135.5644111,2,道の駅
鞍掛峠,"https://motospot.jp/img/spot/img-742-medium.jpg",三重県いなべ市から滋賀県多賀町へ向かう国道で、三重県側は鞍掛トンネルまでの区間は勾配のきついワインディングロードが続き、県境のトンネルを超えた滋賀県側は逆に広くワインディングロードが続く景色の良いスポット昔から実際に知る人ぞ知る珍スポット,522-0321 滋賀県犬上郡多賀町藤原町本郷,3時間,不明,夏,無料,何人でも,少し空いている,屋外,35.1959502,136.4272917,0,子連れ家族
兵庫大仏,"https://motospot.jp/img/spot/img-2790-2-medium.jpg",兵庫大仏は、兵庫県神戸市兵庫区にある能福寺内に位置しています。この大仏は、明治時代に建立された初代大仏が戦時中の金属回収で供出されたため、現在の大仏は平成3年（1991年）に再建された2代目です。能福寺は天台宗の古刹で、山号は宝積山、本尊は秘仏・薬師如来です。能福寺は、延暦24年（805年）に最澄によって創建され、仁安3年（1168年）には平清盛公が出家しました。境内には平清盛の墓所などが祀られており、日本最初の密教強化霊場として知られています。兵庫大仏は、戦時中の金属供出により台座だけが残され、現在見られるのは平成3年に再建されたものです。蓮台と台座を含めて、高さ18mの巨大な坐像があります。能福寺（兵庫大仏）は、奈良、鎌倉とともに日本三大仏に数えられることもあり、その迫力ある姿は拝むだけでご利益があるとされています。また、能福寺は新西国三十三箇所第23番札所としても知られており、ビルシャナ殿があります。,652-0837 兵庫県神戸市兵庫区北逆瀬川町１−３９,0.5時間,駐車場あり,通年,無料,何人でも,空いている,屋外,34.6678053,135.1713399,0,子連れ家族
道の駅 くしもと橋杭岩,"https://motospot.jp/img/spot/img-100838-medium.jpg",海中に約850ｍの列を成して大小40余りの岩柱がそそり立っており、その規則的な並び方が橋の杭に似ていることからこの名が付いている。吉野熊野国立公園地域にあり、国の名勝天然記念物に指定され、道の駅「くしもと橋杭岩」が併設されて食事やおみやげ、トイレなどをが利用できる。,649-3511 和歌山県東牟婁郡串本町鬮野川１５４９−８,1時間,駐車場あり,通年,無料,何人でも,普通,屋内,33.4880964,135.7944301,2,道の駅
鶏足寺,"https://motospot.jp/img/spot/img-999-medium.jpg",お寺を拝観するまでの階段にまるで絨毯を引いたかのように紅葉が敷き詰められており、圧巻の絶景ポイントです。この絶景を鑑賞するまでの道のりは、軽いハイキングほどの距離があります。ちょっとした運動になるので、普段体を動かさない人も景色を楽しみながら体を動かせます。,529-0411 滋賀県長浜市木之本町古橋,1.5時間,駐車場なし,秋,無料,何人でも,普通,屋外,35.5157128,136.2618022,0,子連れ家族
根来SL公園,"https://e-akai.co.jp/wp-content/uploads/2020/02/sl-04-700x500.jpg",根来（ねごろ）SL公園は、歴史ある蒸気機関車「D51（デゴイチ）」を展示している公園です。公開時間は午前10時から午後4時までで、土曜日、お盆、年末年始は休園となりますが、日曜日と祝日は開園しています。機関車愛好家はもちろんのこと、知らない人でも楽しめる人気のスポットです。周辺には新義真言宗総本山根来寺や和歌山県立森林公園など、自然や歴史を感じられる場所が多くあります。すぐ隣にある「道の駅 ねごろ歴史の丘」からもSLが見えます。,649-6201 和歌山県岩出市根来２３４７−２１３,0.5時間,駐車場あり,通年,無料,何人でも,空いている,屋外,34.2872187,135.3116264,2,道の駅
道の駅 柿の郷くどやま,"https://motospot.jp/img/spot/img-100839-medium.jpg",和歌山県にある道の駅「柿の郷くどやま」です。,648-0161 和歌山県伊都郡九度山町入郷５−５,1時間,駐車場あり,通年,無料,何人でも,普通,屋内,34.2932309,135.555564,2,道の駅
須磨海浜公園,"https://motospot.jp/img/spot/img-744-medium.jpg",水族館やテニスコート、球技場などがあり、屋外でバーベキューができるお店もあるスポットです。夜にはランニングしている方や若者などがライトアップされた遊歩道を散歩しています。須磨海浜公園からは明石海峡大橋も見えるため、ライトアップされている時間帯は綺麗です。（ライトアップの時間帯は日没～23時まで）,654-0049 兵庫県神戸市須磨区若宮町１丁目３−１,1時間,駐車場あり,通年,無料,何人でも,少し空いている,屋外,34.6444908,135.129802,0,子連れ家族
白毫寺,"https://motospot.jp/img/spot/img-1000-medium.jpg",藤の花を鑑賞できる絶景スポットとして外せないのがここ、白毫寺です。春は藤、夏はセッコク、秋は紅葉、と季節ごとに綺麗な花が咲きます。,669-4334 兵庫県丹波市市島町白毫寺７０９,2時間,駐車場あり,春,300円,何人でも,少し混んでいる,屋外,35.1970727,135.0942896,1,恋人
加東アート館,"https://rezo-cha.com/wp/wp-content/themes/rezocha_01/images/sightseeing/kato-art-hall/mv02@2x.webp",加東アート館は、トリックアートや3Dアート、AR技術を駆使したトリックARアートを展示する、兵庫県内でユニークな美術館です。無料の駐車スペースがあり、美術館の訪問だけでなく、周辺の自然豊かなエリアを探索するのにも便利です。営業時間は10:00から17:00までで、水曜日は休館日ですが、祝日には開館しています。最新のAR技術を利用したアート作品は、特にインスタ映えする写真を求める若者にも人気があります。,679-0212 兵庫県加東市下滝野１２６９−２,2時間,駐車場あり,通年,440円,複数人,普通,屋内,34.9377768,134.9451398,0,子連れ家族
道の駅 虫喰岩,"https://motospot.jp/img/spot/img-100840-medium.jpg",和歌山県にある道の駅「虫喰岩」です。,649-4103 和歌山県東牟婁郡古座川町池野山７０５−１,1時間,駐車場あり,通年,無料,何人でも,普通,屋内,33.5394604,135.8261987,2,道の駅
正寿院,"https://motospot.jp/img/spot/img-1001-medium.jpg",京都の山奥にひっそりと存在する正寿院。ハート形に切り抜かれた猪の目窓に天井に敷き詰められた天井画は、インスタ映えスポットとしても、またカップルになりたい人といくと恋愛成就するかも。かわいいだけでなく、素敵な写真を求めるかたも是非足を運んでみてください。,610-0211 京都府綴喜郡宇治田原町奥山田川上１４９,1.5時間,駐車場あり,通年,600円,何人でも,普通,屋内,34.8498379,135.9207872,1,恋人
ささやまベリー,"https://motospot.jp/img/spot/img-2281-0-medium.jpg",兵庫県丹波篠山市にあるイチゴ狩りができる施設です。予約制なので混雑することなく楽しむことができます。また、しゃがむことなく立ったままイチゴを取ることができ、足場もシートでおおわれているため、土で汚れたりすることもありません。テーブルと椅子も用意されているので、ゆっくりと食べることもできます。,669-2452 兵庫県丹波篠山市野中８６８,1時間,駐車場あり,春,3000円,何人でも,普通,屋内,35.0604543,135.2290837,0,子連れ家族
葛井寺,"https://jh-saikoku33.jp/area/assets/pixta_4696021_M_3.jpg",大阪府藤井寺市にある葛井寺は、7世紀後半の白鳳期に創建された歴史深い寺院で、西国三十三箇所観音霊場の第五番札所です。本尊は日本最古の十一面千手観世音菩薩（千手観音）で、聖武天皇の勅願寺としても知られています。参拝時間は08:00から17:00までとなっており、四季折々の自然美を楽しむことができます。歴史と自然を感じながら、心穏やかな時間を過ごすことができるでしょう。葛井寺は、精神的な癒しを求めるバイクツーリングの途中に立ち寄るのに最適なスポットです。藤の花が有名なお寺でその時期になると藤棚がすごくきれいです。お寺の周りは古い町並みがあり散策するのも気持ち良いです。,583-0024 大阪府藤井寺市藤井寺１丁目１６−２１,1時間,駐車場なし,春,無料,何人でも,混んでいる,屋外,34.57016430000001,135.5966038,1,恋人
道の駅 くちくまの,"https://motospot.jp/img/spot/img-100841-medium.jpg",和歌山県にある道の駅「くちくまの」です。,649-2104 和歌山県西牟婁郡上富田町岩崎５５５−５,1時間,駐車場あり,通年,無料,何人でも,普通,屋内,33.6919043,135.4139381,2,道の駅
神戸メリケンパークオリエンタルホテル,"https://www.img-ikyu.com/contents/dg/guide/acc9/00000319/img/a_ss_01_200122.jpg?auto=compress,format&fit=crop&h=500&lossless=0&w=750",神戸の有名どころと言われるような大きなホテルで、ホテルの上の方の部屋を取ることをおすすめします。 夜景が絶景で港がイルミネーションで飾り付けされています。 ホテルの上層階の方に高級レストランもあり、神戸牛や海鮮などを味わうこともできます。 近くに商業施設もあり、そちらでディナーを楽しむことや中華街もあるので、食べ歩きしたい方にもおすすめです。 そちらの商業施設には、「アンパンマンミュージアム」があり、子連れで楽しむことができるような施設です。 お土産屋さんも多数ありました。 兵庫県に言った際は「神戸」に行ってみてはいかがでしょうか？,650-0042 兵庫県神戸市中央区波止場町５−６,17.1時間,駐車場あり,通年,15000円,何人でも,普通,屋内,34.6807649,135.1876235,0,子連れ家族
丹波竜の里公園,"https://motospot.jp/img/spot/img-2794-0-medium.jpg",丹波竜の里公園は、恐竜をテーマにした公園で、2006年に発見された新種の大型恐竜「丹波竜」にちなんで名付けられました。この公園の目玉は、体長15メートルにも及ぶ丹波竜の実物大モニュメントです。また、土日祝日には近くの「元気村かみくげ」で発掘体験もでき、恐竜に興味がある人には特におすすめのスポットです。恐竜の前でバイクと写真撮影もできます。,669-3101 兵庫県丹波市山南町上滝１９１３−１,0.5時間,駐車場あり,通年,無料,何人でも,空いている,屋外,35.0789187,135.1089248,0,子連れ家族
道の駅 すさみ,"https://motospot.jp/img/spot/img-100842-medium.jpg",和歌山県にある道の駅「すさみ」です。,649-3142 和歌山県西牟婁郡すさみ町江住８０８−１,1時間,駐車場あり,通年,無料,何人でも,普通,屋内,33.505491,135.5997407,2,道の駅
恐竜ランド極楽洞,"https://img2.mypl.net/image.php?id=513331&p=mp&s=1000_1000&op=",恐竜ランド極楽洞は、洞窟探検と恐竜展示が一体となったユニークな観光スポットです。この施設では、入場者全員にヘルメットが配られ、迷路のような坑道を探検する地底冒険が体験できます。特にライダーにとって、涼しい坑内は夏場の暑い日に最適な避暑地となります。営業時間は9:00から17:00までで、3月から9月は無休、10月から2月は木曜休業（祝日は除く）です。バイク駐車スペースもあり、周辺の自然豊かな景観と合わせて、ツーリングの目的地としておすすめです。恐竜好きの子どもから大人まで楽しめる施設となっています。国道480号から途中山越えの細い道路をくねくねと走る必要があるので、道中は気をつけてください。,643-0611 和歌山県伊都郡かつらぎ町花園梁瀬１０２０,1時間,駐車場あり,通年,900円,何人でも,普通,屋内,34.1614692,135.518333,0,子連れ家族
鞍馬寺,"https://motospot.jp/img/spot/img-3051-0-medium.jpg",鞍馬寺は、京都市にある歴史ある寺院で、鞍馬山の中腹にあります。創建は奈良時代の770年とされ、天台宗から独立した鞍馬弘教の総本山です。寺院は義経伝説や天狗伝説と深い関わりがあり、牛若丸（源義経）が天狗から武芸を学んだ場所として知られています。鞍馬寺の本殿金堂は、全ての生命に活力を与える「尊天」を祀っており、境内の中心にはパワースポットとされる「金剛床」があります。鞍馬山の自然は神秘的で、パワースポットとしても知られています。春は桜、秋は紅葉の名所として知られ、この時期は観光客で混み合います。境内は豊かな自然に囲まれ、四季折々の風景が楽しめることも特徴です。鞍馬山のケーブルカーを利用してアクセスできる他、山中を巡る散策コースも人気で、歩きながら自然と歴史を感じることができます。,601-1111 京都府京都市左京区鞍馬本町１０７４,2時間,不明,秋,500円,何人でも,普通,屋外,35.1180719,135.7694589,0,子連れ家族
道の駅 かつらぎ西,"https://motospot.jp/img/spot/img-100843-medium.jpg",和歌山県にある道の駅「かつらぎ西」です。,649-7161 和歌山県伊都郡かつらぎ町笠田東1271ｰ28,1時間,駐車場あり,通年,無料,何人でも,普通,屋内,34.2977942,135.4740527,2,道の駅
神戸ポートアイランド北公園,"https://motospot.jp/img/spot/img-1004-medium.jpg",神戸港にある人工島ポートアイランドの北側にある公園です。ひときわ目を引く赤い橋があります。写真を撮りに来ている人が多いですが、カップルや家族連れで来ている人もいます。昼の顔とは一転、夜になるとライトアップで告白のシチュエーションとしてはバッチリ！船の出向時には最高のロケーションとなる場所です。,650-0045 兵庫県神戸市中央区港島２丁目,0.5時間,駐車場あり,通年,無料,何人でも,少し空いている,屋外,34.671762,135.2057004,0,子連れ家族
峰山高原,"https://motospot.jp/img/spot/img-1260-medium.jpg",兵庫県の中腹にある高原です。ススキが有名な砥峰高原からバイクで20分ほどと近く、林道が印象的です。近隣に太田池があり、ダム施設も見どころの一つです。冬場はスキー場としても有名です。,679-3125 兵庫県神崎郡神河町上小田,3時間,駐車場あり,通年,無料,何人でも,少し空いている,屋外,35.1203147,134.6771425,1,恋人
梅花藻の見れる清水,"https://www.city.maibara.lg.jp/material/images/group/24/baikamosarusuberi.jpg",地蔵川は、居醒の清水から湧き出る清水が源となっており、珍しい水中花「梅花藻」を観察できることで知られています。梅花藻は、水温が年間を通じて14度程度と安定している環境でのみ見られるため、貴重な場所です。小川に8月下旬ころまで梅花藻が咲いています。居醒の清水は平成の名水100選にも選ばれています。また、この地域は貴重な淡水魚「ハリヨ」の生息地でもあります。旧街道沿いを散策途中に色々な撮影スポットがあります。,521-0035 滋賀県米原市醒井３８,1時間,駐車場あり,夏,無料,何人でも,少し混んでいる,屋外,35.3308577,136.3528065,1,恋人
鞍馬駅,"https://motospot.jp/img/spot/img-3052-0-medium.jpg",京都の出町柳駅から伸びる叡山電鉄の終点の鞍馬駅です。叡山電鉄はワンマン電車で、観光列車の車両が運行することもあります。駅前には鞍馬山の伝説にちなんだ大きな鞍馬天狗の像があり、その長い鼻が圧倒的な存在感です。鞍馬天狗の像は必ず写真を撮りたいスポットです。鞍馬駅から鞍馬寺までは徒歩圏内で、途中にはケーブルカーも利用できるため、気軽に訪れることができます。また、鞍馬温泉も近くにあり、観光後に温泉でリラックスするのもおすすめです。特に秋には紅葉が美しく、多くの観光客が訪れます。,601-1111 京都府京都市左京区鞍馬本町１９１,0.5時間,不明,秋,無料,何人でも,空いている,屋外,35.1128405,135.7724355,0,子連れ家族
道の駅 たいじ,"https://motospot.jp/img/spot/img-100844-medium.jpg",和歌山県にある道の駅「たいじ」です。,649-5172 和歌山県東牟婁郡太地町大字森浦１４３−１,1時間,駐車場あり,通年,無料,何人でも,普通,屋内,33.5922468,135.9337306,2,道の駅
神崎農村公園ヨーデルの森,"https://cdn.jalan.jp/jalan/img/7/kuchikomi/1787/KL/04ad4_0001787176_4.JPG",ヨーデルの森は、アルパカやカビパラなど60種、約200頭羽の動物達と間近にふれあえる農村公園です。おすすめは、タカ、フクロウ、インコが空を飛び交う、西日本最大級のバードパフォーマンスショーです。パン作りやピザ作り体験もでき、芝滑りもあります。花畑も綺麗で、沢山の種類の花が咲いています。お土産は、園内の工房で作られたプリンが人気でソフトクリームも美味しいです。,679-2431 兵庫県神崎郡神河町猪篠１８６８,5時間,駐車場あり,通年,2000円,何人でも,混んでいる,屋外,35.1376148,134.791139,0,子連れ家族
大阪市建設局 舞洲スラッジセンター,"https://www.obayashi.co.jp/chronicle/works/images/k/39400/39400_1.jpg",大阪市建設局が運営する舞洲スラッジセンターは、下水汚泥の処理を主な目的とした施設ですが、外観がユニークな場所です。2004年に稼働開始したこの施設は、お城のようなデザインで、舞洲エリアのランドマークともなっています。境保護の視点に立った環境保護芸術家として有名な、オーストリアの故フリーデンスライヒ・フンデルトヴァッサー氏がデザインしました。舞洲に入る際の大橋を渡っている最中にそびえ建つ焼却炉が見えます。事前予約をすれば工場見学も可能で、技術的な面から環境保全に至るまで、幅広い知識を得ることができます。また、施設周辺は散策やリフレッシュにも適しており、ライダーが休憩を取りながら周辺の景観を楽しむことができます。,554-0041 大阪府大阪市此花区北港白津２丁目２−７,0.5時間,駐車場なし,通年,無料,何人でも,空いている,屋外,34.6693415,135.4061508,0,子連れ家族
浄土真宗西本願寺,"https://motospot.jp/img/spot/img-3053-0-medium.jpg",浄土真宗本願寺派の本山でお西さん（西本願寺）とも呼ばれています。親鸞聖人の廟堂（びょうどう）から発展したそうです。特に注目すべきは、国宝の唐門（通称「日暮し門」）で、その精巧な彫刻と華麗な装飾は見る者を圧倒します。また、飛雲閣は桃山時代の文化を象徴する美しい建物として知られています。西本願寺は、世界遺産にも登録されており、多くの観光客が訪れる人気のスポットです。朝早くから開門しているので、早朝の訪問スポットにしたい場所です。時間帯によってはお坊さんの説法も聴けるそうです。参拝料はかかりません。,600-8501 京都府京都市下京区堀川通花屋町下る本願寺門前町,0.5時間,駐車場なし,通年,無料,何人でも,空いている,屋内,34.9927634,135.7404507,0,子連れ家族
道の駅 青洲の里,"https://motospot.jp/img/spot/img-100845-medium.jpg",和歌山県にある道の駅「青洲の里」です。,649-6604 和歌山県紀の川市西野山４７３,1時間,駐車場あり,通年,無料,何人でも,普通,屋内,34.2808163,135.441698,2,道の駅
うみてらす１４,"https://motospot.jp/img/spot/img-1774-0-medium.jpg",四日市港ポートビルの最上階、14階にある展望展示室です。ポートビルは四日市港開港100周年記念で建てられたビルで、三重県内で最も高いビルです。うみてらす14からは、四日市港のコンビナートや鈴鹿山脈など、四日市を一望できます。土日祝日は午後9時まで開館しているため、コンビナート夜景を楽しむこともできるので、夜景を楽しみたい人にもオススメです。,510-0011 三重県四日市市霞２丁目１−１,1時間,駐車場あり,通年,310円,何人でも,空いている,屋内,34.9932415,136.6574511,0,子連れ家族
ジーライオンミュージアム,"https://mice.osaka-info.jp/unique_venues/images/glion-museum-mice%20%282%29.jpg",ジーライオンミュージアム（GLION MUSEUM）は、希少なヴィンテージ車を展示する大阪市港区にあるユニークな施設です。1923年に建てられた赤レンガ倉庫を活用した空間は、日本で初めてのクラシックカーミュージアムとして、車好きの人やライダーにとっては見逃せないスポットです。建造物を活かし、往時のロンドンやニューヨークの街並みのような空間を演出しています。動態保存にこだわった展示は、自動車の歴史を深く知ることができます。月曜日が休館日で、大人の入館料は1200円、小学生は無料です。Osaka Metro「大阪港」駅から徒歩約5分とアクセスも良好で、バイクで訪れるにも便利な立地です。また、施設内にはレストランも併設されており、観光の合間に食事を楽しむこともできます。,552-0022 大阪府大阪市港区海岸通２丁目６−３９,2時間,駐車場あり,通年,1000円,何人でも,空いている,屋内,34.6515756,135.437227,0,子連れ家族
大阪天満宮,"https://motospot.jp/img/spot/img-3054-0-medium.jpg",大阪天満宮は、大阪市北区にある歴史ある神社で、菅原道真を主祭神としています。天満宮は「天満の天神さん」として地元の人々に親しまれ、学問の神としても有名です。境内には、本殿や神門などの重要文化財があり、美しい庭園も見どころの一つです。毎年7月24日から25日にかけて行われる天神祭は、日本三大祭りの一つとして広く知られています。この祭りでは、陸渡御と船渡御の行列や、花火大会が開催され、多くの観光客が訪れます。,530-0041 大阪府大阪市北区天神橋２丁目１−８,0.5時間,駐車場なし,春,無料,一人,空いている,屋外,34.6957587,135.5127749,0,子連れ家族
道の駅 くしがきの里,"https://motospot.jp/img/spot/img-100846-medium.jpg",和歌山県にある道の駅「くしがきの里」です。,649-7102 和歌山県伊都郡かつらぎ町滝５３−１,1時間,駐車場あり,通年,無料,何人でも,普通,屋内,34.3178094,135.4766278,2,道の駅
九華公園,"https://motospot.jp/img/spot/img-1775-0-medium.jpg",桑名城の本丸跡・二の丸跡に作られた公園です。のどかな空気が流れる公園で、4月は桜、5月はつつじ、6月は花しょうぶなど、季節によって様々な花を楽しむことができる場所です。毎年5月には金魚の露店や神輿が出る「金魚まつり」が開催され、夜まで多くの人でにぎわいます。,511-0032 三重県桑名市吉之丸５−１,1時間,駐車場あり,春,120円,何人でも,少し空いている,屋外,35.0641223,136.6978284,0,子連れ家族
滝畑ダム,"https://motospot.jp/img/spot/img-2799-2-medium.jpg",滝畑ダムは、大阪府河内長野市にある美しい自然に囲まれた地域で、ダム湖や周辺の景色が楽しめるスポットです。東側の管理用道路が車・バイク通行禁止ですが、ダムやその壮大な自然を背景にした写真撮影ができます。四季折々の景色が楽しめるため、年間を通じてさまざまな表情を見せる滝畑ダムは、ツーリングの目的地としておすすめです。近くに滝畑ふるさと文化財の森センターがあり、藁ぶき屋根の古民家があります。,586-0072 大阪府河内長野市滝畑２４０−２,1時間,駐車場あり,通年,無料,何人でも,空いている,屋外,34.3979445,135.5268214,0,子連れ家族
大阪くらしの今昔館,"https://motospot.jp/img/spot/img-3055-0-medium.jpg",大阪くらしの今昔館は、江戸時代から昭和時代にかけての大阪の町と人々の暮らしを体験的に学ぶことができる「住まい」をテーマにした、日本初の博物館です。館内には、天保時代（1830〜1844年）の大阪の町並みが再現されており、まるでタイムスリップしたかのような感覚を味わえます。主な展示には、昔の住居や商店の再現、当時の生活用品や衣装の展示があります。また、季節ごとに異なるイベントやワークショップも開催されています。和装体験ができるコーナーもあり、江戸時代の衣装を着て写真撮影を楽しむこともできます。ミュージアムは、地下鉄谷町線・堺筋線「天神橋筋六丁目駅」からすぐの場所にあり、アクセスも非常に便利です。,530-0041 大阪府大阪市北区天神橋６丁目４−２０,1時間,駐車場なし,通年,600円,一人,少し混んでいる,屋内,34.71031870000001,135.5116284,0,子連れ家族
道の駅 ねごろ歴史の丘,"https://motospot.jp/img/spot/img-100847-medium.jpg",和歌山県にある道の駅「ねごろ歴史の丘」です。,649-6202 和歌山県岩出市根来２０２０−１,1時間,駐車場あり,通年,無料,何人でも,普通,屋内,34.2869624,135.3113449,2,道の駅
伊弉諾神社,"https://motospot.jp/img/spot/img-752-medium.jpg",伊弉諾神社のご祭神は日本神話に登場する伊弉諾尊・伊弉冉尊です。国生み・神生みの神として日本書紀、古事記に登場する神です。淡路島は、日本神話では最初に生み出された島とされています。伊弉諾尊がこの地で余生を過ごされた聖地とされていて、本殿が明治時代に建造されるまでは、禁則の地とされていた由緒ある神社です。,656-1521 兵庫県淡路市多賀７４０,0.5時間,駐車場あり,夏,無料,何人でも,少し空いている,屋外,34.459875,134.8526782,0,子連れ家族
白藤の滝,"https://www.igaueno.net/igakankoucms/wp-content/uploads/2015/06/146_02.jpg",白藤の滝は、三重県伊賀市にある落差約15mの美しい滝です。もともとは30mの高さでしたが、明治29年の大洪水により現在の高さになりました。滝の周辺は四季折々の自然美が楽しめ、特に藤の花が咲く春と紅葉が美しい秋は、多くの観光客で賑わいます。ライダーにとっては、滝への道中も含めて自然豊かな景色を楽しむことができます。近くには不動明王が祀られており、夏場は涼を求める人々で賑わうことから、暑い季節のリフレッシュスポットとしてもオススメです。伊賀コリドールロードから滝川沿いに田代湖に向かい途中にあります。滝まで傾斜がある道を少し歩きますので、歩きやすい服装がオススメです。,519-1421 三重県伊賀市山畑,0.5時間,駐車場なし,秋,無料,何人でも,空いている,屋外,34.7934005,136.2426511,1,恋人
道の駅 四季の郷公園,"https://motospot.jp/img/spot/img-100848-medium.jpg",和歌山県にある道の駅「四季の郷公園」です。,640-0305 和歌山県和歌山市明王寺４７９−１,1時間,駐車場あり,通年,無料,何人でも,普通,屋内,34.2149996,135.2573927,2,道の駅
伊和神社,"https://motospot.jp/img/spot/img-753-medium.jpg",創建の年代は定かではありませんが、古代から（欽明天皇の時代、6世紀）存在していたとされる、歴史ある神社です。主祭神は大己貴神（大国主命）。播磨国の一宮、総氏神として古くから多くの人々から崇められてきた神社です。,671-4133 兵庫県宍粟市一宮町須行名４０７,0.5時間,駐車場なし,通年,無料,何人でも,少し空いている,屋外,35.0875683,134.5864725,1,恋人
阿万海岸海水浴場,"https://motospot.jp/img/spot/img-1265-medium.jpg",透きとおるようなマリンブルーの海と白くなめらかな砂浜が特徴で、開放感いっぱいの南国ムードが漂う海水浴場として若者やファミリーに絶大な人気があります。設備も充実しており、遊歩道・駐車場・休憩所・シャワー・トイレなどがあります。夜にはウミホタルの発光によって幻想的な風景が見られます。朝と夜、いつ行っても違った景色が楽しめる場所です。,656-0545 兵庫県南あわじ市阿万西町,3時間,駐車場あり,夏,無料,何人でも,普通,屋外,34.2120129,134.7300992,0,子連れ家族
西濱神社,"https://motospot.jp/img/spot/img-3057-0-medium.jpg",西濱神社は「西濱大明神岬」とも呼ばれ、淡路島西海岸のサンセットライン沿いにある神社です。海に面した岩場に洞窟があり、その裂け目を通ることは産道を通ることによって「生まれ変わる」ことができるという言い伝えがありパワースポットとして知られています。海を見渡すことができる展望台もおすすめで、特に夕日の時間帯には絶景が楽しめます。最近では関西テレビ系列の番組「フットマップ」でも取り上げられて、すこし混み合っていることもあります。,656-1557 兵庫県淡路市明神５９４,0.5時間,駐車場あり,春,無料,何人でも,少し混んでいる,屋外,34.4489226,134.7981245,0,子連れ家族
出石城跡,"https://motospot.jp/img/spot/img-1778-0-medium.jpg",いくつも並んだ鳥居や、綺麗な橋があり、城跡が好きな方にはオススメの場所です。川には鯉が泳いでおり、自然が豊かです。秋は紅葉も楽しめます。辺りには駐車場、お土産屋さん、皿そば屋、軽食店なども豊富です。美術館もすぐあります。辺りは田園や山道ですので、ツーリングにも最適です。,668-0214 兵庫県豊岡市出石町内町,1.5時間,駐車場あり,通年,無料,何人でも,少し混んでいる,屋外,35.4606062,134.8747045,0,子連れ家族
造幣博物館,"https://motospot.jp/img/spot/img-3058-0-medium.jpg",日本の硬貨を製造している唯一の造幣局が運営する博物館です。日本の造幣の歴史に始まり、各種記念貨幣の展示などがあります。造幣局ではオリンピックメダルや勲章も製造されており、それらも展示されています。3階建物にくまなく展示されており、じっくり見れば何時間でも居られる博物館です。,530-0043 大阪府大阪市北区天満１丁目１−７９,2時間,駐車場なし,通年,無料,一人,少し空いている,屋内,34.6957436,135.5216431,0,子連れ家族
背割り堤,"https://motospot.jp/img/spot/img-1011-medium.jpg",背割り堤は京都府内で有名な桜の名所です。春になると、最寄り駅である京阪電車、石清水八幡宮駅から多くの人が訪れ、出店が並ぶ場所となっています。淀川の土手に沿って咲く桜は美しいです。桜を見ながら食べるお弁当は格別です。また、サイクリングロードもあり、一年通じて人々が集まる場所となっています。,614-8312 京都府八幡市橋本尻江,1.5時間,駐車場あり,春,無料,何人でも,混んでいる,屋外,34.8894783,135.689356,0,子連れ家族
フォレストパーク神野山,"https://motospot.jp/img/spot/img-2291-0-medium.jpg",神野山と月ヶ瀬神野山自然公園があるスポットで、360度のパノラマが楽しめます。山頂から散策ができるように整備された遊歩道があります。また、春から秋にかけてはつつじが咲き誇り、新茶の時期には茶畑の新芽が青空に映えます。夜になると、多くの人が天体観測に訪れます。周辺には鍋倉渓、神野寺、めえめえ牧場などの観光施設もあります。「めえめえ牧場」では約60頭の羊が放牧されており、羊へのエサやりや羊の毛刈り、羊毛を使ったクラフトなどの体験イベントも定期的に開催されています。バーベキューができる場所がいくつかあるので、絶景を楽しみながらのバーベキューもできます。バーベキューでおなかがいっぱいになった後はハイキングで体いっぱいに大自然を楽しむことができます。３つほどコースがあり、それぞれの時間や体力に合わせて選べます。どのコースを使っても神野山山頂展望台に着くことができます。,630-2225 奈良県山辺郡山添村伏拝,4時間,駐車場あり,春,2000円,何人でも,空いている,屋外,34.6625485,135.9967512,1,恋人
御髪神社,"https://motospot.jp/img/spot/img-3059-0-medium.jpg",京都の嵐電嵐山駅すぐにある神社です。日本で唯一の髪にまつわる神社です。理容師、美容師などを生業にされている方や、国家資格の合格祈願される方が主に参拝されます。そこから派生して発毛を祈願しに参拝される方も少なくないようです。,616-8394 京都府京都市右京区嵯峨小倉山田淵山町１０,0.5時間,駐車場なし,秋,無料,一人,混んでいる,屋外,35.01766,135.6697769,0,子連れ家族
佐治川,"https://motospot.jp/img/spot/img-1268-medium.jpg",兵庫県中腹にある加古川の上流です。小さな川ですが平原が広々としており気持ちの良い絶景スポットです。道中の交通量は少なめでツーリングスポットとしては最適です。,669-3811 兵庫県丹波市青垣町佐治９４,1時間,不明,夏,無料,何人でも,少し空いている,屋外,35.2479586,135.0012122,1,恋人
車折神社,"https://motospot.jp/img/spot/img-3060-0-medium.jpg",芸能祈願を始めとし、様々なご利益があることで有名です。毎年多くの芸能人やアーティストがこの神社へ参拝します。神社の周りには朱色に塗られた「玉垣」が並び、芸能神社でお祈りされた方のお名前が書かれています。そこから派生して、推しのコンサートの当選祈願をするファンの絵馬も多くみられます。,616-8343 京都府京都市右京区嵯峨朝日町２３,0.5時間,駐車場なし,通年,無料,一人,混んでいる,屋外,35.01615,135.6889447,0,子連れ家族
旧堺灯台,"https://motospot.jp/img/spot/img-2549-0-medium.jpg",堺旧港の旧堺灯台は、明治10年（1877年）に建造され、高さは約11.3mの六角錘形の木造洋式灯台です。室町から安土桃山時代の天然の良港であった堺港は、堺の人々により修築され、その原型が今の堺旧港となっています。この灯台は、堺市民の寄付や堺県からの補助金で建築され、イギリス人技師ビグルストンの設計により建てられました。約1世紀の間、大阪湾を照らし続けたものの、昭和43年（1968年）の周辺の埋め立てにより使用を停止しました。老朽化していたが、平成13年度から18年度に保存修理工事が行われ、往時の姿を復元。現在は国の指定史跡として保存され、堺のシンボルの一つとして親しまれています。周辺には堺旧港や龍女神像などがあり、観光スポットとしても人気です。堺には世界遺産に登録された古墳もありますが、建物も古いものがかなり残っています。旧堺灯台は日本最古の木造様式灯台の１つとして国指定史跡になっています。夕焼けが綺麗で、ライトアップもあるので、夕焼け後に夜景を楽しむことも可能です。臨港線沿いにあるのですぐに立ち寄ることができます。近くにも他の写真スポットもあるのでおすすめです。,590-0974 大阪府堺市堺区大浜北町５丁１−地先,0.3時間,駐車場なし,夏,無料,何人でも,空いている,屋外,34.5820576,135.4594558,0,子連れ家族
保津川下り,"https://motospot.jp/img/spot/img-3061-0-medium.jpg",亀岡から嵯峨まで16kmに及ぶ保津川を、3人の船頭さんが手漕ぎして、船で下っていきます。近年世界的に有名な舟下りとして知られ、年間を通じて約30万の観光客が訪れ、外国人もとても多いです。春は桜、初夏は新緑、秋は紅葉と、四季それぞれの自然美とスリルを満喫できるアクティビティです。,621-0005 京都府亀岡市保津町下中島２,2時間,駐車場あり,秋,6000円,何人でも,少し混んでいる,屋外,35.017843,135.5866046,1,恋人
金閣寺,"https://static.gltjp.com/glt/data/article/21000/20339/20240209_044635_e8bb00e4_w1920.webp",室町幕府時代に足利義満が建てた歴史ある寺。世界遺産に認定されており、金色のとても綺麗な寺です。 一度みたら忘れられないほどの存在感をもっていて、日本人なら一度は見ておきたい寺があります。 余談ですが、１０．８センチ四方の金箔約２０万枚、約２０キロの金を使用しており 総工費は７億４千万円ととんでもない量の金使用してます。,603-8361 京都府京都市北区金閣寺町１,1時間,バイク駐車場あり,秋,2000円,複数人,普通,屋外,35.0400839,135.7298281,0,子連れ家族
薬師寺,"https://motospot.jp/img/spot/img-2294-0-medium.jpg",奈良県奈良市西ノ京にあり、一人旅・修学旅行生・海外からの旅行者と多くの方が訪れるスポットです。薬師寺の中心には、国宝の本尊薬師寺三尊像が祀られている金堂があり、目の前にすると圧倒されます。また、令和５年４月28日から国宝東塔落慶記念東塔・西塔の特別公開が開始されます。駐車場代は、車が500円、バイクは100円と良心的な金額となっています。注意点として、ナビで薬師寺を設定すると、駐車場とは違う場所へと案内されるので、事前に薬師寺の公式サイトをで確認しておくことをオススメします。,630-8563 奈良県奈良市西ノ京町４５７,0.5時間,駐車場あり,春,800円,一人,空いている,屋外,34.6704493,135.7852099,0,子連れ家族
浜寺公園,"https://osaka-info.jp/spot/images/25eceeee102abddc5d03807ffcddca8d93c2f0a2.jpg",明治6年に作られた日本最古の公園の一つで、「名松100選」にも選ばれた緑豊かな公園です。春には桜道ができます。園内にはスライダーのあるプール、ばら庭園、交通遊園などがあり、汽車やゴーカート、球技場、軟式野球場、テニスコート、アーチェーリー練習場、遊び場はもちろん、バーベキューなどの行楽や、南北2kmにわたる平坦な道のため、地元の人達のお散歩、ランニングコースでもあります。昔は和歌に詠まれる美しい浜があったのですが、現在は工場地帯となり、水路になっています。工場地帯となったことにより、対岸の工場夜景を見ることができます。,592-8346 大阪府堺市西区浜寺公園町,0.5時間,駐車場あり,春,無料,何人でも,少し空いている,屋外,34.5444174,135.4415679,0,子連れ家族
姫路市立動物園,"https://motospot.jp/img/spot/img-3062-0-medium.jpg",姫路市立動物園は、兵庫県姫路市にある動物園で、1951年に開園しました。姫路城のすぐ隣にあり、動物園自体が姫路城の堀の一部を利用したユニークな作りとなっています。園内では、ライオンやキリン、サル、鳥類など、約60種の動物が飼育されています。また、動物園には小規模な遊園地も併設されており、観覧車やメリーゴーランドなど、子供連れの家族に人気があります。アクセスの良さと、姫路城観光と合わせて訪れることができる点が魅力の一つです。,670-0012 兵庫県姫路市本町６８,1時間,駐車場なし,春,250円,何人でも,空いている,屋外,34.8376715,134.6956965,0,子連れ家族
竹野浜,"https://motospot.jp/img/spot/img-2295-0-medium.jpg",竹野浜は、沖縄やハワイのような美しい青いビーチを関西で体験することができる絶好のスポットです。日本の渚百選、快水浴場百選に選ばれているほどです。透明で美しい海と砂浜を堪能できます。城崎方面からバイクツーリングで訪れると、高台から美しいビーチが一望できます。海岸線を走ると気持ちが良いです。ビーチは広々として遠浅で、比較的穏やかです。,669-6201 兵庫県竹野町竹野,5時間,駐車場あり,夏,2000円,何人でも,少し空いている,屋外,35.6557453,134.7613974,0,子連れ家族
岸和田城,"https://motospot.jp/img/spot/img-2552-2-medium.jpg",だんじり祭りで知られている岸和田市にあるお城です。ハリウッド映画のロケ地にもなっています。古い歴史を持つ名城で、南北朝時代に楠木正成の一族、和田高家によって築かれました。その後、羽柴秀吉の紀州征伐の結果、小出秀政が城主として大規模な改修を行い、城の姿が一新されました。江戸時代に入ると岡部宣勝が城主となり、岡部氏が13代にわたり岸和田藩を統治しました。この時期、地域の文化として「岸和田だんじり祭り」が始まったと伝えられています。天守閣は落雷により焼失しており、現在の天守閣は昭和29年に建造された3層3階の天守です。天守閣に入るには大人300円が必要ですが、城下を一望することができます。岸和田城は、「猪伏山(いぶせやま)ちきり城」や「ちぎり城」とも称される美しい城で、その名の由来は城の特有の形状や地域の伝承にちなんでいます。大阪と和歌山を繋ぐ紀州街道の要所に位置しており、その立地も岸和田城の重要性を物語っています。岸和田城庭園は、国指定名勝です。堀の外側を１周することができます。岸和田城は観光施設として活用されており、ウエディングの会場としても利用されています。,596-0073 大阪府岸和田市岸城町９−１,0.5時間,駐車場あり,春,無料,何人でも,空いている,屋外,34.4588131,135.3708072,0,子連れ家族
伊勢志摩スカイライン,"https://motospot.jp/img/spot/img-1785-0-medium.jpg",三重県の伊勢と鳥羽を結ぶ天空のドライブウェイです。天空というだけあって景色は最高で、景色の良いところには、駐車場が設けられており絶景を楽しむことができます。自然豊かで景色を楽しみながらドライブを楽しめる場所です。有料道路ですがお金払う価値がある場所です。スカイライン頂上には、広い駐車場があり、売店もあります。通行時間は日中のみで夜は走行できないので、要注意です。,三重県伊勢市朝熊町185-3,1時間,駐車場あり,通年,1270円,何人でも,空いている,屋外,34.4597376,136.7912051,0,子連れ家族
平安神宮,"https://motospot.jp/img/spot/img-2809-0-medium.jpg",平安神宮は京都市左京区に位置し、平安遷都1100周年を記念して1895年に創建されました。この神社は、その巨大な朱色の鳥居と美しい庭園で知られており、京都の文化と歴史の象徴の一つとして人気があります。神社の広大な庭園「神苑」は、季節ごとに異なる自然の美しさを堪能でき、春の桜や秋の紅葉の時期には格別の景色が楽しめます。また、時代祭などの年間を通じて行われるさまざまな祭事も見どころの一つです。文化と自然の美を求めるライダーにとって、訪れる価値のあるスポットです。,606-8341 京都府京都市左京区岡崎西天王町９７,0.25時間,不明,秋,無料,一人,空いている,屋外,35.0153084,135.7836603,1,恋人
六甲マリンパーク,"https://motospot.jp/img/spot/img-1018-medium.jpg",六甲マリンパークは、人工島の六甲アイランドにある公園です。周辺は、直線道路が多く、天気が良い日は未来都市のようで気持ち良いです。対岸には神戸の六甲山脈が見え、神戸大橋やポートタワーも一望できます。駐車場でライダーがよく休憩しています。,658-0032 兵庫県神戸市東灘区向洋町中４丁目,1時間,駐車場あり,夏,無料,一人,少し空いている,屋外,34.6843009,135.2741678,0,子連れ家族
吉水神社,"https://motospot.jp/img/spot/img-2810-0-medium.jpg",吉水神社は奈良県吉野郡吉野町にある歴史深い神社で、世界遺産「紀伊山地の霊場と参詣道」の一部です。後醍醐天皇や源義経、静御前にゆかりのある地としても知られ、豊臣秀吉の花見の場所としても有名です。神社内の書院は重要文化財に指定されており、南朝時代の宝物が展示されています。美しい吉野の自然に囲まれ、四季折々の風景を楽しむことができます。特に春の桜の季節は、訪れる多くの観光客で賑わいます。秀吉が訪れたと言われている千本桜は圧巻、吉水神社が高い場所にあり、そこからみる桜は素晴らしい絶景となってます。豊かな自然と歴史的建造物の美しさに触れながら、心身ともに癒される時間を過ごすことができるでしょう。年中無休で開放されており、訪れやすいスポットとなっています。,639-3115 奈良県吉野郡吉野町吉野山５７９,1.5時間,駐車場あり,通年,無料,何人でも,普通,屋外,34.36730319999999,135.8618005,1,恋人
舞子公園,"https://motospot.jp/img/spot/img-1019-medium.jpg",北側は松林の静かな、夏でも涼しい公園が広がっています。南側は淡路島に面した公園で海が間近に見られる開放的な、公園となっています。釣りスポットとしても有名な場所で、釣り人が行き来しています。ライダーもよく停まっています。ホテルもあります。少し行くと開眼もあり夏場は海開きもしています。時折テントで寝泊まりしている人も。明石海峡大橋を真下から見上げることもできます。,655-0047 兵庫県神戸市垂水区東舞子町４−２０５１,1時間,駐車場あり,通年,無料,一人,少し空いている,屋外,34.6300651,135.0344371,0,子連れ家族
九品寺,"https://motospot.jp/img/spot/img-1531-0-medium.jpg",奈良南部にある寺院「九品寺」は、彼岸花で有名なスポットです。見頃の季節は夏が終わって気温が下がり出す頃に咲き始めます。写真は、9月中旬の様子です。このスポットに行くまでの道は走りやすく建物も少ないので、自然を楽しむツーリングには最適です。,639-2313 奈良県御所市楢原１１８８,1時間,駐車場あり,秋,無料,何人でも,少し混んでいる,屋外,34.4536654,135.7122072,0,子連れ家族
クラフトサーカス,"https://motospot.jp/img/spot/img-764-medium.jpg",海が一望できるレストランです。メニューはアメリカ西海岸をイメージした海鮮系の料理が多く、海と一緒に撮影すると何の加工もしなくても映える写真を撮れます。また、インスタ映えする料理にありがちな料金が高いわりに量が少ないということもなく、かなりお腹いっぱい食べられます。,656-1724 兵庫県淡路市野島平林２−２,1.5時間,駐車場あり,夏,3000円,何人でも,普通,屋内,34.5858634,134.9662811,0,子連れ家族
曽爾高原,"https://yamatoji.nara-kankou.or.jp/contents/images/0000003901/f39811ec9634658a457bc51c01c09713.JPG",見渡す限りの緑、自然、そして空、景色を見た瞬間に緑と空の青に圧倒されます。夜には明かりもなく、邪魔する障害物がないため、満天の星空を眺めることのできる夜景数ポットでもあります。階段を登り高原の頂上に立つと、疲れを吹き飛ばしてくれるような絶景を堪能することができます。高原をバックに撮影しているモデルとカメラマンも来るほど、写真撮影には絶好の場所です。一番良い時期は、ススキがきれいな秋ですが、夏でも気温は24度と涼しく、避暑地として行くのもオススメです。,633-1202 奈良県宇陀郡曽爾村太良路,2時間,駐車場あり,秋,無料,複数人,混んでいる,屋外,34.5184297,136.1541748,1,恋人
生駒山 パノラマ駐車場,"https://motospot.jp/img/spot/img-766-medium.jpg",右手にはたくさんの光が灯る大阪の夜景、左手には落ち着いた雰囲気の奈良の夜景が楽しめます。何時間でもここにいたいと思うような、まったりした時間を過ごすことができます。,579-8032 奈良県生駒市菜畑町２１１６,1時間,駐車場あり,冬,未設定,複数人,少し空いている,屋外,34.6812016,135.679375,1,恋人
ライダーズカフェMM,"https://motospot.jp/img/spot/img-1022-medium.jpg",瀬田川の洋館風の建物でバイク好きのオーナーさんが排気量・車種を問わずバイカーのみなさんがよく集まります。 駐車場も広く駐車しやすく建物も大きいのですぐに分かります。 その他にも広々とした店内にはJAZZやハーレーに雑誌が置いてありバイクを眺めながらお茶ができるようになっています。,520-0000 滋賀県大津市石山南郷町６丁目１２１５,1時間,駐車場あり,夏,1000円,何人でも,普通,屋外,34.9228611,135.9129243,0,子連れ家族